{"type":"FeatureCollection","features":[{"type":"Feature","properties":{"id":"2700102","nome":"\u00c1gua Branca"},"geometry":{"type":"Polygon","coordinates":[[[-37.919,-9.145],[-37.875,-9.189],[-37.874,-9.189],[-37.856,-9.208],[-37.842,-9.222],[-37.825,-9.239],[-37.781,-9.282],[-37.771,-9.293],[-37.777,-9.307],[-37.779,-9.325],[-37.795,-9.329],[-37.807,-9.328],[-37.815,-9.335],[-37.82,-9.335],[-37.827,-9.351],[-37.834,-9.352],[-37.837,-9.364],[-37.848,-9.374],[-37.852,-9.391],[-37.861,-9.397],[-37.862,-9.401],[-37.866,-9.402],[-37.87,-9.406],[-37.875,-9.405],[-37.876,-9.413],[-37.94,-9.376],[-38.007,-9.338],[-38.002,-9.336],[-37.985,-9.33],[-37.979,-9.307],[-37.982,-9.301],[-37.978,-9.298],[-37.984,-9.284],[-37.979,-9.268],[-37.972,-9.257],[-37.96,-9.246],[-37.987,-9.242],[-37.977,-9.232],[-37.973,-9.221],[-37.974,-9.216],[-37.971,-9.213],[-37.985,-9.179],[-38.0,-9.173],[-38.003,-9.161],[-38.011,-9.156],[-37.999,-9.152],[-37.991,-9.155],[-37.979,-9.148],[-37.971,-9.125],[-37.957,-9.115],[-37.954,-9.109],[-37.919,-9.145]]]}},{"type":"Feature","properties":{"id":"2700201","nome":"Anadia"},"geometry":{"type":"Polygon","coordinates":[[[-36.351,-9.607],[-36.32,-9.608],[-36.318,-9.607],[-36.293,-9.601],[-36.288,-9.609],[-36.254,-9.623],[-36.243,-9.662],[-36.24,-9.677],[-36.24,-9.678],[-36.246,-9.732],[-36.254,-9.729],[-36.279,-9.734],[-36.317,-9.723],[-36.323,-9.718],[-36.324,-9.713],[-36.332,-9.712],[-36.335,-9.729],[-36.342,-9.738],[-36.343,-9.713],[-36.37,-9.698],[-36.372,-9.68],[-36.379,-9.657],[-36.385,-9.654],[-36.388,-9.651],[-36.394,-9.648],[-36.38,-9.635],[-36.388,-9.628],[-36.391,-9.605],[-36.392,-9.602],[-36.35,-9.592],[-36.347,-9.594],[-36.344,-9.6],[-36.351,-9.607]]]}},{"type":"Feature","properties":{"id":"2700300","nome":"Arapiraca"},"geometry":{"type":"Polygon","coordinates":[[[-36.678,-9.637],[-36.658,-9.641],[-36.637,-9.636],[-36.631,-9.644],[-36.623,-9.655],[-36.609,-9.654],[-36.61,-9.665],[-36.599,-9.68],[-36.594,-9.685],[-36.595,-9.692],[-36.587,-9.692],[-36.584,-9.699],[-36.583,-9.7],[-36.57,-9.708],[-36.581,-9.708],[-36.583,-9.714],[-36.575,-9.727],[-36.577,-9.737],[-36.573,-9.749],[-36.556,-9.768],[-36.552,-9.771],[-36.562,-9.791],[-36.565,-9.803],[-36.555,-9.805],[-36.548,-9.808],[-36.549,-9.811],[-36.554,-9.833],[-36.555,-9.839],[-36.555,-9.842],[-36.555,-9.851],[-36.55,-9.86],[-36.541,-9.871],[-36.541,-9.882],[-36.56,-9.874],[-36.573,-9.877],[-36.574,-9.877],[-36.584,-9.881],[-36.591,-9.878],[-36.592,-9.872],[-36.598,-9.872],[-36.604,-9.872],[-36.618,-9.862],[-36.63,-9.836],[-36.631,-9.834],[-36.631,-9.833],[-36.641,-9.827],[-36.665,-9.812],[-36.69,-9.804],[-36.698,-9.792],[-36.717,-9.764],[-36.721,-9.757],[-36.734,-9.738],[-36.735,-9.737],[-36.753,-9.709],[-36.742,-9.697],[-36.734,-9.686],[-36.734,-9.685],[-36.727,-9.677],[-36.716,-9.663],[-36.696,-9.638],[-36.693,-9.633],[-36.678,-9.637]]]}},{"type":"Feature","properties":{"id":"2700409","nome":"Atalaia"},"geometry":{"type":"Polygon","coordinates":[[[-35.934,-9.447],[-35.933,-9.48],[-35.94,-9.498],[-35.959,-9.528],[-35.979,-9.55],[-35.977,-9.556],[-36.0,-9.575],[-36.006,-9.586],[-36.017,-9.575],[-36.081,-9.598],[-36.092,-9.601],[-36.12,-9.595],[-36.126,-9.598],[-36.13,-9.604],[-36.138,-9.613],[-36.15,-9.612],[-36.158,-9.618],[-36.174,-9.612],[-36.181,-9.612],[-36.182,-9.612],[-36.191,-9.599],[-36.214,-9.57],[-36.218,-9.564],[-36.228,-9.515],[-36.217,-9.474],[-36.208,-9.455],[-36.155,-9.472],[-36.144,-9.461],[-36.138,-9.46],[-36.133,-9.455],[-36.104,-9.456],[-36.1,-9.452],[-36.067,-9.429],[-36.054,-9.423],[-36.014,-9.401],[-35.957,-9.383],[-35.948,-9.38],[-35.928,-9.374],[-35.937,-9.401],[-35.934,-9.447]]]}},{"type":"Feature","properties":{"id":"2700508","nome":"Barra de Santo Ant\u00f4nio"},"geometry":{"type":"Polygon","coordinates":[[[-35.463,-9.347],[-35.487,-9.374],[-35.495,-9.391],[-35.496,-9.401],[-35.497,-9.419],[-35.502,-9.418],[-35.513,-9.44],[-35.525,-9.443],[-35.528,-9.436],[-35.53,-9.438],[-35.534,-9.43],[-35.537,-9.423],[-35.546,-9.416],[-35.544,-9.41],[-35.549,-9.404],[-35.554,-9.404],[-35.564,-9.404],[-35.571,-9.401],[-35.592,-9.405],[-35.595,-9.408],[-35.6,-9.406],[-35.61,-9.406],[-35.611,-9.404],[-35.616,-9.407],[-35.621,-9.409],[-35.623,-9.407],[-35.641,-9.401],[-35.65,-9.404],[-35.666,-9.398],[-35.676,-9.398],[-35.687,-9.37],[-35.686,-9.37],[-35.589,-9.36],[-35.567,-9.355],[-35.563,-9.357],[-35.536,-9.346],[-35.523,-9.354],[-35.518,-9.354],[-35.514,-9.346],[-35.52,-9.323],[-35.513,-9.314],[-35.513,-9.307],[-35.475,-9.338],[-35.463,-9.347]]]}},{"type":"Feature","properties":{"id":"2700607","nome":"Barra de S\u00e3o Miguel"},"geometry":{"type":"Polygon","coordinates":[[[-35.991,-9.781],[-35.98,-9.786],[-35.973,-9.784],[-35.961,-9.79],[-35.956,-9.786],[-35.941,-9.787],[-35.937,-9.794],[-35.926,-9.795],[-35.914,-9.809],[-35.905,-9.811],[-35.862,-9.791],[-35.855,-9.788],[-35.873,-9.817],[-35.879,-9.826],[-35.889,-9.84],[-35.902,-9.87],[-35.903,-9.86],[-35.91,-9.846],[-35.914,-9.842],[-35.922,-9.837],[-35.938,-9.844],[-35.95,-9.845],[-35.96,-9.836],[-35.961,-9.835],[-35.967,-9.83],[-35.974,-9.826],[-35.984,-9.826],[-35.991,-9.818],[-35.997,-9.819],[-36.005,-9.811],[-36.015,-9.807],[-36.026,-9.811],[-36.026,-9.81],[-36.004,-9.767],[-36.0,-9.774],[-35.991,-9.781]]]}},{"type":"Feature","properties":{"id":"2700706","nome":"Batalha"},"geometry":{"type":"Polygon","coordinates":[[[-37.031,-9.688],[-37.008,-9.708],[-36.993,-9.72],[-37.002,-9.733],[-36.999,-9.74],[-36.998,-9.763],[-37.011,-9.769],[-37.017,-9.775],[-37.022,-9.787],[-37.029,-9.788],[-37.032,-9.793],[-37.037,-9.805],[-37.035,-9.81],[-37.041,-9.808],[-37.068,-9.79],[-37.082,-9.794],[-37.103,-9.791],[-37.151,-9.762],[-37.163,-9.753],[-37.162,-9.746],[-37.167,-9.742],[-37.18,-9.738],[-37.202,-9.722],[-37.219,-9.709],[-37.22,-9.703],[-37.215,-9.703],[-37.215,-9.696],[-37.204,-9.692],[-37.191,-9.69],[-37.167,-9.642],[-37.152,-9.613],[-37.156,-9.613],[-37.158,-9.608],[-37.163,-9.608],[-37.159,-9.602],[-37.153,-9.602],[-37.11,-9.606],[-37.052,-9.619],[-37.067,-9.636],[-37.067,-9.658],[-37.031,-9.688]]]}},{"type":"Feature","properties":{"id":"2700805","nome":"Bel\u00e9m"},"geometry":{"type":"Polygon","coordinates":[[[-36.444,-9.586],[-36.473,-9.602],[-36.479,-9.594],[-36.492,-9.585],[-36.497,-9.584],[-36.504,-9.56],[-36.532,-9.532],[-36.527,-9.529],[-36.525,-9.515],[-36.518,-9.503],[-36.502,-9.5],[-36.5,-9.496],[-36.495,-9.501],[-36.488,-9.502],[-36.465,-9.566],[-36.463,-9.572],[-36.445,-9.585],[-36.444,-9.586]]]}},{"type":"Feature","properties":{"id":"2700904","nome":"Belo Monte"},"geometry":{"type":"Polygon","coordinates":[[[-37.219,-9.709],[-37.202,-9.722],[-37.18,-9.738],[-37.167,-9.742],[-37.162,-9.746],[-37.163,-9.753],[-37.151,-9.762],[-37.103,-9.791],[-37.082,-9.794],[-37.068,-9.79],[-37.041,-9.808],[-37.103,-9.848],[-37.107,-9.855],[-37.108,-9.867],[-37.114,-9.869],[-37.119,-9.875],[-37.119,-9.891],[-37.125,-9.893],[-37.128,-9.9],[-37.134,-9.899],[-37.128,-9.908],[-37.132,-9.913],[-37.153,-9.9],[-37.195,-9.898],[-37.226,-9.899],[-37.235,-9.896],[-37.247,-9.884],[-37.257,-9.86],[-37.264,-9.85],[-37.285,-9.831],[-37.297,-9.827],[-37.298,-9.817],[-37.309,-9.803],[-37.301,-9.794],[-37.301,-9.788],[-37.297,-9.783],[-37.285,-9.778],[-37.286,-9.772],[-37.275,-9.774],[-37.273,-9.767],[-37.251,-9.752],[-37.248,-9.739],[-37.239,-9.736],[-37.236,-9.731],[-37.229,-9.73],[-37.229,-9.722],[-37.221,-9.723],[-37.219,-9.709]]]}},{"type":"Feature","properties":{"id":"2701001","nome":"Boca da Mata"},"geometry":{"type":"Polygon","coordinates":[[[-36.134,-9.645],[-36.132,-9.651],[-36.128,-9.648],[-36.116,-9.649],[-36.111,-9.646],[-36.105,-9.639],[-36.103,-9.641],[-36.101,-9.645],[-36.099,-9.651],[-36.09,-9.655],[-36.086,-9.661],[-36.083,-9.664],[-36.075,-9.673],[-36.079,-9.679],[-36.068,-9.689],[-36.078,-9.694],[-36.111,-9.701],[-36.127,-9.705],[-36.178,-9.717],[-36.18,-9.724],[-36.218,-9.729],[-36.246,-9.732],[-36.24,-9.678],[-36.24,-9.677],[-36.243,-9.662],[-36.254,-9.623],[-36.262,-9.595],[-36.191,-9.599],[-36.182,-9.612],[-36.181,-9.612],[-36.177,-9.621],[-36.155,-9.624],[-36.141,-9.638],[-36.141,-9.645],[-36.134,-9.645]]]}},{"type":"Feature","properties":{"id":"2701100","nome":"Branquinha"},"geometry":{"type":"Polygon","coordinates":[[[-35.888,-9.138],[-35.955,-9.214],[-36.003,-9.265],[-36.004,-9.265],[-36.062,-9.283],[-36.065,-9.284],[-36.09,-9.263],[-36.105,-9.258],[-36.125,-9.251],[-36.15,-9.236],[-36.18,-9.213],[-36.169,-9.21],[-36.165,-9.212],[-36.151,-9.207],[-36.127,-9.201],[-36.116,-9.207],[-36.108,-9.209],[-36.101,-9.207],[-36.093,-9.203],[-36.086,-9.201],[-36.08,-9.205],[-36.068,-9.205],[-36.058,-9.215],[-36.032,-9.203],[-36.031,-9.203],[-35.999,-9.189],[-35.942,-9.164],[-35.888,-9.138]]]}},{"type":"Feature","properties":{"id":"2701209","nome":"Cacimbinhas"},"geometry":{"type":"Polygon","coordinates":[[[-36.976,-9.362],[-36.952,-9.382],[-36.944,-9.382],[-36.937,-9.377],[-36.901,-9.397],[-36.897,-9.397],[-36.875,-9.394],[-36.854,-9.392],[-36.826,-9.391],[-36.827,-9.391],[-36.833,-9.408],[-36.827,-9.415],[-36.829,-9.428],[-36.845,-9.44],[-36.845,-9.451],[-36.842,-9.466],[-36.84,-9.469],[-36.843,-9.475],[-36.841,-9.479],[-36.843,-9.486],[-36.833,-9.497],[-36.833,-9.506],[-36.841,-9.511],[-36.831,-9.528],[-36.837,-9.531],[-36.863,-9.531],[-36.876,-9.535],[-36.905,-9.523],[-36.949,-9.502],[-36.98,-9.486],[-36.986,-9.472],[-36.995,-9.462],[-37.0,-9.46],[-37.004,-9.449],[-37.018,-9.435],[-37.017,-9.429],[-37.019,-9.413],[-37.03,-9.392],[-37.027,-9.384],[-37.022,-9.369],[-36.992,-9.374],[-36.977,-9.361],[-36.976,-9.362]]]}},{"type":"Feature","properties":{"id":"2701308","nome":"Cajueiro"},"geometry":{"type":"Polygon","coordinates":[[[-36.129,-9.405],[-36.155,-9.472],[-36.208,-9.455],[-36.211,-9.453],[-36.201,-9.426],[-36.184,-9.376],[-36.179,-9.359],[-36.179,-9.344],[-36.182,-9.309],[-36.142,-9.31],[-36.112,-9.311],[-36.11,-9.339],[-36.108,-9.355],[-36.119,-9.38],[-36.128,-9.403],[-36.129,-9.405]]]}},{"type":"Feature","properties":{"id":"2701357","nome":"Campestre"},"geometry":{"type":"Polygon","coordinates":[[[-35.539,-8.821],[-35.548,-8.844],[-35.544,-8.86],[-35.536,-8.888],[-35.515,-8.881],[-35.497,-8.892],[-35.497,-8.91],[-35.5,-8.919],[-35.496,-8.923],[-35.496,-8.932],[-35.491,-8.941],[-35.504,-8.949],[-35.515,-8.948],[-35.521,-8.945],[-35.523,-8.947],[-35.552,-8.905],[-35.573,-8.914],[-35.579,-8.911],[-35.585,-8.891],[-35.576,-8.865],[-35.582,-8.861],[-35.581,-8.856],[-35.57,-8.842],[-35.567,-8.835],[-35.563,-8.831],[-35.557,-8.831],[-35.539,-8.821]]]}},{"type":"Feature","properties":{"id":"2701407","nome":"Campo Alegre"},"geometry":{"type":"Polygon","coordinates":[[[-36.317,-9.723],[-36.279,-9.734],[-36.254,-9.729],[-36.246,-9.732],[-36.187,-9.795],[-36.188,-9.799],[-36.208,-9.805],[-36.206,-9.808],[-36.205,-9.809],[-36.196,-9.829],[-36.196,-9.835],[-36.201,-9.839],[-36.211,-9.842],[-36.219,-9.836],[-36.227,-9.849],[-36.239,-9.871],[-36.187,-9.879],[-36.181,-9.88],[-36.179,-9.889],[-36.192,-9.891],[-36.281,-9.934],[-36.278,-9.892],[-36.313,-9.887],[-36.327,-9.873],[-36.34,-9.849],[-36.343,-9.845],[-36.394,-9.792],[-36.394,-9.774],[-36.386,-9.77],[-36.385,-9.77],[-36.369,-9.765],[-36.36,-9.769],[-36.354,-9.757],[-36.355,-9.753],[-36.361,-9.752],[-36.353,-9.746],[-36.347,-9.748],[-36.342,-9.738],[-36.335,-9.729],[-36.332,-9.712],[-36.324,-9.713],[-36.323,-9.718],[-36.317,-9.723]]]}},{"type":"Feature","properties":{"id":"2701506","nome":"Campo Grande"},"geometry":{"type":"Polygon","coordinates":[[[-36.746,-9.883],[-36.742,-9.89],[-36.735,-9.888],[-36.727,-9.904],[-36.723,-9.905],[-36.719,-9.9],[-36.707,-9.909],[-36.692,-9.912],[-36.693,-9.919],[-36.688,-9.922],[-36.689,-9.927],[-36.682,-9.932],[-36.68,-9.93],[-36.673,-9.937],[-36.685,-9.962],[-36.707,-10.0],[-36.705,-10.019],[-36.713,-10.043],[-36.743,-10.034],[-36.777,-10.024],[-36.788,-10.021],[-36.789,-10.016],[-36.786,-10.015],[-36.796,-10.009],[-36.799,-10.006],[-36.809,-10.009],[-36.82,-10.002],[-36.834,-10.012],[-36.843,-10.01],[-36.838,-10.001],[-36.827,-9.997],[-36.81,-9.983],[-36.799,-9.961],[-36.798,-9.959],[-36.794,-9.953],[-36.793,-9.947],[-36.786,-9.946],[-36.785,-9.942],[-36.791,-9.929],[-36.778,-9.912],[-36.769,-9.908],[-36.759,-9.9],[-36.751,-9.883],[-36.746,-9.883]]]}},{"type":"Feature","properties":{"id":"2701605","nome":"Canapi"},"geometry":{"type":"Polygon","coordinates":[[[-37.524,-8.965],[-37.5,-8.968],[-37.49,-8.965],[-37.487,-8.975],[-37.489,-8.986],[-37.489,-8.988],[-37.492,-8.998],[-37.493,-9.0],[-37.485,-9.009],[-37.469,-9.027],[-37.446,-9.026],[-37.433,-9.029],[-37.418,-9.043],[-37.4,-9.052],[-37.419,-9.075],[-37.42,-9.083],[-37.42,-9.085],[-37.42,-9.086],[-37.426,-9.102],[-37.426,-9.121],[-37.42,-9.138],[-37.424,-9.157],[-37.423,-9.16],[-37.423,-9.163],[-37.443,-9.191],[-37.456,-9.197],[-37.457,-9.202],[-37.463,-9.202],[-37.466,-9.208],[-37.471,-9.212],[-37.475,-9.211],[-37.48,-9.216],[-37.48,-9.223],[-37.488,-9.225],[-37.489,-9.23],[-37.517,-9.242],[-37.527,-9.258],[-37.542,-9.259],[-37.548,-9.267],[-37.564,-9.273],[-37.571,-9.282],[-37.587,-9.288],[-37.594,-9.29],[-37.608,-9.281],[-37.611,-9.272],[-37.608,-9.265],[-37.612,-9.25],[-37.62,-9.247],[-37.62,-9.238],[-37.61,-9.232],[-37.613,-9.226],[-37.625,-9.22],[-37.623,-9.21],[-37.618,-9.205],[-37.622,-9.194],[-37.626,-9.193],[-37.69,-9.177],[-37.692,-9.176],[-37.691,-9.175],[-37.673,-9.158],[-37.662,-9.145],[-37.649,-9.128],[-37.636,-9.11],[-37.635,-9.11],[-37.619,-9.098],[-37.61,-9.091],[-37.573,-9.043],[-37.554,-9.016],[-37.554,-9.015],[-37.542,-9.0],[-37.53,-8.963],[-37.524,-8.965]]]}},{"type":"Feature","properties":{"id":"2701704","nome":"Capela"},"geometry":{"type":"Polygon","coordinates":[[[-36.058,-9.293],[-36.058,-9.312],[-36.053,-9.297],[-36.047,-9.327],[-36.045,-9.333],[-36.003,-9.325],[-36.0,-9.338],[-36.011,-9.365],[-36.03,-9.374],[-36.014,-9.401],[-36.054,-9.423],[-36.067,-9.429],[-36.1,-9.452],[-36.104,-9.456],[-36.133,-9.455],[-36.138,-9.46],[-36.144,-9.461],[-36.155,-9.472],[-36.129,-9.405],[-36.128,-9.403],[-36.119,-9.38],[-36.108,-9.355],[-36.11,-9.339],[-36.112,-9.311],[-36.142,-9.31],[-36.182,-9.309],[-36.18,-9.213],[-36.15,-9.236],[-36.125,-9.251],[-36.105,-9.258],[-36.09,-9.263],[-36.065,-9.284],[-36.058,-9.293]]]}},{"type":"Feature","properties":{"id":"2701803","nome":"Carneiros"},"geometry":{"type":"Polygon","coordinates":[[[-37.335,-9.489],[-37.373,-9.524],[-37.382,-9.518],[-37.385,-9.516],[-37.421,-9.492],[-37.443,-9.478],[-37.445,-9.476],[-37.446,-9.471],[-37.45,-9.453],[-37.413,-9.444],[-37.351,-9.429],[-37.332,-9.424],[-37.328,-9.423],[-37.326,-9.422],[-37.318,-9.42],[-37.269,-9.453],[-37.311,-9.467],[-37.334,-9.487],[-37.335,-9.489]]]}},{"type":"Feature","properties":{"id":"2701902","nome":"Ch\u00e3 Preta"},"geometry":{"type":"Polygon","coordinates":[[[-36.309,-9.172],[-36.307,-9.178],[-36.3,-9.175],[-36.297,-9.176],[-36.295,-9.172],[-36.287,-9.173],[-36.281,-9.186],[-36.244,-9.196],[-36.18,-9.213],[-36.235,-9.289],[-36.258,-9.298],[-36.277,-9.305],[-36.297,-9.311],[-36.301,-9.308],[-36.301,-9.302],[-36.313,-9.302],[-36.316,-9.297],[-36.326,-9.295],[-36.322,-9.289],[-36.326,-9.284],[-36.332,-9.283],[-36.34,-9.286],[-36.348,-9.279],[-36.372,-9.255],[-36.408,-9.222],[-36.407,-9.221],[-36.403,-9.223],[-36.39,-9.224],[-36.382,-9.22],[-36.376,-9.216],[-36.365,-9.222],[-36.358,-9.218],[-36.353,-9.22],[-36.349,-9.214],[-36.354,-9.201],[-36.339,-9.207],[-36.327,-9.2],[-36.321,-9.185],[-36.312,-9.179],[-36.309,-9.172]]]}},{"type":"Feature","properties":{"id":"2702009","nome":"Coit\u00e9 do N\u00f3ia"},"geometry":{"type":"Polygon","coordinates":[[[-36.57,-9.565],[-36.556,-9.606],[-36.551,-9.62],[-36.543,-9.627],[-36.542,-9.641],[-36.541,-9.648],[-36.536,-9.663],[-36.556,-9.677],[-36.56,-9.68],[-36.566,-9.682],[-36.583,-9.7],[-36.584,-9.699],[-36.587,-9.692],[-36.595,-9.692],[-36.594,-9.685],[-36.599,-9.68],[-36.61,-9.665],[-36.609,-9.654],[-36.606,-9.653],[-36.611,-9.643],[-36.609,-9.636],[-36.615,-9.627],[-36.626,-9.632],[-36.63,-9.63],[-36.623,-9.621],[-36.616,-9.623],[-36.611,-9.62],[-36.614,-9.609],[-36.619,-9.608],[-36.624,-9.602],[-36.62,-9.587],[-36.624,-9.581],[-36.621,-9.578],[-36.613,-9.58],[-36.602,-9.575],[-36.601,-9.568],[-36.589,-9.572],[-36.583,-9.571],[-36.575,-9.566],[-36.574,-9.565],[-36.57,-9.565]]]}},{"type":"Feature","properties":{"id":"2702108","nome":"Col\u00f4nia Leopoldina"},"geometry":{"type":"Polygon","coordinates":[[[-35.795,-8.847],[-35.79,-8.853],[-35.787,-8.851],[-35.781,-8.861],[-35.776,-8.858],[-35.777,-8.869],[-35.783,-8.882],[-35.779,-8.888],[-35.783,-8.897],[-35.778,-8.898],[-35.773,-8.906],[-35.761,-8.908],[-35.748,-8.917],[-35.729,-8.91],[-35.723,-8.909],[-35.72,-8.907],[-35.713,-8.904],[-35.7,-8.906],[-35.687,-8.898],[-35.67,-8.895],[-35.664,-8.891],[-35.657,-8.88],[-35.652,-8.882],[-35.646,-8.896],[-35.664,-8.916],[-35.681,-8.934],[-35.68,-8.936],[-35.678,-8.944],[-35.697,-8.961],[-35.713,-8.975],[-35.717,-9.015],[-35.677,-9.009],[-35.682,-9.029],[-35.744,-9.013],[-35.756,-9.009],[-35.757,-9.009],[-35.834,-8.984],[-35.835,-8.944],[-35.827,-8.87],[-35.823,-8.857],[-35.82,-8.856],[-35.808,-8.86],[-35.795,-8.847]]]}},{"type":"Feature","properties":{"id":"2702207","nome":"Coqueiro Seco"},"geometry":{"type":"Polygon","coordinates":[[[-35.769,-9.635],[-35.78,-9.655],[-35.78,-9.666],[-35.785,-9.669],[-35.791,-9.68],[-35.804,-9.677],[-35.81,-9.659],[-35.815,-9.655],[-35.824,-9.657],[-35.83,-9.655],[-35.833,-9.654],[-35.864,-9.654],[-35.867,-9.626],[-35.845,-9.641],[-35.826,-9.64],[-35.812,-9.617],[-35.793,-9.6],[-35.782,-9.622],[-35.77,-9.634],[-35.769,-9.635]]]}},{"type":"Feature","properties":{"id":"2702306","nome":"Coruripe"},"geometry":{"type":"Polygon","coordinates":[[[-36.056,-10.011],[-36.056,-10.027],[-36.052,-10.031],[-36.057,-10.041],[-36.042,-10.051],[-36.036,-10.046],[-36.03,-10.047],[-36.031,-10.05],[-36.043,-10.064],[-36.046,-10.075],[-36.059,-10.085],[-36.069,-10.084],[-36.084,-10.09],[-36.102,-10.113],[-36.108,-10.125],[-36.11,-10.128],[-36.111,-10.13],[-36.121,-10.137],[-36.135,-10.159],[-36.139,-10.154],[-36.145,-10.154],[-36.17,-10.171],[-36.186,-10.197],[-36.223,-10.223],[-36.234,-10.239],[-36.249,-10.252],[-36.272,-10.275],[-36.357,-10.246],[-36.374,-10.241],[-36.376,-10.24],[-36.386,-10.236],[-36.384,-10.233],[-36.373,-10.232],[-36.372,-10.224],[-36.364,-10.226],[-36.356,-10.22],[-36.352,-10.212],[-36.353,-10.204],[-36.335,-10.18],[-36.343,-10.164],[-36.36,-10.157],[-36.362,-10.149],[-36.362,-10.121],[-36.376,-10.105],[-36.399,-10.101],[-36.399,-10.085],[-36.4,-10.082],[-36.414,-10.084],[-36.42,-10.065],[-36.42,-10.068],[-36.434,-10.073],[-36.448,-10.06],[-36.448,-10.047],[-36.453,-10.038],[-36.417,-10.036],[-36.366,-10.034],[-36.305,-10.031],[-36.304,-10.031],[-36.305,-10.019],[-36.298,-10.012],[-36.291,-10.0],[-36.285,-9.967],[-36.281,-9.935],[-36.28,-9.935],[-36.123,-9.933],[-36.111,-9.947],[-36.106,-9.951],[-36.102,-9.962],[-36.082,-9.979],[-36.074,-10.003],[-36.056,-10.011]]]}},{"type":"Feature","properties":{"id":"2702355","nome":"Cra\u00edbas"},"geometry":{"type":"Polygon","coordinates":[[[-36.831,-9.552],[-36.814,-9.563],[-36.785,-9.55],[-36.774,-9.557],[-36.763,-9.559],[-36.756,-9.565],[-36.754,-9.577],[-36.744,-9.575],[-36.727,-9.573],[-36.719,-9.58],[-36.707,-9.584],[-36.695,-9.58],[-36.698,-9.599],[-36.688,-9.596],[-36.683,-9.6],[-36.687,-9.614],[-36.687,-9.627],[-36.693,-9.633],[-36.696,-9.638],[-36.716,-9.663],[-36.727,-9.677],[-36.734,-9.685],[-36.734,-9.686],[-36.742,-9.697],[-36.753,-9.709],[-36.771,-9.733],[-36.794,-9.71],[-36.806,-9.703],[-36.817,-9.698],[-36.817,-9.687],[-36.868,-9.66],[-36.873,-9.645],[-36.903,-9.626],[-36.901,-9.624],[-36.905,-9.616],[-36.889,-9.606],[-36.888,-9.599],[-36.877,-9.594],[-36.871,-9.584],[-36.85,-9.57],[-36.842,-9.573],[-36.842,-9.565],[-36.831,-9.552]]]}},{"type":"Feature","properties":{"id":"2702405","nome":"Delmiro Gouveia"},"geometry":{"type":"Polygon","coordinates":[[[-37.884,-9.424],[-37.885,-9.433],[-37.891,-9.433],[-37.892,-9.444],[-37.896,-9.448],[-37.892,-9.456],[-37.898,-9.479],[-37.898,-9.496],[-37.893,-9.502],[-37.895,-9.514],[-37.888,-9.52],[-37.89,-9.525],[-37.887,-9.53],[-37.894,-9.534],[-37.894,-9.539],[-37.917,-9.549],[-37.956,-9.534],[-37.989,-9.527],[-38.003,-9.515],[-37.998,-9.499],[-38.011,-9.478],[-38.02,-9.475],[-38.022,-9.47],[-38.03,-9.467],[-38.043,-9.468],[-38.057,-9.459],[-38.067,-9.458],[-38.07,-9.448],[-38.079,-9.44],[-38.109,-9.435],[-38.121,-9.441],[-38.142,-9.437],[-38.155,-9.443],[-38.177,-9.425],[-38.194,-9.422],[-38.197,-9.421],[-38.205,-9.416],[-38.202,-9.4],[-38.194,-9.394],[-38.195,-9.392],[-38.194,-9.385],[-38.2,-9.379],[-38.209,-9.358],[-38.223,-9.346],[-38.237,-9.329],[-38.202,-9.296],[-38.18,-9.291],[-38.177,-9.288],[-38.158,-9.263],[-38.156,-9.249],[-38.127,-9.267],[-38.122,-9.27],[-38.048,-9.315],[-38.007,-9.338],[-37.94,-9.376],[-37.876,-9.413],[-37.877,-9.42],[-37.884,-9.424]]]}},{"type":"Feature","properties":{"id":"2702504","nome":"Dois Riachos"},"geometry":{"type":"Polygon","coordinates":[[[-37.024,-9.315],[-37.003,-9.352],[-36.977,-9.361],[-36.992,-9.374],[-37.022,-9.369],[-37.027,-9.384],[-37.03,-9.392],[-37.034,-9.404],[-37.038,-9.416],[-37.103,-9.456],[-37.117,-9.46],[-37.117,-9.437],[-37.149,-9.436],[-37.146,-9.417],[-37.12,-9.388],[-37.109,-9.38],[-37.102,-9.361],[-37.09,-9.351],[-37.088,-9.333],[-37.083,-9.325],[-37.073,-9.318],[-37.059,-9.318],[-37.057,-9.317],[-37.055,-9.307],[-37.045,-9.315],[-37.024,-9.315]]]}},{"type":"Feature","properties":{"id":"2702553","nome":"Estrela de Alagoas"},"geometry":{"type":"Polygon","coordinates":[[[-36.709,-9.478],[-36.709,-9.485],[-36.73,-9.485],[-36.754,-9.485],[-36.793,-9.485],[-36.805,-9.491],[-36.833,-9.506],[-36.833,-9.497],[-36.843,-9.486],[-36.841,-9.479],[-36.843,-9.475],[-36.84,-9.469],[-36.842,-9.466],[-36.845,-9.451],[-36.845,-9.44],[-36.829,-9.428],[-36.827,-9.415],[-36.833,-9.408],[-36.827,-9.391],[-36.826,-9.391],[-36.803,-9.368],[-36.796,-9.356],[-36.798,-9.347],[-36.797,-9.293],[-36.773,-9.279],[-36.758,-9.271],[-36.728,-9.273],[-36.694,-9.275],[-36.698,-9.291],[-36.712,-9.314],[-36.717,-9.342],[-36.72,-9.349],[-36.72,-9.363],[-36.714,-9.368],[-36.713,-9.375],[-36.712,-9.377],[-36.717,-9.387],[-36.724,-9.39],[-36.723,-9.397],[-36.722,-9.426],[-36.722,-9.427],[-36.722,-9.433],[-36.717,-9.439],[-36.719,-9.452],[-36.721,-9.46],[-36.72,-9.471],[-36.709,-9.478]]]}},{"type":"Feature","properties":{"id":"2702603","nome":"Feira Grande"},"geometry":{"type":"Polygon","coordinates":[[[-36.604,-9.872],[-36.604,-9.876],[-36.603,-9.902],[-36.612,-9.905],[-36.614,-9.912],[-36.612,-9.914],[-36.613,-9.925],[-36.613,-9.936],[-36.613,-9.951],[-36.63,-9.952],[-36.625,-9.965],[-36.631,-9.969],[-36.628,-9.98],[-36.641,-9.982],[-36.641,-9.986],[-36.646,-9.986],[-36.649,-9.984],[-36.685,-9.965],[-36.685,-9.962],[-36.673,-9.937],[-36.68,-9.93],[-36.682,-9.932],[-36.689,-9.927],[-36.688,-9.922],[-36.693,-9.919],[-36.692,-9.912],[-36.707,-9.909],[-36.719,-9.9],[-36.723,-9.905],[-36.727,-9.904],[-36.735,-9.888],[-36.742,-9.89],[-36.746,-9.883],[-36.751,-9.883],[-36.75,-9.883],[-36.722,-9.881],[-36.733,-9.869],[-36.724,-9.854],[-36.714,-9.84],[-36.702,-9.824],[-36.689,-9.807],[-36.69,-9.804],[-36.665,-9.812],[-36.641,-9.827],[-36.631,-9.833],[-36.631,-9.834],[-36.63,-9.836],[-36.618,-9.862],[-36.604,-9.872]]]}},{"type":"Feature","properties":{"id":"2702702","nome":"Feliz Deserto"},"geometry":{"type":"Polygon","coordinates":[[[-36.302,-10.342],[-36.313,-10.347],[-36.33,-10.336],[-36.347,-10.329],[-36.392,-10.31],[-36.377,-10.294],[-36.383,-10.273],[-36.392,-10.268],[-36.395,-10.259],[-36.398,-10.246],[-36.388,-10.239],[-36.386,-10.236],[-36.376,-10.24],[-36.374,-10.241],[-36.357,-10.246],[-36.272,-10.275],[-36.292,-10.3],[-36.299,-10.314],[-36.302,-10.326],[-36.302,-10.342]]]}},{"type":"Feature","properties":{"id":"2702801","nome":"Flexeiras"},"geometry":{"type":"Polygon","coordinates":[[[-35.725,-9.125],[-35.713,-9.181],[-35.712,-9.185],[-35.703,-9.229],[-35.693,-9.26],[-35.692,-9.285],[-35.692,-9.298],[-35.686,-9.37],[-35.687,-9.37],[-35.746,-9.384],[-35.769,-9.389],[-35.769,-9.35],[-35.769,-9.335],[-35.769,-9.309],[-35.788,-9.285],[-35.796,-9.276],[-35.804,-9.266],[-35.82,-9.265],[-35.836,-9.264],[-35.834,-9.235],[-35.843,-9.221],[-35.86,-9.188],[-35.888,-9.138],[-35.871,-9.136],[-35.845,-9.151],[-35.841,-9.15],[-35.83,-9.149],[-35.817,-9.159],[-35.793,-9.158],[-35.769,-9.146],[-35.755,-9.139],[-35.746,-9.137],[-35.725,-9.125]]]}},{"type":"Feature","properties":{"id":"2702900","nome":"Girau do Ponciano"},"geometry":{"type":"Polygon","coordinates":[[[-36.94,-9.627],[-36.908,-9.628],[-36.903,-9.626],[-36.873,-9.645],[-36.868,-9.66],[-36.817,-9.687],[-36.817,-9.698],[-36.806,-9.703],[-36.794,-9.71],[-36.771,-9.733],[-36.753,-9.758],[-36.746,-9.768],[-36.755,-9.782],[-36.763,-9.794],[-36.765,-9.802],[-36.758,-9.821],[-36.759,-9.826],[-36.758,-9.839],[-36.764,-9.849],[-36.751,-9.883],[-36.759,-9.9],[-36.769,-9.908],[-36.778,-9.912],[-36.791,-9.929],[-36.785,-9.942],[-36.786,-9.946],[-36.793,-9.947],[-36.794,-9.953],[-36.798,-9.959],[-36.811,-9.961],[-36.823,-9.95],[-36.829,-9.942],[-36.827,-9.929],[-36.849,-9.929],[-36.881,-9.902],[-36.91,-9.893],[-36.923,-9.882],[-36.921,-9.856],[-36.92,-9.842],[-36.919,-9.819],[-36.916,-9.817],[-36.903,-9.81],[-36.902,-9.793],[-36.902,-9.772],[-36.9,-9.74],[-36.969,-9.694],[-36.964,-9.674],[-36.96,-9.673],[-36.959,-9.665],[-36.954,-9.662],[-36.953,-9.653],[-36.952,-9.643],[-36.943,-9.64],[-36.946,-9.633],[-36.94,-9.627]]]}},{"type":"Feature","properties":{"id":"2703007","nome":"Ibateguara"},"geometry":{"type":"Polygon","coordinates":[[[-35.896,-8.854],[-35.887,-8.863],[-35.862,-8.858],[-35.851,-8.868],[-35.849,-8.871],[-35.845,-8.872],[-35.837,-8.868],[-35.827,-8.87],[-35.835,-8.944],[-35.834,-8.984],[-35.86,-9.053],[-35.869,-9.055],[-35.879,-9.054],[-35.884,-9.067],[-35.889,-9.067],[-35.902,-9.059],[-35.903,-9.048],[-35.911,-9.042],[-35.919,-9.042],[-35.926,-9.032],[-35.945,-9.036],[-35.954,-9.031],[-35.96,-9.008],[-35.962,-8.997],[-35.952,-8.985],[-35.966,-8.976],[-35.956,-8.973],[-35.96,-8.967],[-35.972,-8.97],[-35.977,-8.951],[-35.973,-8.945],[-35.976,-8.932],[-35.972,-8.929],[-35.961,-8.935],[-35.957,-8.93],[-35.966,-8.922],[-35.959,-8.92],[-35.962,-8.917],[-35.955,-8.901],[-35.961,-8.894],[-35.95,-8.892],[-35.942,-8.885],[-35.924,-8.884],[-35.916,-8.867],[-35.911,-8.861],[-35.901,-8.862],[-35.896,-8.854]]]}},{"type":"Feature","properties":{"id":"2703106","nome":"Igaci"},"geometry":{"type":"Polygon","coordinates":[[[-36.66,-9.495],[-36.641,-9.501],[-36.637,-9.499],[-36.625,-9.491],[-36.615,-9.483],[-36.614,-9.483],[-36.57,-9.487],[-36.532,-9.532],[-36.544,-9.534],[-36.554,-9.541],[-36.559,-9.55],[-36.566,-9.555],[-36.566,-9.561],[-36.571,-9.561],[-36.574,-9.565],[-36.575,-9.566],[-36.583,-9.571],[-36.589,-9.572],[-36.601,-9.568],[-36.602,-9.575],[-36.613,-9.58],[-36.621,-9.578],[-36.624,-9.581],[-36.62,-9.587],[-36.624,-9.602],[-36.619,-9.608],[-36.614,-9.609],[-36.611,-9.62],[-36.616,-9.623],[-36.623,-9.621],[-36.63,-9.63],[-36.626,-9.632],[-36.615,-9.627],[-36.609,-9.636],[-36.611,-9.643],[-36.606,-9.653],[-36.609,-9.654],[-36.623,-9.655],[-36.631,-9.644],[-36.637,-9.636],[-36.658,-9.641],[-36.678,-9.637],[-36.693,-9.633],[-36.687,-9.627],[-36.687,-9.614],[-36.683,-9.6],[-36.688,-9.596],[-36.698,-9.599],[-36.695,-9.58],[-36.707,-9.584],[-36.719,-9.58],[-36.727,-9.573],[-36.744,-9.575],[-36.754,-9.577],[-36.756,-9.565],[-36.763,-9.559],[-36.774,-9.557],[-36.785,-9.55],[-36.814,-9.563],[-36.831,-9.552],[-36.838,-9.539],[-36.837,-9.531],[-36.831,-9.528],[-36.841,-9.511],[-36.833,-9.506],[-36.805,-9.491],[-36.793,-9.485],[-36.754,-9.485],[-36.73,-9.485],[-36.709,-9.485],[-36.708,-9.485],[-36.686,-9.485],[-36.66,-9.494],[-36.66,-9.495]]]}},{"type":"Feature","properties":{"id":"2703205","nome":"Igreja Nova"},"geometry":{"type":"Polygon","coordinates":[[[-36.634,-10.249],[-36.631,-10.254],[-36.632,-10.253],[-36.644,-10.252],[-36.658,-10.265],[-36.679,-10.269],[-36.681,-10.273],[-36.685,-10.275],[-36.702,-10.271],[-36.72,-10.265],[-36.723,-10.253],[-36.722,-10.236],[-36.736,-10.158],[-36.744,-10.145],[-36.724,-10.14],[-36.697,-10.13],[-36.683,-10.125],[-36.681,-10.114],[-36.674,-10.094],[-36.673,-10.079],[-36.666,-10.052],[-36.661,-10.05],[-36.661,-10.036],[-36.657,-10.034],[-36.654,-10.034],[-36.641,-10.035],[-36.578,-10.037],[-36.517,-10.04],[-36.515,-10.044],[-36.507,-10.069],[-36.491,-10.071],[-36.495,-10.088],[-36.502,-10.094],[-36.504,-10.125],[-36.51,-10.146],[-36.511,-10.148],[-36.518,-10.165],[-36.524,-10.177],[-36.559,-10.184],[-36.562,-10.184],[-36.576,-10.192],[-36.596,-10.194],[-36.636,-10.223],[-36.66,-10.246],[-36.634,-10.249]]]}},{"type":"Feature","properties":{"id":"2703304","nome":"Inhapi"},"geometry":{"type":"Polygon","coordinates":[[[-37.608,-9.281],[-37.594,-9.29],[-37.587,-9.288],[-37.586,-9.296],[-37.592,-9.314],[-37.611,-9.338],[-37.618,-9.358],[-37.636,-9.376],[-37.646,-9.391],[-37.648,-9.401],[-37.654,-9.404],[-37.655,-9.408],[-37.656,-9.408],[-37.657,-9.407],[-37.728,-9.333],[-37.742,-9.32],[-37.771,-9.293],[-37.781,-9.282],[-37.825,-9.239],[-37.842,-9.222],[-37.842,-9.206],[-37.801,-9.202],[-37.759,-9.199],[-37.758,-9.199],[-37.723,-9.195],[-37.715,-9.191],[-37.692,-9.176],[-37.69,-9.177],[-37.626,-9.193],[-37.622,-9.194],[-37.618,-9.205],[-37.623,-9.21],[-37.625,-9.22],[-37.613,-9.226],[-37.61,-9.232],[-37.62,-9.238],[-37.62,-9.247],[-37.612,-9.25],[-37.608,-9.265],[-37.611,-9.272],[-37.608,-9.281]]]}},{"type":"Feature","properties":{"id":"2703403","nome":"Jacar\u00e9 dos Homens"},"geometry":{"type":"Polygon","coordinates":[[[-37.152,-9.613],[-37.167,-9.642],[-37.191,-9.69],[-37.204,-9.692],[-37.215,-9.696],[-37.215,-9.703],[-37.22,-9.703],[-37.219,-9.709],[-37.221,-9.723],[-37.229,-9.722],[-37.229,-9.73],[-37.236,-9.731],[-37.239,-9.736],[-37.288,-9.686],[-37.303,-9.636],[-37.29,-9.634],[-37.279,-9.636],[-37.253,-9.632],[-37.249,-9.632],[-37.242,-9.621],[-37.235,-9.612],[-37.255,-9.581],[-37.2,-9.597],[-37.163,-9.608],[-37.158,-9.608],[-37.156,-9.613],[-37.152,-9.613]]]}},{"type":"Feature","properties":{"id":"2703502","nome":"Jacu\u00edpe"},"geometry":{"type":"Polygon","coordinates":[[[-35.462,-8.818],[-35.466,-8.828],[-35.462,-8.83],[-35.459,-8.837],[-35.45,-8.841],[-35.436,-8.841],[-35.432,-8.836],[-35.416,-8.838],[-35.414,-8.836],[-35.409,-8.838],[-35.407,-8.842],[-35.4,-8.85],[-35.383,-8.852],[-35.35,-8.86],[-35.342,-8.874],[-35.359,-8.884],[-35.363,-8.895],[-35.367,-8.908],[-35.372,-8.912],[-35.366,-8.943],[-35.378,-8.968],[-35.422,-8.92],[-35.432,-8.937],[-35.45,-8.964],[-35.452,-8.96],[-35.449,-8.96],[-35.449,-8.954],[-35.457,-8.946],[-35.464,-8.947],[-35.475,-8.938],[-35.473,-8.943],[-35.476,-8.944],[-35.491,-8.941],[-35.496,-8.932],[-35.496,-8.923],[-35.5,-8.919],[-35.497,-8.91],[-35.497,-8.892],[-35.515,-8.881],[-35.536,-8.888],[-35.544,-8.86],[-35.548,-8.844],[-35.539,-8.821],[-35.535,-8.819],[-35.531,-8.828],[-35.517,-8.816],[-35.511,-8.817],[-35.504,-8.822],[-35.5,-8.82],[-35.5,-8.825],[-35.495,-8.828],[-35.493,-8.825],[-35.482,-8.826],[-35.48,-8.82],[-35.476,-8.818],[-35.47,-8.813],[-35.462,-8.818]]]}},{"type":"Feature","properties":{"id":"2703601","nome":"Japaratinga"},"geometry":{"type":"Polygon","coordinates":[[[-35.259,-9.069],[-35.251,-9.072],[-35.241,-9.065],[-35.24,-9.064],[-35.239,-9.068],[-35.244,-9.076],[-35.254,-9.085],[-35.257,-9.091],[-35.259,-9.1],[-35.266,-9.11],[-35.267,-9.112],[-35.27,-9.122],[-35.283,-9.128],[-35.286,-9.146],[-35.285,-9.147],[-35.288,-9.154],[-35.295,-9.155],[-35.289,-9.148],[-35.292,-9.146],[-35.312,-9.147],[-35.312,-9.14],[-35.307,-9.138],[-35.306,-9.14],[-35.301,-9.136],[-35.326,-9.12],[-35.33,-9.101],[-35.338,-9.073],[-35.336,-9.062],[-35.334,-9.054],[-35.336,-9.039],[-35.336,-9.031],[-35.303,-9.028],[-35.287,-9.033],[-35.259,-9.069]]]}},{"type":"Feature","properties":{"id":"2703700","nome":"Jaramataia"},"geometry":{"type":"Polygon","coordinates":[[[-36.901,-9.624],[-36.903,-9.626],[-36.908,-9.628],[-36.94,-9.627],[-36.946,-9.633],[-36.943,-9.64],[-36.952,-9.643],[-36.953,-9.653],[-36.954,-9.662],[-36.959,-9.665],[-36.96,-9.673],[-36.964,-9.674],[-36.969,-9.694],[-36.976,-9.693],[-36.979,-9.701],[-36.985,-9.704],[-36.985,-9.715],[-36.993,-9.72],[-37.008,-9.708],[-37.031,-9.688],[-37.067,-9.658],[-37.067,-9.636],[-37.052,-9.619],[-37.002,-9.63],[-36.888,-9.599],[-36.889,-9.606],[-36.905,-9.616],[-36.901,-9.624]]]}},{"type":"Feature","properties":{"id":"2703759","nome":"Jequi\u00e1 da Praia"},"geometry":{"type":"Polygon","coordinates":[[[-36.183,-9.801],[-36.166,-9.84],[-36.166,-9.849],[-36.161,-9.855],[-36.144,-9.859],[-36.134,-9.839],[-36.127,-9.828],[-36.126,-9.838],[-36.123,-9.838],[-36.117,-9.844],[-36.097,-9.855],[-36.088,-9.868],[-36.079,-9.868],[-36.067,-9.882],[-36.065,-9.875],[-36.051,-9.872],[-36.047,-9.86],[-36.041,-9.858],[-36.021,-9.92],[-36.014,-9.907],[-36.007,-9.911],[-36.005,-9.908],[-35.999,-9.915],[-35.983,-9.91],[-35.978,-9.915],[-35.977,-9.925],[-35.968,-9.929],[-35.962,-9.941],[-35.974,-9.965],[-36.004,-10.003],[-36.031,-10.05],[-36.03,-10.047],[-36.036,-10.046],[-36.042,-10.051],[-36.057,-10.041],[-36.052,-10.031],[-36.056,-10.027],[-36.056,-10.011],[-36.074,-10.003],[-36.082,-9.979],[-36.102,-9.962],[-36.106,-9.951],[-36.111,-9.947],[-36.123,-9.933],[-36.28,-9.935],[-36.281,-9.935],[-36.281,-9.934],[-36.192,-9.891],[-36.179,-9.889],[-36.181,-9.88],[-36.187,-9.879],[-36.239,-9.871],[-36.227,-9.849],[-36.219,-9.836],[-36.211,-9.842],[-36.201,-9.839],[-36.196,-9.835],[-36.196,-9.829],[-36.205,-9.809],[-36.206,-9.808],[-36.208,-9.805],[-36.188,-9.799],[-36.187,-9.795],[-36.183,-9.801]]]}},{"type":"Feature","properties":{"id":"2703809","nome":"Joaquim Gomes"},"geometry":{"type":"Polygon","coordinates":[[[-35.691,-9.095],[-35.689,-9.101],[-35.686,-9.099],[-35.672,-9.097],[-35.629,-9.092],[-35.625,-9.097],[-35.604,-9.125],[-35.555,-9.191],[-35.514,-9.191],[-35.549,-9.226],[-35.578,-9.254],[-35.594,-9.232],[-35.596,-9.226],[-35.597,-9.211],[-35.592,-9.205],[-35.591,-9.191],[-35.597,-9.187],[-35.595,-9.181],[-35.598,-9.167],[-35.617,-9.136],[-35.636,-9.119],[-35.644,-9.119],[-35.649,-9.122],[-35.653,-9.107],[-35.664,-9.107],[-35.681,-9.1],[-35.689,-9.101],[-35.697,-9.109],[-35.71,-9.113],[-35.725,-9.125],[-35.746,-9.137],[-35.755,-9.139],[-35.769,-9.146],[-35.793,-9.158],[-35.817,-9.159],[-35.83,-9.149],[-35.841,-9.15],[-35.845,-9.151],[-35.871,-9.136],[-35.888,-9.138],[-35.883,-9.122],[-35.865,-9.069],[-35.86,-9.053],[-35.834,-8.984],[-35.757,-9.009],[-35.756,-9.009],[-35.744,-9.013],[-35.682,-9.029],[-35.686,-9.035],[-35.709,-9.049],[-35.705,-9.082],[-35.691,-9.095]]]}},{"type":"Feature","properties":{"id":"2703908","nome":"Jundi\u00e1"},"geometry":{"type":"Polygon","coordinates":[[[-35.552,-8.905],[-35.523,-8.947],[-35.521,-8.945],[-35.515,-8.948],[-35.504,-8.949],[-35.491,-8.941],[-35.476,-8.944],[-35.473,-8.943],[-35.475,-8.938],[-35.464,-8.947],[-35.457,-8.946],[-35.449,-8.954],[-35.449,-8.96],[-35.452,-8.96],[-35.469,-8.972],[-35.503,-8.995],[-35.521,-9.009],[-35.561,-9.01],[-35.555,-9.007],[-35.56,-9.003],[-35.56,-8.998],[-35.558,-8.991],[-35.562,-8.988],[-35.569,-8.984],[-35.585,-8.991],[-35.597,-8.99],[-35.602,-8.984],[-35.6,-8.973],[-35.59,-8.976],[-35.584,-8.967],[-35.583,-8.96],[-35.588,-8.956],[-35.583,-8.95],[-35.585,-8.942],[-35.581,-8.941],[-35.573,-8.945],[-35.565,-8.941],[-35.572,-8.921],[-35.579,-8.917],[-35.579,-8.911],[-35.573,-8.914],[-35.552,-8.905]]]}},{"type":"Feature","properties":{"id":"2704005","nome":"Junqueiro"},"geometry":{"type":"Polygon","coordinates":[[[-36.394,-9.792],[-36.343,-9.845],[-36.34,-9.849],[-36.327,-9.873],[-36.313,-9.887],[-36.348,-9.881],[-36.354,-9.88],[-36.379,-9.876],[-36.396,-9.874],[-36.398,-9.888],[-36.413,-9.909],[-36.45,-9.961],[-36.462,-9.963],[-36.469,-9.971],[-36.47,-9.968],[-36.479,-9.961],[-36.473,-9.954],[-36.471,-9.94],[-36.478,-9.933],[-36.486,-9.927],[-36.492,-9.908],[-36.494,-9.905],[-36.5,-9.892],[-36.497,-9.882],[-36.496,-9.867],[-36.503,-9.857],[-36.506,-9.855],[-36.515,-9.859],[-36.529,-9.847],[-36.555,-9.839],[-36.54,-9.821],[-36.526,-9.804],[-36.517,-9.804],[-36.491,-9.804],[-36.469,-9.804],[-36.441,-9.791],[-36.413,-9.778],[-36.394,-9.774],[-36.394,-9.792]]]}},{"type":"Feature","properties":{"id":"2704104","nome":"Lagoa da Canoa"},"geometry":{"type":"Polygon","coordinates":[[[-36.733,-9.869],[-36.722,-9.881],[-36.75,-9.883],[-36.751,-9.883],[-36.764,-9.849],[-36.758,-9.839],[-36.759,-9.826],[-36.758,-9.821],[-36.765,-9.802],[-36.763,-9.794],[-36.755,-9.782],[-36.746,-9.768],[-36.753,-9.758],[-36.771,-9.733],[-36.753,-9.709],[-36.735,-9.737],[-36.734,-9.738],[-36.721,-9.757],[-36.717,-9.764],[-36.698,-9.792],[-36.69,-9.804],[-36.689,-9.807],[-36.702,-9.824],[-36.714,-9.84],[-36.724,-9.854],[-36.733,-9.869]]]}},{"type":"Feature","properties":{"id":"2704203","nome":"Limoeiro de Anadia"},"geometry":{"type":"Polygon","coordinates":[[[-36.372,-9.68],[-36.37,-9.698],[-36.343,-9.713],[-36.342,-9.738],[-36.347,-9.748],[-36.353,-9.746],[-36.361,-9.752],[-36.355,-9.753],[-36.354,-9.757],[-36.36,-9.769],[-36.369,-9.765],[-36.385,-9.77],[-36.386,-9.77],[-36.394,-9.774],[-36.413,-9.778],[-36.441,-9.791],[-36.469,-9.804],[-36.491,-9.804],[-36.517,-9.804],[-36.526,-9.804],[-36.54,-9.821],[-36.555,-9.839],[-36.554,-9.833],[-36.549,-9.811],[-36.548,-9.808],[-36.555,-9.805],[-36.565,-9.803],[-36.562,-9.791],[-36.552,-9.771],[-36.556,-9.768],[-36.573,-9.749],[-36.577,-9.737],[-36.575,-9.727],[-36.583,-9.714],[-36.581,-9.708],[-36.57,-9.708],[-36.583,-9.7],[-36.566,-9.682],[-36.56,-9.68],[-36.556,-9.677],[-36.536,-9.663],[-36.533,-9.67],[-36.526,-9.688],[-36.508,-9.691],[-36.498,-9.687],[-36.465,-9.674],[-36.446,-9.668],[-36.434,-9.665],[-36.428,-9.663],[-36.407,-9.657],[-36.388,-9.651],[-36.385,-9.654],[-36.379,-9.657],[-36.372,-9.68]]]}},{"type":"Feature","properties":{"id":"2704302","nome":"Macei\u00f3"},"geometry":{"type":"Polygon","coordinates":[[[-35.617,-9.469],[-35.598,-9.473],[-35.59,-9.469],[-35.58,-9.471],[-35.569,-9.477],[-35.562,-9.479],[-35.558,-9.487],[-35.587,-9.51],[-35.591,-9.529],[-35.595,-9.53],[-35.605,-9.531],[-35.614,-9.54],[-35.616,-9.548],[-35.63,-9.552],[-35.646,-9.567],[-35.65,-9.567],[-35.659,-9.583],[-35.686,-9.614],[-35.697,-9.639],[-35.699,-9.649],[-35.694,-9.664],[-35.709,-9.665],[-35.724,-9.684],[-35.729,-9.682],[-35.723,-9.682],[-35.722,-9.676],[-35.729,-9.671],[-35.741,-9.672],[-35.755,-9.678],[-35.788,-9.711],[-35.794,-9.713],[-35.796,-9.708],[-35.782,-9.697],[-35.791,-9.68],[-35.785,-9.669],[-35.78,-9.666],[-35.78,-9.655],[-35.769,-9.635],[-35.77,-9.634],[-35.782,-9.622],[-35.793,-9.6],[-35.816,-9.577],[-35.809,-9.568],[-35.796,-9.531],[-35.784,-9.506],[-35.784,-9.504],[-35.78,-9.473],[-35.769,-9.389],[-35.746,-9.384],[-35.687,-9.37],[-35.676,-9.398],[-35.672,-9.409],[-35.665,-9.43],[-35.642,-9.444],[-35.625,-9.448],[-35.625,-9.461],[-35.617,-9.469]]]}},{"type":"Feature","properties":{"id":"2704401","nome":"Major Isidoro"},"geometry":{"type":"Polygon","coordinates":[[[-36.905,-9.523],[-36.876,-9.535],[-36.863,-9.531],[-36.837,-9.531],[-36.838,-9.539],[-36.831,-9.552],[-36.842,-9.565],[-36.842,-9.573],[-36.85,-9.57],[-36.871,-9.584],[-36.877,-9.594],[-36.888,-9.599],[-37.002,-9.63],[-37.052,-9.619],[-37.11,-9.606],[-37.153,-9.602],[-37.159,-9.602],[-37.12,-9.539],[-37.119,-9.537],[-37.109,-9.516],[-37.111,-9.506],[-37.114,-9.497],[-37.104,-9.492],[-37.104,-9.479],[-37.105,-9.462],[-37.103,-9.456],[-37.038,-9.416],[-37.034,-9.404],[-37.03,-9.392],[-37.019,-9.413],[-37.017,-9.429],[-37.018,-9.435],[-37.004,-9.449],[-37.0,-9.46],[-36.995,-9.462],[-36.986,-9.472],[-36.98,-9.486],[-36.949,-9.502],[-36.905,-9.523]]]}},{"type":"Feature","properties":{"id":"2704500","nome":"Maragogi"},"geometry":{"type":"Polygon","coordinates":[[[-35.299,-8.873],[-35.287,-8.876],[-35.277,-8.875],[-35.252,-8.887],[-35.244,-8.885],[-35.243,-8.885],[-35.235,-8.883],[-35.22,-8.889],[-35.211,-8.888],[-35.209,-8.891],[-35.2,-8.888],[-35.17,-8.891],[-35.162,-8.897],[-35.155,-8.903],[-35.152,-8.913],[-35.156,-8.922],[-35.168,-8.937],[-35.175,-8.963],[-35.186,-8.98],[-35.188,-8.982],[-35.21,-9.001],[-35.223,-9.019],[-35.226,-9.029],[-35.239,-9.049],[-35.237,-9.06],[-35.24,-9.064],[-35.241,-9.065],[-35.251,-9.072],[-35.259,-9.069],[-35.287,-9.033],[-35.303,-9.028],[-35.31,-9.024],[-35.31,-9.02],[-35.327,-9.012],[-35.331,-9.013],[-35.336,-9.008],[-35.338,-9.003],[-35.344,-9.003],[-35.343,-9.0],[-35.358,-8.981],[-35.354,-8.963],[-35.366,-8.943],[-35.372,-8.912],[-35.367,-8.908],[-35.363,-8.895],[-35.359,-8.884],[-35.342,-8.874],[-35.35,-8.86],[-35.306,-8.871],[-35.299,-8.873]]]}},{"type":"Feature","properties":{"id":"2704609","nome":"Maravilha"},"geometry":{"type":"Polygon","coordinates":[[[-37.246,-9.19],[-37.239,-9.203],[-37.233,-9.206],[-37.232,-9.222],[-37.228,-9.225],[-37.285,-9.245],[-37.297,-9.25],[-37.345,-9.267],[-37.379,-9.279],[-37.38,-9.279],[-37.413,-9.291],[-37.388,-9.32],[-37.434,-9.314],[-37.45,-9.312],[-37.471,-9.31],[-37.578,-9.297],[-37.586,-9.296],[-37.587,-9.288],[-37.571,-9.282],[-37.564,-9.273],[-37.548,-9.267],[-37.542,-9.259],[-37.527,-9.258],[-37.517,-9.242],[-37.489,-9.23],[-37.488,-9.225],[-37.48,-9.223],[-37.48,-9.216],[-37.475,-9.211],[-37.471,-9.212],[-37.466,-9.208],[-37.409,-9.202],[-37.353,-9.195],[-37.304,-9.19],[-37.295,-9.189],[-37.262,-9.16],[-37.26,-9.165],[-37.243,-9.186],[-37.246,-9.19]]]}},{"type":"Feature","properties":{"id":"2704708","nome":"Marechal Deodoro"},"geometry":{"type":"Polygon","coordinates":[[[-35.867,-9.626],[-35.864,-9.654],[-35.833,-9.654],[-35.83,-9.655],[-35.824,-9.657],[-35.815,-9.655],[-35.81,-9.659],[-35.804,-9.677],[-35.791,-9.68],[-35.782,-9.697],[-35.796,-9.708],[-35.794,-9.713],[-35.812,-9.732],[-35.82,-9.744],[-35.814,-9.737],[-35.816,-9.741],[-35.855,-9.788],[-35.862,-9.791],[-35.905,-9.811],[-35.914,-9.809],[-35.926,-9.795],[-35.937,-9.794],[-35.941,-9.787],[-35.956,-9.786],[-35.961,-9.79],[-35.973,-9.784],[-35.98,-9.786],[-35.991,-9.781],[-36.0,-9.774],[-36.004,-9.767],[-35.988,-9.738],[-35.987,-9.703],[-35.992,-9.693],[-36.018,-9.687],[-36.029,-9.671],[-36.019,-9.659],[-36.024,-9.646],[-35.997,-9.661],[-35.98,-9.672],[-35.987,-9.662],[-35.978,-9.643],[-35.971,-9.644],[-35.967,-9.64],[-35.957,-9.647],[-35.952,-9.641],[-35.942,-9.64],[-35.888,-9.647],[-35.868,-9.625],[-35.867,-9.626]]]}},{"type":"Feature","properties":{"id":"2704807","nome":"Maribondo"},"geometry":{"type":"Polygon","coordinates":[[[-36.228,-9.515],[-36.218,-9.564],[-36.214,-9.57],[-36.191,-9.599],[-36.262,-9.595],[-36.254,-9.623],[-36.288,-9.609],[-36.293,-9.601],[-36.318,-9.607],[-36.32,-9.608],[-36.351,-9.607],[-36.344,-9.6],[-36.347,-9.594],[-36.35,-9.592],[-36.357,-9.585],[-36.369,-9.581],[-36.373,-9.573],[-36.379,-9.572],[-36.379,-9.568],[-36.383,-9.541],[-36.376,-9.528],[-36.379,-9.519],[-36.387,-9.516],[-36.384,-9.512],[-36.386,-9.509],[-36.351,-9.506],[-36.34,-9.511],[-36.338,-9.512],[-36.329,-9.511],[-36.319,-9.518],[-36.309,-9.519],[-36.307,-9.522],[-36.292,-9.519],[-36.26,-9.52],[-36.24,-9.51],[-36.234,-9.502],[-36.217,-9.474],[-36.228,-9.515]]]}},{"type":"Feature","properties":{"id":"2704906","nome":"Mar Vermelho"},"geometry":{"type":"Polygon","coordinates":[[[-36.343,-9.493],[-36.34,-9.511],[-36.351,-9.506],[-36.386,-9.509],[-36.397,-9.508],[-36.426,-9.507],[-36.451,-9.505],[-36.468,-9.485],[-36.459,-9.473],[-36.457,-9.464],[-36.451,-9.457],[-36.463,-9.453],[-36.46,-9.452],[-36.43,-9.44],[-36.389,-9.425],[-36.339,-9.464],[-36.355,-9.469],[-36.353,-9.481],[-36.343,-9.493]]]}},{"type":"Feature","properties":{"id":"2705002","nome":"Mata Grande"},"geometry":{"type":"Polygon","coordinates":[[[-37.758,-8.856],[-37.748,-8.87],[-37.746,-8.883],[-37.741,-8.887],[-37.735,-8.887],[-37.734,-8.897],[-37.724,-8.904],[-37.726,-8.906],[-37.721,-8.915],[-37.708,-8.927],[-37.703,-8.938],[-37.702,-8.948],[-37.69,-8.956],[-37.684,-8.968],[-37.688,-8.978],[-37.703,-8.986],[-37.702,-8.989],[-37.698,-8.992],[-37.689,-8.99],[-37.686,-8.998],[-37.661,-8.987],[-37.664,-8.999],[-37.659,-9.006],[-37.644,-9.018],[-37.626,-9.014],[-37.611,-9.005],[-37.616,-9.0],[-37.614,-8.989],[-37.6,-8.976],[-37.583,-8.97],[-37.562,-8.974],[-37.546,-8.961],[-37.541,-8.958],[-37.532,-8.961],[-37.53,-8.963],[-37.542,-9.0],[-37.554,-9.015],[-37.554,-9.016],[-37.573,-9.043],[-37.61,-9.091],[-37.619,-9.098],[-37.635,-9.11],[-37.636,-9.11],[-37.649,-9.128],[-37.662,-9.145],[-37.673,-9.158],[-37.691,-9.175],[-37.692,-9.176],[-37.715,-9.191],[-37.723,-9.195],[-37.758,-9.199],[-37.759,-9.199],[-37.801,-9.202],[-37.842,-9.206],[-37.842,-9.222],[-37.856,-9.208],[-37.874,-9.189],[-37.875,-9.189],[-37.919,-9.145],[-37.954,-9.109],[-37.951,-9.097],[-37.942,-9.092],[-37.939,-9.083],[-37.908,-9.052],[-37.905,-9.04],[-37.889,-9.034],[-37.882,-9.04],[-37.878,-9.037],[-37.875,-9.024],[-37.879,-9.015],[-37.874,-9.011],[-37.867,-9.011],[-37.853,-9.0],[-37.852,-8.997],[-37.846,-8.984],[-37.839,-8.978],[-37.826,-8.934],[-37.826,-8.932],[-37.833,-8.926],[-37.828,-8.921],[-37.821,-8.915],[-37.822,-8.9],[-37.829,-8.897],[-37.829,-8.893],[-37.811,-8.884],[-37.801,-8.884],[-37.793,-8.875],[-37.788,-8.873],[-37.782,-8.865],[-37.776,-8.862],[-37.769,-8.864],[-37.758,-8.856]]]}},{"type":"Feature","properties":{"id":"2705101","nome":"Matriz de Camaragibe"},"geometry":{"type":"Polygon","coordinates":[[[-35.5,-9.081],[-35.512,-9.1],[-35.52,-9.101],[-35.526,-9.118],[-35.521,-9.135],[-35.51,-9.132],[-35.503,-9.134],[-35.502,-9.137],[-35.483,-9.144],[-35.476,-9.154],[-35.468,-9.166],[-35.454,-9.165],[-35.434,-9.177],[-35.453,-9.182],[-35.457,-9.185],[-35.469,-9.176],[-35.483,-9.175],[-35.475,-9.19],[-35.511,-9.19],[-35.514,-9.191],[-35.555,-9.191],[-35.604,-9.125],[-35.625,-9.097],[-35.629,-9.092],[-35.672,-9.097],[-35.686,-9.099],[-35.689,-9.101],[-35.691,-9.095],[-35.705,-9.082],[-35.709,-9.049],[-35.686,-9.035],[-35.682,-9.029],[-35.648,-9.038],[-35.619,-9.046],[-35.562,-9.062],[-35.5,-9.081]]]}},{"type":"Feature","properties":{"id":"2705200","nome":"Messias"},"geometry":{"type":"Polygon","coordinates":[[[-35.84,-9.405],[-35.876,-9.413],[-35.863,-9.388],[-35.862,-9.387],[-35.85,-9.362],[-35.83,-9.322],[-35.831,-9.313],[-35.838,-9.309],[-35.836,-9.27],[-35.836,-9.264],[-35.82,-9.265],[-35.804,-9.266],[-35.796,-9.276],[-35.788,-9.285],[-35.769,-9.309],[-35.769,-9.335],[-35.769,-9.35],[-35.769,-9.389],[-35.84,-9.405]]]}},{"type":"Feature","properties":{"id":"2705309","nome":"Minador do Negr\u00e3o"},"geometry":{"type":"Polygon","coordinates":[[[-36.848,-9.276],[-36.844,-9.282],[-36.839,-9.288],[-36.836,-9.288],[-36.797,-9.293],[-36.798,-9.347],[-36.796,-9.356],[-36.803,-9.368],[-36.826,-9.391],[-36.854,-9.392],[-36.875,-9.394],[-36.897,-9.397],[-36.901,-9.397],[-36.937,-9.377],[-36.93,-9.37],[-36.936,-9.361],[-36.938,-9.352],[-36.922,-9.339],[-36.921,-9.332],[-36.927,-9.325],[-36.921,-9.313],[-36.915,-9.299],[-36.9,-9.282],[-36.889,-9.283],[-36.884,-9.28],[-36.874,-9.277],[-36.879,-9.276],[-36.871,-9.268],[-36.848,-9.276]]]}},{"type":"Feature","properties":{"id":"2705408","nome":"Monteir\u00f3polis"},"geometry":{"type":"Polygon","coordinates":[[[-37.242,-9.621],[-37.249,-9.632],[-37.253,-9.632],[-37.279,-9.636],[-37.29,-9.634],[-37.303,-9.636],[-37.351,-9.645],[-37.358,-9.643],[-37.356,-9.638],[-37.333,-9.593],[-37.322,-9.57],[-37.313,-9.553],[-37.305,-9.536],[-37.255,-9.581],[-37.235,-9.612],[-37.242,-9.621]]]}},{"type":"Feature","properties":{"id":"2705507","nome":"Murici"},"geometry":{"type":"Polygon","coordinates":[[[-35.836,-9.27],[-35.838,-9.309],[-35.831,-9.313],[-35.83,-9.322],[-35.85,-9.362],[-35.862,-9.387],[-35.863,-9.388],[-35.876,-9.413],[-35.928,-9.374],[-35.948,-9.38],[-35.957,-9.383],[-36.014,-9.401],[-36.03,-9.374],[-36.011,-9.365],[-36.0,-9.338],[-36.003,-9.325],[-36.045,-9.333],[-36.047,-9.327],[-36.053,-9.297],[-36.058,-9.312],[-36.058,-9.293],[-36.065,-9.284],[-36.062,-9.283],[-36.004,-9.265],[-36.003,-9.265],[-35.955,-9.214],[-35.888,-9.138],[-35.86,-9.188],[-35.843,-9.221],[-35.834,-9.235],[-35.836,-9.264],[-35.836,-9.27]]]}},{"type":"Feature","properties":{"id":"2705606","nome":"Novo Lino"},"geometry":{"type":"Polygon","coordinates":[[[-35.582,-8.861],[-35.576,-8.865],[-35.585,-8.891],[-35.579,-8.911],[-35.579,-8.917],[-35.572,-8.921],[-35.565,-8.941],[-35.573,-8.945],[-35.581,-8.941],[-35.585,-8.942],[-35.583,-8.95],[-35.588,-8.956],[-35.583,-8.96],[-35.584,-8.967],[-35.59,-8.976],[-35.6,-8.973],[-35.602,-8.984],[-35.597,-8.99],[-35.585,-8.991],[-35.569,-8.984],[-35.562,-8.988],[-35.558,-8.991],[-35.56,-8.998],[-35.56,-9.003],[-35.555,-9.007],[-35.561,-9.01],[-35.566,-9.011],[-35.563,-9.026],[-35.566,-9.036],[-35.561,-9.042],[-35.562,-9.062],[-35.619,-9.046],[-35.648,-9.038],[-35.682,-9.029],[-35.677,-9.009],[-35.717,-9.015],[-35.713,-8.975],[-35.697,-8.961],[-35.678,-8.944],[-35.68,-8.936],[-35.681,-8.934],[-35.664,-8.916],[-35.646,-8.896],[-35.652,-8.882],[-35.629,-8.879],[-35.613,-8.864],[-35.605,-8.865],[-35.596,-8.861],[-35.594,-8.854],[-35.582,-8.846],[-35.57,-8.842],[-35.581,-8.856],[-35.582,-8.861]]]}},{"type":"Feature","properties":{"id":"2705705","nome":"Olho d'\u00c1gua das Flores"},"geometry":{"type":"Polygon","coordinates":[[[-37.209,-9.523],[-37.173,-9.564],[-37.157,-9.582],[-37.12,-9.539],[-37.159,-9.602],[-37.163,-9.608],[-37.2,-9.597],[-37.255,-9.581],[-37.305,-9.536],[-37.313,-9.553],[-37.345,-9.537],[-37.348,-9.536],[-37.373,-9.524],[-37.335,-9.489],[-37.334,-9.487],[-37.311,-9.467],[-37.269,-9.453],[-37.209,-9.523]]]}},{"type":"Feature","properties":{"id":"2705804","nome":"Olho d'\u00c1gua do Casado"},"geometry":{"type":"Polygon","coordinates":[[[-37.742,-9.32],[-37.728,-9.333],[-37.728,-9.334],[-37.723,-9.384],[-37.741,-9.407],[-37.748,-9.415],[-37.756,-9.425],[-37.775,-9.448],[-37.773,-9.469],[-37.777,-9.472],[-37.78,-9.488],[-37.79,-9.502],[-37.795,-9.504],[-37.796,-9.509],[-37.787,-9.522],[-37.794,-9.534],[-37.794,-9.544],[-37.802,-9.542],[-37.802,-9.546],[-37.806,-9.545],[-37.81,-9.548],[-37.816,-9.544],[-37.819,-9.548],[-37.833,-9.55],[-37.844,-9.569],[-37.842,-9.579],[-37.886,-9.55],[-37.894,-9.539],[-37.894,-9.534],[-37.887,-9.53],[-37.89,-9.525],[-37.888,-9.52],[-37.895,-9.514],[-37.893,-9.502],[-37.898,-9.496],[-37.898,-9.479],[-37.892,-9.456],[-37.896,-9.448],[-37.892,-9.444],[-37.891,-9.433],[-37.885,-9.433],[-37.884,-9.424],[-37.877,-9.42],[-37.876,-9.413],[-37.875,-9.405],[-37.87,-9.406],[-37.866,-9.402],[-37.862,-9.401],[-37.861,-9.397],[-37.852,-9.391],[-37.848,-9.374],[-37.837,-9.364],[-37.834,-9.352],[-37.827,-9.351],[-37.82,-9.335],[-37.815,-9.335],[-37.807,-9.328],[-37.795,-9.329],[-37.779,-9.325],[-37.777,-9.307],[-37.771,-9.293],[-37.742,-9.32]]]}},{"type":"Feature","properties":{"id":"2705903","nome":"Olho d'\u00c1gua Grande"},"geometry":{"type":"Polygon","coordinates":[[[-36.82,-10.002],[-36.809,-10.009],[-36.799,-10.006],[-36.796,-10.009],[-36.786,-10.015],[-36.789,-10.016],[-36.788,-10.021],[-36.777,-10.024],[-36.743,-10.034],[-36.713,-10.043],[-36.714,-10.043],[-36.714,-10.053],[-36.727,-10.065],[-36.735,-10.082],[-36.737,-10.086],[-36.745,-10.088],[-36.761,-10.105],[-36.767,-10.117],[-36.77,-10.124],[-36.789,-10.105],[-36.8,-10.101],[-36.806,-10.094],[-36.813,-10.091],[-36.821,-10.074],[-36.863,-10.059],[-36.866,-10.058],[-36.872,-10.058],[-36.874,-10.053],[-36.869,-10.047],[-36.863,-10.031],[-36.854,-10.022],[-36.843,-10.01],[-36.834,-10.012],[-36.82,-10.002]]]}},{"type":"Feature","properties":{"id":"2706000","nome":"Oliven\u00e7a"},"geometry":{"type":"Polygon","coordinates":[[[-37.117,-9.437],[-37.117,-9.46],[-37.103,-9.456],[-37.105,-9.462],[-37.104,-9.479],[-37.104,-9.492],[-37.114,-9.497],[-37.111,-9.506],[-37.109,-9.516],[-37.119,-9.537],[-37.12,-9.539],[-37.157,-9.582],[-37.173,-9.564],[-37.209,-9.523],[-37.269,-9.453],[-37.266,-9.449],[-37.246,-9.447],[-37.217,-9.443],[-37.211,-9.444],[-37.207,-9.434],[-37.199,-9.432],[-37.185,-9.433],[-37.161,-9.435],[-37.155,-9.435],[-37.149,-9.436],[-37.117,-9.437]]]}},{"type":"Feature","properties":{"id":"2706109","nome":"Ouro Branco"},"geometry":{"type":"Polygon","coordinates":[[[-37.409,-9.202],[-37.466,-9.208],[-37.463,-9.202],[-37.457,-9.202],[-37.456,-9.197],[-37.443,-9.191],[-37.423,-9.163],[-37.423,-9.16],[-37.424,-9.157],[-37.42,-9.138],[-37.426,-9.121],[-37.426,-9.102],[-37.42,-9.086],[-37.42,-9.085],[-37.42,-9.083],[-37.419,-9.075],[-37.4,-9.052],[-37.392,-9.055],[-37.34,-9.079],[-37.336,-9.08],[-37.327,-9.093],[-37.315,-9.094],[-37.31,-9.1],[-37.311,-9.107],[-37.296,-9.12],[-37.288,-9.136],[-37.282,-9.148],[-37.262,-9.158],[-37.262,-9.16],[-37.295,-9.189],[-37.304,-9.19],[-37.353,-9.195],[-37.409,-9.202]]]}},{"type":"Feature","properties":{"id":"2706208","nome":"Palestina"},"geometry":{"type":"Polygon","coordinates":[[[-37.303,-9.636],[-37.288,-9.686],[-37.239,-9.736],[-37.328,-9.711],[-37.335,-9.702],[-37.346,-9.688],[-37.372,-9.675],[-37.359,-9.675],[-37.346,-9.67],[-37.336,-9.671],[-37.317,-9.66],[-37.303,-9.636]]]}},{"type":"Feature","properties":{"id":"2706307","nome":"Palmeira dos \u00cdndios"},"geometry":{"type":"Polygon","coordinates":[[[-36.657,-9.311],[-36.649,-9.315],[-36.644,-9.314],[-36.64,-9.32],[-36.635,-9.32],[-36.634,-9.326],[-36.628,-9.328],[-36.628,-9.332],[-36.625,-9.331],[-36.593,-9.36],[-36.582,-9.353],[-36.574,-9.357],[-36.55,-9.354],[-36.55,-9.343],[-36.529,-9.364],[-36.524,-9.37],[-36.505,-9.388],[-36.486,-9.406],[-36.485,-9.407],[-36.482,-9.412],[-36.46,-9.452],[-36.463,-9.453],[-36.451,-9.457],[-36.457,-9.464],[-36.459,-9.473],[-36.468,-9.485],[-36.48,-9.494],[-36.488,-9.502],[-36.495,-9.501],[-36.5,-9.496],[-36.502,-9.5],[-36.518,-9.503],[-36.525,-9.515],[-36.527,-9.529],[-36.532,-9.532],[-36.57,-9.487],[-36.614,-9.483],[-36.615,-9.483],[-36.625,-9.491],[-36.637,-9.499],[-36.641,-9.501],[-36.66,-9.495],[-36.66,-9.494],[-36.686,-9.485],[-36.708,-9.485],[-36.709,-9.485],[-36.709,-9.478],[-36.72,-9.471],[-36.721,-9.46],[-36.719,-9.452],[-36.717,-9.439],[-36.722,-9.433],[-36.722,-9.427],[-36.722,-9.426],[-36.723,-9.397],[-36.724,-9.39],[-36.717,-9.387],[-36.712,-9.377],[-36.713,-9.375],[-36.714,-9.368],[-36.72,-9.363],[-36.72,-9.349],[-36.717,-9.342],[-36.712,-9.314],[-36.698,-9.291],[-36.694,-9.275],[-36.685,-9.283],[-36.679,-9.287],[-36.657,-9.311]]]}},{"type":"Feature","properties":{"id":"2706406","nome":"P\u00e3o de A\u00e7\u00facar"},"geometry":{"type":"Polygon","coordinates":[[[-37.47,-9.643],[-37.468,-9.649],[-37.358,-9.633],[-37.356,-9.638],[-37.358,-9.643],[-37.351,-9.645],[-37.303,-9.636],[-37.317,-9.66],[-37.336,-9.671],[-37.346,-9.67],[-37.359,-9.675],[-37.372,-9.675],[-37.346,-9.688],[-37.335,-9.702],[-37.328,-9.711],[-37.239,-9.736],[-37.248,-9.739],[-37.251,-9.752],[-37.273,-9.767],[-37.275,-9.774],[-37.286,-9.772],[-37.285,-9.778],[-37.297,-9.783],[-37.301,-9.788],[-37.301,-9.794],[-37.309,-9.803],[-37.298,-9.817],[-37.297,-9.827],[-37.311,-9.824],[-37.321,-9.82],[-37.34,-9.8],[-37.348,-9.793],[-37.362,-9.786],[-37.373,-9.784],[-37.397,-9.777],[-37.409,-9.768],[-37.417,-9.763],[-37.45,-9.753],[-37.467,-9.749],[-37.473,-9.746],[-37.524,-9.744],[-37.527,-9.744],[-37.553,-9.74],[-37.572,-9.738],[-37.581,-9.734],[-37.602,-9.719],[-37.603,-9.718],[-37.645,-9.691],[-37.656,-9.683],[-37.66,-9.677],[-37.657,-9.671],[-37.656,-9.67],[-37.659,-9.654],[-37.637,-9.603],[-37.649,-9.577],[-37.663,-9.557],[-37.667,-9.544],[-37.668,-9.538],[-37.672,-9.535],[-37.659,-9.519],[-37.636,-9.522],[-37.613,-9.533],[-37.591,-9.534],[-37.548,-9.561],[-37.54,-9.565],[-37.536,-9.578],[-37.525,-9.588],[-37.496,-9.609],[-37.491,-9.617],[-37.479,-9.624],[-37.473,-9.634],[-37.471,-9.642],[-37.47,-9.643]]]}},{"type":"Feature","properties":{"id":"2706422","nome":"Pariconha"},"geometry":{"type":"Polygon","coordinates":[[[-38.003,-9.161],[-38.0,-9.173],[-37.985,-9.179],[-37.971,-9.213],[-37.974,-9.216],[-37.973,-9.221],[-37.977,-9.232],[-37.987,-9.242],[-37.96,-9.246],[-37.972,-9.257],[-37.979,-9.268],[-37.984,-9.284],[-37.978,-9.298],[-37.982,-9.301],[-37.979,-9.307],[-37.985,-9.33],[-38.002,-9.336],[-38.007,-9.338],[-38.048,-9.315],[-38.122,-9.27],[-38.127,-9.267],[-38.156,-9.249],[-38.156,-9.242],[-38.144,-9.218],[-38.119,-9.201],[-38.102,-9.18],[-38.092,-9.172],[-38.079,-9.17],[-38.066,-9.174],[-38.052,-9.167],[-38.044,-9.168],[-38.03,-9.165],[-38.025,-9.155],[-38.011,-9.156],[-38.003,-9.161]]]}},{"type":"Feature","properties":{"id":"2706448","nome":"Paripueira"},"geometry":{"type":"Polygon","coordinates":[[[-35.666,-9.398],[-35.65,-9.404],[-35.641,-9.401],[-35.623,-9.407],[-35.621,-9.409],[-35.616,-9.407],[-35.611,-9.404],[-35.61,-9.406],[-35.6,-9.406],[-35.595,-9.408],[-35.592,-9.405],[-35.571,-9.401],[-35.564,-9.404],[-35.554,-9.404],[-35.549,-9.404],[-35.544,-9.41],[-35.546,-9.416],[-35.537,-9.423],[-35.534,-9.43],[-35.53,-9.438],[-35.528,-9.436],[-35.525,-9.443],[-35.53,-9.457],[-35.536,-9.458],[-35.553,-9.474],[-35.558,-9.487],[-35.562,-9.479],[-35.569,-9.477],[-35.58,-9.471],[-35.59,-9.469],[-35.598,-9.473],[-35.617,-9.469],[-35.625,-9.461],[-35.625,-9.448],[-35.642,-9.444],[-35.665,-9.43],[-35.672,-9.409],[-35.676,-9.398],[-35.666,-9.398]]]}},{"type":"Feature","properties":{"id":"2706505","nome":"Passo de Camaragibe"},"geometry":{"type":"Polygon","coordinates":[[[-35.457,-9.342],[-35.463,-9.347],[-35.475,-9.338],[-35.513,-9.307],[-35.536,-9.289],[-35.555,-9.274],[-35.568,-9.264],[-35.577,-9.256],[-35.578,-9.254],[-35.549,-9.226],[-35.514,-9.191],[-35.511,-9.19],[-35.475,-9.19],[-35.476,-9.2],[-35.469,-9.212],[-35.465,-9.224],[-35.424,-9.245],[-35.415,-9.256],[-35.395,-9.272],[-35.386,-9.286],[-35.396,-9.303],[-35.414,-9.312],[-35.421,-9.315],[-35.414,-9.318],[-35.415,-9.321],[-35.428,-9.322],[-35.437,-9.327],[-35.44,-9.339],[-35.457,-9.342]]]}},{"type":"Feature","properties":{"id":"2706604","nome":"Paulo Jacinto"},"geometry":{"type":"Polygon","coordinates":[[[-36.366,-9.361],[-36.366,-9.378],[-36.362,-9.382],[-36.366,-9.384],[-36.374,-9.375],[-36.387,-9.417],[-36.389,-9.425],[-36.43,-9.44],[-36.46,-9.452],[-36.482,-9.412],[-36.485,-9.407],[-36.445,-9.396],[-36.428,-9.364],[-36.425,-9.358],[-36.41,-9.35],[-36.399,-9.339],[-36.376,-9.338],[-36.39,-9.292],[-36.34,-9.286],[-36.366,-9.361]]]}},{"type":"Feature","properties":{"id":"2706703","nome":"Penedo"},"geometry":{"type":"Polygon","coordinates":[[[-36.448,-10.06],[-36.434,-10.073],[-36.42,-10.068],[-36.42,-10.065],[-36.414,-10.084],[-36.4,-10.082],[-36.399,-10.085],[-36.399,-10.101],[-36.376,-10.105],[-36.362,-10.121],[-36.362,-10.149],[-36.36,-10.157],[-36.343,-10.164],[-36.335,-10.18],[-36.353,-10.204],[-36.352,-10.212],[-36.356,-10.22],[-36.364,-10.226],[-36.372,-10.224],[-36.373,-10.232],[-36.384,-10.233],[-36.386,-10.236],[-36.388,-10.239],[-36.398,-10.246],[-36.395,-10.259],[-36.392,-10.268],[-36.383,-10.273],[-36.377,-10.294],[-36.392,-10.31],[-36.398,-10.302],[-36.417,-10.328],[-36.428,-10.326],[-36.447,-10.335],[-36.46,-10.333],[-36.49,-10.349],[-36.496,-10.355],[-36.49,-10.356],[-36.491,-10.364],[-36.507,-10.368],[-36.508,-10.379],[-36.49,-10.378],[-36.488,-10.382],[-36.493,-10.388],[-36.506,-10.393],[-36.502,-10.404],[-36.501,-10.404],[-36.487,-10.422],[-36.489,-10.424],[-36.51,-10.432],[-36.522,-10.433],[-36.519,-10.424],[-36.51,-10.421],[-36.538,-10.422],[-36.544,-10.43],[-36.563,-10.419],[-36.565,-10.411],[-36.562,-10.404],[-36.561,-10.385],[-36.564,-10.38],[-36.568,-10.362],[-36.566,-10.329],[-36.574,-10.315],[-36.589,-10.301],[-36.591,-10.287],[-36.595,-10.284],[-36.599,-10.281],[-36.612,-10.271],[-36.622,-10.259],[-36.625,-10.256],[-36.631,-10.254],[-36.634,-10.249],[-36.66,-10.246],[-36.636,-10.223],[-36.596,-10.194],[-36.576,-10.192],[-36.562,-10.184],[-36.559,-10.184],[-36.524,-10.177],[-36.518,-10.165],[-36.511,-10.148],[-36.51,-10.146],[-36.504,-10.125],[-36.502,-10.094],[-36.495,-10.088],[-36.491,-10.071],[-36.479,-10.058],[-36.455,-10.032],[-36.453,-10.038],[-36.448,-10.047],[-36.448,-10.06]]]}},{"type":"Feature","properties":{"id":"2706802","nome":"Pia\u00e7abu\u00e7u"},"geometry":{"type":"Polygon","coordinates":[[[-36.392,-10.31],[-36.347,-10.329],[-36.33,-10.336],[-36.313,-10.347],[-36.302,-10.342],[-36.293,-10.354],[-36.3,-10.362],[-36.307,-10.364],[-36.335,-10.403],[-36.385,-10.499],[-36.394,-10.5],[-36.405,-10.482],[-36.405,-10.481],[-36.417,-10.454],[-36.43,-10.425],[-36.438,-10.418],[-36.443,-10.418],[-36.457,-10.407],[-36.463,-10.406],[-36.487,-10.422],[-36.501,-10.404],[-36.502,-10.404],[-36.506,-10.393],[-36.493,-10.388],[-36.488,-10.382],[-36.49,-10.378],[-36.508,-10.379],[-36.507,-10.368],[-36.491,-10.364],[-36.49,-10.356],[-36.496,-10.355],[-36.49,-10.349],[-36.46,-10.333],[-36.447,-10.335],[-36.428,-10.326],[-36.417,-10.328],[-36.398,-10.302],[-36.392,-10.31]]]}},{"type":"Feature","properties":{"id":"2706901","nome":"Pilar"},"geometry":{"type":"Polygon","coordinates":[[[-35.946,-9.542],[-35.887,-9.59],[-35.88,-9.597],[-35.88,-9.601],[-35.877,-9.601],[-35.868,-9.625],[-35.888,-9.647],[-35.942,-9.64],[-35.952,-9.641],[-35.957,-9.647],[-35.967,-9.64],[-35.971,-9.644],[-35.978,-9.643],[-35.987,-9.662],[-35.98,-9.672],[-35.997,-9.661],[-36.024,-9.646],[-36.019,-9.659],[-36.029,-9.671],[-36.034,-9.668],[-36.075,-9.673],[-36.083,-9.664],[-36.086,-9.661],[-36.09,-9.655],[-36.099,-9.651],[-36.101,-9.645],[-36.103,-9.641],[-36.105,-9.639],[-36.111,-9.646],[-36.116,-9.649],[-36.128,-9.648],[-36.132,-9.651],[-36.134,-9.645],[-36.141,-9.645],[-36.141,-9.638],[-36.155,-9.624],[-36.177,-9.621],[-36.181,-9.612],[-36.174,-9.612],[-36.158,-9.618],[-36.15,-9.612],[-36.138,-9.613],[-36.13,-9.604],[-36.126,-9.598],[-36.12,-9.595],[-36.092,-9.601],[-36.081,-9.598],[-36.017,-9.575],[-36.006,-9.586],[-36.0,-9.575],[-35.977,-9.556],[-35.979,-9.55],[-35.959,-9.528],[-35.95,-9.533],[-35.945,-9.537],[-35.946,-9.542]]]}},{"type":"Feature","properties":{"id":"2707008","nome":"Pindoba"},"geometry":{"type":"Polygon","coordinates":[[[-36.302,-9.426],[-36.269,-9.437],[-36.266,-9.438],[-36.211,-9.453],[-36.208,-9.455],[-36.217,-9.474],[-36.234,-9.502],[-36.24,-9.51],[-36.26,-9.52],[-36.292,-9.519],[-36.307,-9.522],[-36.309,-9.519],[-36.319,-9.518],[-36.329,-9.511],[-36.338,-9.512],[-36.34,-9.511],[-36.343,-9.493],[-36.353,-9.481],[-36.355,-9.469],[-36.339,-9.464],[-36.348,-9.452],[-36.35,-9.448],[-36.329,-9.443],[-36.324,-9.441],[-36.321,-9.432],[-36.316,-9.432],[-36.31,-9.428],[-36.304,-9.43],[-36.302,-9.426]]]}},{"type":"Feature","properties":{"id":"2707107","nome":"Piranhas"},"geometry":{"type":"Polygon","coordinates":[[[-37.672,-9.535],[-37.668,-9.538],[-37.667,-9.544],[-37.663,-9.557],[-37.649,-9.577],[-37.637,-9.603],[-37.659,-9.654],[-37.656,-9.67],[-37.657,-9.671],[-37.66,-9.677],[-37.666,-9.666],[-37.671,-9.656],[-37.68,-9.648],[-37.687,-9.644],[-37.711,-9.631],[-37.737,-9.627],[-37.747,-9.625],[-37.778,-9.638],[-37.785,-9.638],[-37.787,-9.633],[-37.793,-9.62],[-37.807,-9.61],[-37.818,-9.592],[-37.823,-9.591],[-37.833,-9.594],[-37.837,-9.583],[-37.842,-9.579],[-37.844,-9.569],[-37.833,-9.55],[-37.819,-9.548],[-37.816,-9.544],[-37.81,-9.548],[-37.806,-9.545],[-37.802,-9.546],[-37.802,-9.542],[-37.794,-9.544],[-37.794,-9.534],[-37.787,-9.522],[-37.796,-9.509],[-37.795,-9.504],[-37.79,-9.502],[-37.78,-9.488],[-37.777,-9.472],[-37.773,-9.469],[-37.775,-9.448],[-37.756,-9.425],[-37.748,-9.415],[-37.741,-9.407],[-37.723,-9.384],[-37.728,-9.334],[-37.728,-9.333],[-37.657,-9.407],[-37.656,-9.408],[-37.665,-9.44],[-37.664,-9.445],[-37.671,-9.462],[-37.666,-9.479],[-37.665,-9.489],[-37.674,-9.499],[-37.671,-9.504],[-37.676,-9.521],[-37.672,-9.535]]]}},{"type":"Feature","properties":{"id":"2707206","nome":"Po\u00e7o das Trincheiras"},"geometry":{"type":"Polygon","coordinates":[[[-37.198,-9.215],[-37.159,-9.239],[-37.168,-9.251],[-37.169,-9.265],[-37.184,-9.275],[-37.186,-9.278],[-37.203,-9.291],[-37.215,-9.311],[-37.217,-9.312],[-37.283,-9.342],[-37.284,-9.342],[-37.309,-9.35],[-37.321,-9.352],[-37.337,-9.35],[-37.36,-9.356],[-37.373,-9.357],[-37.39,-9.352],[-37.403,-9.362],[-37.423,-9.36],[-37.444,-9.357],[-37.484,-9.345],[-37.491,-9.337],[-37.519,-9.31],[-37.56,-9.305],[-37.578,-9.297],[-37.471,-9.31],[-37.45,-9.312],[-37.434,-9.314],[-37.388,-9.32],[-37.413,-9.291],[-37.38,-9.279],[-37.379,-9.279],[-37.345,-9.267],[-37.297,-9.25],[-37.285,-9.245],[-37.228,-9.225],[-37.234,-9.232],[-37.234,-9.24],[-37.207,-9.218],[-37.198,-9.215]]]}},{"type":"Feature","properties":{"id":"2707305","nome":"Porto Calvo"},"geometry":{"type":"Polygon","coordinates":[[[-35.422,-8.92],[-35.378,-8.968],[-35.366,-8.943],[-35.354,-8.963],[-35.358,-8.981],[-35.343,-9.0],[-35.344,-9.003],[-35.338,-9.003],[-35.336,-9.008],[-35.331,-9.013],[-35.327,-9.012],[-35.31,-9.02],[-35.31,-9.024],[-35.303,-9.028],[-35.336,-9.031],[-35.336,-9.039],[-35.334,-9.054],[-35.336,-9.062],[-35.338,-9.073],[-35.33,-9.101],[-35.326,-9.12],[-35.301,-9.136],[-35.306,-9.14],[-35.307,-9.138],[-35.312,-9.14],[-35.312,-9.147],[-35.321,-9.147],[-35.336,-9.138],[-35.332,-9.131],[-35.34,-9.128],[-35.341,-9.123],[-35.343,-9.126],[-35.352,-9.125],[-35.352,-9.122],[-35.347,-9.12],[-35.357,-9.113],[-35.356,-9.108],[-35.348,-9.112],[-35.355,-9.103],[-35.359,-9.106],[-35.361,-9.102],[-35.365,-9.103],[-35.36,-9.092],[-35.367,-9.095],[-35.367,-9.091],[-35.363,-9.09],[-35.366,-9.086],[-35.372,-9.088],[-35.413,-9.079],[-35.42,-9.077],[-35.426,-9.069],[-35.439,-9.067],[-35.456,-9.068],[-35.466,-9.076],[-35.482,-9.072],[-35.498,-9.08],[-35.5,-9.081],[-35.562,-9.062],[-35.561,-9.042],[-35.566,-9.036],[-35.563,-9.026],[-35.566,-9.011],[-35.561,-9.01],[-35.521,-9.009],[-35.503,-8.995],[-35.469,-8.972],[-35.452,-8.96],[-35.45,-8.964],[-35.432,-8.937],[-35.422,-8.92]]]}},{"type":"Feature","properties":{"id":"2707404","nome":"Porto de Pedras"},"geometry":{"type":"Polygon","coordinates":[[[-35.426,-9.069],[-35.42,-9.077],[-35.413,-9.079],[-35.372,-9.088],[-35.366,-9.086],[-35.363,-9.09],[-35.367,-9.091],[-35.367,-9.095],[-35.36,-9.092],[-35.365,-9.103],[-35.361,-9.102],[-35.359,-9.106],[-35.355,-9.103],[-35.348,-9.112],[-35.356,-9.108],[-35.357,-9.113],[-35.347,-9.12],[-35.352,-9.122],[-35.352,-9.125],[-35.343,-9.126],[-35.341,-9.123],[-35.34,-9.128],[-35.332,-9.131],[-35.336,-9.138],[-35.321,-9.147],[-35.312,-9.147],[-35.292,-9.146],[-35.289,-9.148],[-35.295,-9.155],[-35.294,-9.17],[-35.299,-9.182],[-35.306,-9.193],[-35.32,-9.199],[-35.33,-9.222],[-35.342,-9.231],[-35.349,-9.23],[-35.359,-9.229],[-35.378,-9.209],[-35.427,-9.193],[-35.475,-9.19],[-35.483,-9.175],[-35.469,-9.176],[-35.457,-9.185],[-35.453,-9.182],[-35.434,-9.177],[-35.454,-9.165],[-35.468,-9.166],[-35.476,-9.154],[-35.483,-9.144],[-35.502,-9.137],[-35.503,-9.134],[-35.51,-9.132],[-35.521,-9.135],[-35.526,-9.118],[-35.52,-9.101],[-35.512,-9.1],[-35.5,-9.081],[-35.498,-9.08],[-35.482,-9.072],[-35.466,-9.076],[-35.456,-9.068],[-35.439,-9.067],[-35.426,-9.069]]]}},{"type":"Feature","properties":{"id":"2707503","nome":"Porto Real do Col\u00e9gio"},"geometry":{"type":"Polygon","coordinates":[[[-36.648,-10.012],[-36.65,-10.017],[-36.654,-10.013],[-36.655,-10.019],[-36.651,-10.027],[-36.657,-10.034],[-36.661,-10.036],[-36.661,-10.05],[-36.666,-10.052],[-36.673,-10.079],[-36.674,-10.094],[-36.681,-10.114],[-36.683,-10.125],[-36.697,-10.13],[-36.724,-10.14],[-36.744,-10.145],[-36.736,-10.158],[-36.722,-10.236],[-36.723,-10.253],[-36.72,-10.265],[-36.736,-10.252],[-36.744,-10.252],[-36.756,-10.246],[-36.75,-10.237],[-36.756,-10.231],[-36.777,-10.226],[-36.808,-10.22],[-36.819,-10.215],[-36.835,-10.204],[-36.845,-10.189],[-36.846,-10.186],[-36.847,-10.18],[-36.847,-10.176],[-36.836,-10.164],[-36.826,-10.156],[-36.817,-10.147],[-36.796,-10.139],[-36.77,-10.124],[-36.767,-10.117],[-36.761,-10.105],[-36.745,-10.088],[-36.737,-10.086],[-36.735,-10.082],[-36.727,-10.065],[-36.714,-10.053],[-36.714,-10.043],[-36.713,-10.043],[-36.705,-10.019],[-36.707,-10.0],[-36.685,-9.962],[-36.685,-9.965],[-36.649,-9.984],[-36.646,-9.986],[-36.647,-9.988],[-36.643,-9.993],[-36.648,-9.996],[-36.654,-10.005],[-36.648,-10.007],[-36.648,-10.012]]]}},{"type":"Feature","properties":{"id":"2707602","nome":"Quebrangulo"},"geometry":{"type":"Polygon","coordinates":[[[-36.419,-9.229],[-36.415,-9.229],[-36.408,-9.222],[-36.372,-9.255],[-36.348,-9.279],[-36.34,-9.286],[-36.39,-9.292],[-36.376,-9.338],[-36.399,-9.339],[-36.41,-9.35],[-36.425,-9.358],[-36.428,-9.364],[-36.445,-9.396],[-36.485,-9.407],[-36.486,-9.406],[-36.505,-9.388],[-36.524,-9.37],[-36.529,-9.364],[-36.55,-9.343],[-36.55,-9.354],[-36.574,-9.357],[-36.582,-9.353],[-36.593,-9.36],[-36.625,-9.331],[-36.623,-9.326],[-36.619,-9.328],[-36.615,-9.323],[-36.614,-9.331],[-36.613,-9.334],[-36.607,-9.333],[-36.605,-9.341],[-36.593,-9.334],[-36.586,-9.338],[-36.576,-9.331],[-36.567,-9.332],[-36.564,-9.322],[-36.568,-9.318],[-36.572,-9.32],[-36.572,-9.292],[-36.549,-9.285],[-36.503,-9.271],[-36.5,-9.262],[-36.498,-9.264],[-36.491,-9.262],[-36.492,-9.254],[-36.489,-9.252],[-36.488,-9.241],[-36.481,-9.239],[-36.476,-9.243],[-36.462,-9.239],[-36.457,-9.233],[-36.453,-9.232],[-36.454,-9.225],[-36.441,-9.219],[-36.437,-9.212],[-36.423,-9.215],[-36.424,-9.226],[-36.419,-9.229]]]}},{"type":"Feature","properties":{"id":"2707701","nome":"Rio Largo"},"geometry":{"type":"Polygon","coordinates":[[[-35.928,-9.374],[-35.876,-9.413],[-35.84,-9.405],[-35.769,-9.389],[-35.78,-9.473],[-35.784,-9.504],[-35.784,-9.506],[-35.796,-9.531],[-35.797,-9.531],[-35.814,-9.537],[-35.818,-9.539],[-35.819,-9.543],[-35.83,-9.545],[-35.833,-9.553],[-35.835,-9.555],[-35.877,-9.564],[-35.887,-9.59],[-35.946,-9.542],[-35.945,-9.537],[-35.95,-9.533],[-35.959,-9.528],[-35.94,-9.498],[-35.933,-9.48],[-35.934,-9.447],[-35.937,-9.401],[-35.928,-9.374]]]}},{"type":"Feature","properties":{"id":"2707800","nome":"Roteiro"},"geometry":{"type":"Polygon","coordinates":[[[-36.005,-9.811],[-35.997,-9.819],[-35.991,-9.818],[-35.984,-9.826],[-35.974,-9.826],[-35.967,-9.83],[-35.961,-9.835],[-35.96,-9.836],[-35.95,-9.845],[-35.938,-9.844],[-35.922,-9.837],[-35.914,-9.842],[-35.91,-9.846],[-35.903,-9.86],[-35.902,-9.87],[-35.935,-9.899],[-35.962,-9.941],[-35.968,-9.929],[-35.977,-9.925],[-35.978,-9.915],[-35.983,-9.91],[-35.999,-9.915],[-36.005,-9.908],[-36.007,-9.911],[-36.014,-9.907],[-36.021,-9.92],[-36.041,-9.858],[-36.044,-9.849],[-36.039,-9.834],[-36.038,-9.814],[-36.026,-9.811],[-36.015,-9.807],[-36.005,-9.811]]]}},{"type":"Feature","properties":{"id":"2707909","nome":"Santa Luzia do Norte"},"geometry":{"type":"Polygon","coordinates":[[[-35.793,-9.6],[-35.812,-9.617],[-35.826,-9.64],[-35.845,-9.641],[-35.867,-9.626],[-35.856,-9.615],[-35.855,-9.61],[-35.852,-9.608],[-35.85,-9.612],[-35.852,-9.606],[-35.845,-9.606],[-35.83,-9.585],[-35.825,-9.582],[-35.825,-9.577],[-35.816,-9.577],[-35.793,-9.6]]]}},{"type":"Feature","properties":{"id":"2708006","nome":"Santana do Ipanema"},"geometry":{"type":"Polygon","coordinates":[[[-37.081,-9.254],[-37.057,-9.281],[-37.061,-9.304],[-37.057,-9.317],[-37.059,-9.318],[-37.073,-9.318],[-37.083,-9.325],[-37.088,-9.333],[-37.09,-9.351],[-37.102,-9.361],[-37.109,-9.38],[-37.12,-9.388],[-37.146,-9.417],[-37.149,-9.436],[-37.155,-9.435],[-37.161,-9.435],[-37.185,-9.433],[-37.199,-9.432],[-37.207,-9.434],[-37.211,-9.444],[-37.217,-9.443],[-37.246,-9.447],[-37.266,-9.449],[-37.269,-9.453],[-37.318,-9.42],[-37.326,-9.422],[-37.328,-9.423],[-37.332,-9.424],[-37.421,-9.371],[-37.444,-9.357],[-37.423,-9.36],[-37.403,-9.362],[-37.39,-9.352],[-37.373,-9.357],[-37.36,-9.356],[-37.337,-9.35],[-37.321,-9.352],[-37.309,-9.35],[-37.284,-9.342],[-37.283,-9.342],[-37.217,-9.312],[-37.215,-9.311],[-37.203,-9.291],[-37.186,-9.278],[-37.184,-9.275],[-37.169,-9.265],[-37.169,-9.272],[-37.164,-9.275],[-37.142,-9.268],[-37.13,-9.26],[-37.116,-9.241],[-37.106,-9.239],[-37.081,-9.254]]]}},{"type":"Feature","properties":{"id":"2708105","nome":"Santana do Munda\u00fa"},"geometry":{"type":"Polygon","coordinates":[[[-36.12,-9.027],[-36.142,-9.063],[-36.114,-9.056],[-36.119,-9.083],[-36.12,-9.093],[-36.124,-9.119],[-36.125,-9.125],[-36.129,-9.153],[-36.133,-9.158],[-36.172,-9.203],[-36.18,-9.212],[-36.18,-9.213],[-36.244,-9.196],[-36.281,-9.186],[-36.287,-9.173],[-36.274,-9.166],[-36.271,-9.171],[-36.26,-9.17],[-36.261,-9.177],[-36.256,-9.182],[-36.252,-9.181],[-36.253,-9.173],[-36.248,-9.177],[-36.224,-9.171],[-36.225,-9.167],[-36.239,-9.16],[-36.242,-9.147],[-36.246,-9.143],[-36.257,-9.138],[-36.263,-9.126],[-36.26,-9.118],[-36.266,-9.112],[-36.267,-9.111],[-36.267,-9.102],[-36.245,-9.099],[-36.236,-9.103],[-36.222,-9.086],[-36.222,-9.073],[-36.21,-9.073],[-36.204,-9.069],[-36.199,-9.048],[-36.195,-9.044],[-36.189,-9.046],[-36.179,-9.041],[-36.175,-9.044],[-36.164,-9.04],[-36.154,-9.04],[-36.151,-9.042],[-36.142,-9.04],[-36.139,-9.036],[-36.127,-9.033],[-36.12,-9.027]]]}},{"type":"Feature","properties":{"id":"2708204","nome":"S\u00e3o Br\u00e1s"},"geometry":{"type":"Polygon","coordinates":[[[-36.863,-10.059],[-36.821,-10.074],[-36.813,-10.091],[-36.806,-10.094],[-36.8,-10.101],[-36.789,-10.105],[-36.77,-10.124],[-36.796,-10.139],[-36.817,-10.147],[-36.826,-10.156],[-36.836,-10.164],[-36.847,-10.176],[-36.848,-10.162],[-36.867,-10.157],[-36.88,-10.145],[-36.887,-10.143],[-36.911,-10.138],[-36.918,-10.132],[-36.921,-10.128],[-36.93,-10.105],[-36.947,-10.086],[-36.95,-10.077],[-36.952,-10.074],[-36.948,-10.074],[-36.942,-10.077],[-36.869,-10.047],[-36.874,-10.053],[-36.872,-10.058],[-36.866,-10.058],[-36.863,-10.059]]]}},{"type":"Feature","properties":{"id":"2708303","nome":"S\u00e3o Jos\u00e9 da Laje"},"geometry":{"type":"Polygon","coordinates":[[[-35.955,-8.901],[-35.962,-8.917],[-35.959,-8.92],[-35.966,-8.922],[-35.957,-8.93],[-35.961,-8.935],[-35.972,-8.929],[-35.976,-8.932],[-35.973,-8.945],[-35.977,-8.951],[-35.972,-8.97],[-35.96,-8.967],[-35.956,-8.973],[-35.966,-8.976],[-35.952,-8.985],[-35.962,-8.997],[-35.96,-9.008],[-35.954,-9.031],[-36.004,-9.04],[-36.017,-9.046],[-36.024,-9.038],[-36.029,-9.037],[-36.03,-9.041],[-36.028,-9.038],[-36.027,-9.042],[-36.03,-9.048],[-36.024,-9.054],[-36.031,-9.056],[-36.049,-9.065],[-36.051,-9.058],[-36.059,-9.058],[-36.072,-9.061],[-36.074,-9.068],[-36.088,-9.067],[-36.093,-9.073],[-36.095,-9.067],[-36.09,-9.061],[-36.114,-9.056],[-36.142,-9.063],[-36.12,-9.027],[-36.111,-9.017],[-36.115,-9.013],[-36.113,-9.009],[-36.109,-9.008],[-36.104,-8.999],[-36.112,-8.987],[-36.126,-8.981],[-36.129,-8.971],[-36.127,-8.956],[-36.126,-8.955],[-36.086,-8.944],[-36.084,-8.942],[-36.064,-8.915],[-36.033,-8.908],[-36.005,-8.913],[-35.987,-8.903],[-35.984,-8.905],[-35.974,-8.901],[-35.965,-8.903],[-35.961,-8.894],[-35.955,-8.901]]]}},{"type":"Feature","properties":{"id":"2708402","nome":"S\u00e3o Jos\u00e9 da Tapera"},"geometry":{"type":"Polygon","coordinates":[[[-37.421,-9.492],[-37.385,-9.516],[-37.382,-9.518],[-37.373,-9.524],[-37.348,-9.536],[-37.345,-9.537],[-37.313,-9.553],[-37.322,-9.57],[-37.333,-9.593],[-37.356,-9.638],[-37.358,-9.633],[-37.468,-9.649],[-37.47,-9.643],[-37.471,-9.642],[-37.473,-9.634],[-37.479,-9.624],[-37.491,-9.617],[-37.496,-9.609],[-37.525,-9.588],[-37.536,-9.578],[-37.54,-9.565],[-37.548,-9.561],[-37.591,-9.534],[-37.613,-9.533],[-37.636,-9.522],[-37.659,-9.519],[-37.672,-9.535],[-37.676,-9.521],[-37.671,-9.504],[-37.674,-9.499],[-37.665,-9.489],[-37.666,-9.479],[-37.671,-9.462],[-37.664,-9.445],[-37.665,-9.44],[-37.656,-9.408],[-37.655,-9.408],[-37.616,-9.421],[-37.587,-9.43],[-37.572,-9.435],[-37.539,-9.446],[-37.513,-9.455],[-37.461,-9.471],[-37.445,-9.476],[-37.443,-9.478],[-37.421,-9.492]]]}},{"type":"Feature","properties":{"id":"2708501","nome":"S\u00e3o Lu\u00eds do Quitunde"},"geometry":{"type":"Polygon","coordinates":[[[-35.681,-9.1],[-35.664,-9.107],[-35.653,-9.107],[-35.649,-9.122],[-35.644,-9.119],[-35.636,-9.119],[-35.617,-9.136],[-35.598,-9.167],[-35.595,-9.181],[-35.597,-9.187],[-35.591,-9.191],[-35.592,-9.205],[-35.597,-9.211],[-35.596,-9.226],[-35.594,-9.232],[-35.578,-9.254],[-35.577,-9.256],[-35.568,-9.264],[-35.555,-9.274],[-35.536,-9.289],[-35.513,-9.307],[-35.513,-9.314],[-35.52,-9.323],[-35.514,-9.346],[-35.518,-9.354],[-35.523,-9.354],[-35.536,-9.346],[-35.563,-9.357],[-35.567,-9.355],[-35.589,-9.36],[-35.686,-9.37],[-35.692,-9.298],[-35.692,-9.285],[-35.693,-9.26],[-35.703,-9.229],[-35.712,-9.185],[-35.713,-9.181],[-35.725,-9.125],[-35.71,-9.113],[-35.697,-9.109],[-35.689,-9.101],[-35.681,-9.1]]]}},{"type":"Feature","properties":{"id":"2708600","nome":"S\u00e3o Miguel dos Campos"},"geometry":{"type":"Polygon","coordinates":[[[-36.038,-9.814],[-36.039,-9.834],[-36.044,-9.849],[-36.041,-9.858],[-36.047,-9.86],[-36.051,-9.872],[-36.065,-9.875],[-36.067,-9.882],[-36.079,-9.868],[-36.088,-9.868],[-36.097,-9.855],[-36.117,-9.844],[-36.123,-9.838],[-36.126,-9.838],[-36.127,-9.828],[-36.134,-9.839],[-36.144,-9.859],[-36.161,-9.855],[-36.166,-9.849],[-36.166,-9.84],[-36.183,-9.801],[-36.187,-9.795],[-36.246,-9.732],[-36.218,-9.729],[-36.18,-9.724],[-36.178,-9.717],[-36.127,-9.705],[-36.111,-9.701],[-36.078,-9.694],[-36.068,-9.689],[-36.079,-9.679],[-36.075,-9.673],[-36.034,-9.668],[-36.029,-9.671],[-36.018,-9.687],[-35.992,-9.693],[-35.987,-9.703],[-35.988,-9.738],[-36.004,-9.767],[-36.026,-9.81],[-36.026,-9.811],[-36.038,-9.814]]]}},{"type":"Feature","properties":{"id":"2708709","nome":"S\u00e3o Miguel dos Milagres"},"geometry":{"type":"Polygon","coordinates":[[[-35.374,-9.278],[-35.386,-9.286],[-35.395,-9.272],[-35.415,-9.256],[-35.424,-9.245],[-35.465,-9.224],[-35.469,-9.212],[-35.476,-9.2],[-35.475,-9.19],[-35.427,-9.193],[-35.378,-9.209],[-35.359,-9.229],[-35.349,-9.23],[-35.342,-9.231],[-35.343,-9.238],[-35.354,-9.255],[-35.374,-9.278]]]}},{"type":"Feature","properties":{"id":"2708808","nome":"S\u00e3o Sebasti\u00e3o"},"geometry":{"type":"Polygon","coordinates":[[[-36.529,-9.847],[-36.515,-9.859],[-36.506,-9.855],[-36.503,-9.857],[-36.496,-9.867],[-36.497,-9.882],[-36.5,-9.892],[-36.494,-9.905],[-36.492,-9.908],[-36.486,-9.927],[-36.478,-9.933],[-36.471,-9.94],[-36.473,-9.954],[-36.479,-9.961],[-36.472,-9.974],[-36.474,-9.997],[-36.484,-10.01],[-36.488,-10.019],[-36.483,-10.027],[-36.474,-10.027],[-36.471,-10.03],[-36.458,-10.029],[-36.455,-10.032],[-36.479,-10.058],[-36.491,-10.071],[-36.507,-10.069],[-36.515,-10.044],[-36.517,-10.04],[-36.578,-10.037],[-36.641,-10.035],[-36.654,-10.034],[-36.657,-10.034],[-36.651,-10.027],[-36.655,-10.019],[-36.654,-10.013],[-36.65,-10.017],[-36.648,-10.012],[-36.648,-10.007],[-36.654,-10.005],[-36.648,-9.996],[-36.643,-9.993],[-36.647,-9.988],[-36.646,-9.986],[-36.641,-9.986],[-36.641,-9.982],[-36.628,-9.98],[-36.631,-9.969],[-36.625,-9.965],[-36.63,-9.952],[-36.613,-9.951],[-36.613,-9.936],[-36.613,-9.925],[-36.612,-9.914],[-36.614,-9.912],[-36.612,-9.905],[-36.603,-9.902],[-36.604,-9.876],[-36.604,-9.872],[-36.598,-9.872],[-36.592,-9.872],[-36.591,-9.878],[-36.584,-9.881],[-36.574,-9.877],[-36.573,-9.877],[-36.56,-9.874],[-36.541,-9.882],[-36.541,-9.871],[-36.55,-9.86],[-36.555,-9.851],[-36.555,-9.842],[-36.555,-9.839],[-36.529,-9.847]]]}},{"type":"Feature","properties":{"id":"2708907","nome":"Satuba"},"geometry":{"type":"Polygon","coordinates":[[[-35.809,-9.568],[-35.816,-9.577],[-35.825,-9.577],[-35.825,-9.582],[-35.83,-9.585],[-35.845,-9.606],[-35.852,-9.606],[-35.85,-9.612],[-35.852,-9.608],[-35.855,-9.61],[-35.856,-9.615],[-35.867,-9.626],[-35.868,-9.625],[-35.877,-9.601],[-35.88,-9.601],[-35.88,-9.597],[-35.887,-9.59],[-35.877,-9.564],[-35.835,-9.555],[-35.833,-9.553],[-35.83,-9.545],[-35.819,-9.543],[-35.818,-9.539],[-35.814,-9.537],[-35.797,-9.531],[-35.796,-9.531],[-35.809,-9.568]]]}},{"type":"Feature","properties":{"id":"2708956","nome":"Senador Rui Palmeira"},"geometry":{"type":"Polygon","coordinates":[[[-37.446,-9.471],[-37.445,-9.476],[-37.461,-9.471],[-37.513,-9.455],[-37.539,-9.446],[-37.572,-9.435],[-37.587,-9.43],[-37.616,-9.421],[-37.655,-9.408],[-37.654,-9.404],[-37.648,-9.401],[-37.646,-9.391],[-37.636,-9.376],[-37.618,-9.358],[-37.611,-9.338],[-37.592,-9.314],[-37.586,-9.296],[-37.578,-9.297],[-37.56,-9.305],[-37.519,-9.31],[-37.491,-9.337],[-37.484,-9.345],[-37.444,-9.357],[-37.421,-9.371],[-37.332,-9.424],[-37.351,-9.429],[-37.413,-9.444],[-37.45,-9.453],[-37.446,-9.471]]]}},{"type":"Feature","properties":{"id":"2709004","nome":"Tanque d'Arca"},"geometry":{"type":"Polygon","coordinates":[[[-36.392,-9.602],[-36.391,-9.605],[-36.388,-9.628],[-36.38,-9.635],[-36.394,-9.648],[-36.408,-9.636],[-36.405,-9.626],[-36.399,-9.624],[-36.401,-9.619],[-36.417,-9.611],[-36.433,-9.616],[-36.444,-9.606],[-36.448,-9.608],[-36.458,-9.616],[-36.473,-9.602],[-36.444,-9.586],[-36.445,-9.585],[-36.463,-9.572],[-36.465,-9.566],[-36.488,-9.502],[-36.48,-9.494],[-36.468,-9.485],[-36.451,-9.505],[-36.426,-9.507],[-36.397,-9.508],[-36.386,-9.509],[-36.384,-9.512],[-36.387,-9.516],[-36.379,-9.519],[-36.376,-9.528],[-36.383,-9.541],[-36.379,-9.568],[-36.379,-9.572],[-36.373,-9.573],[-36.369,-9.581],[-36.357,-9.585],[-36.35,-9.592],[-36.392,-9.602]]]}},{"type":"Feature","properties":{"id":"2709103","nome":"Taquarana"},"geometry":{"type":"Polygon","coordinates":[[[-36.473,-9.602],[-36.458,-9.616],[-36.448,-9.608],[-36.444,-9.606],[-36.433,-9.616],[-36.417,-9.611],[-36.401,-9.619],[-36.399,-9.624],[-36.405,-9.626],[-36.408,-9.636],[-36.394,-9.648],[-36.388,-9.651],[-36.407,-9.657],[-36.428,-9.663],[-36.434,-9.665],[-36.446,-9.668],[-36.465,-9.674],[-36.498,-9.687],[-36.508,-9.691],[-36.526,-9.688],[-36.533,-9.67],[-36.536,-9.663],[-36.541,-9.648],[-36.542,-9.641],[-36.543,-9.627],[-36.551,-9.62],[-36.556,-9.606],[-36.57,-9.565],[-36.574,-9.565],[-36.571,-9.561],[-36.566,-9.561],[-36.566,-9.555],[-36.559,-9.55],[-36.554,-9.541],[-36.544,-9.534],[-36.532,-9.532],[-36.504,-9.56],[-36.497,-9.584],[-36.492,-9.585],[-36.479,-9.594],[-36.473,-9.602]]]}},{"type":"Feature","properties":{"id":"2709152","nome":"Teot\u00f4nio Vilela"},"geometry":{"type":"Polygon","coordinates":[[[-36.281,-9.935],[-36.285,-9.967],[-36.291,-10.0],[-36.298,-10.012],[-36.305,-10.019],[-36.304,-10.031],[-36.305,-10.031],[-36.366,-10.034],[-36.417,-10.036],[-36.453,-10.038],[-36.455,-10.032],[-36.458,-10.029],[-36.471,-10.03],[-36.474,-10.027],[-36.483,-10.027],[-36.488,-10.019],[-36.484,-10.01],[-36.474,-9.997],[-36.472,-9.974],[-36.479,-9.961],[-36.47,-9.968],[-36.469,-9.971],[-36.462,-9.963],[-36.45,-9.961],[-36.413,-9.909],[-36.398,-9.888],[-36.396,-9.874],[-36.379,-9.876],[-36.354,-9.88],[-36.348,-9.881],[-36.313,-9.887],[-36.278,-9.892],[-36.281,-9.934],[-36.281,-9.935]]]}},{"type":"Feature","properties":{"id":"2709202","nome":"Traipu"},"geometry":{"type":"Polygon","coordinates":[[[-36.902,-9.793],[-36.903,-9.81],[-36.916,-9.817],[-36.919,-9.819],[-36.92,-9.842],[-36.921,-9.856],[-36.923,-9.882],[-36.91,-9.893],[-36.881,-9.902],[-36.849,-9.929],[-36.827,-9.929],[-36.829,-9.942],[-36.823,-9.95],[-36.811,-9.961],[-36.798,-9.959],[-36.799,-9.961],[-36.81,-9.983],[-36.827,-9.997],[-36.838,-10.001],[-36.843,-10.01],[-36.854,-10.022],[-36.863,-10.031],[-36.869,-10.047],[-36.942,-10.077],[-36.948,-10.074],[-36.952,-10.074],[-36.954,-10.071],[-36.959,-10.05],[-36.956,-10.023],[-36.957,-10.015],[-36.958,-10.014],[-36.958,-10.013],[-36.959,-10.011],[-36.967,-9.992],[-36.995,-9.975],[-37.005,-9.976],[-37.03,-9.986],[-37.044,-9.988],[-37.061,-9.978],[-37.062,-9.977],[-37.065,-9.975],[-37.075,-9.966],[-37.08,-9.961],[-37.132,-9.913],[-37.128,-9.908],[-37.134,-9.899],[-37.128,-9.9],[-37.125,-9.893],[-37.119,-9.891],[-37.119,-9.875],[-37.114,-9.869],[-37.108,-9.867],[-37.107,-9.855],[-37.103,-9.848],[-37.041,-9.808],[-37.035,-9.81],[-37.037,-9.805],[-37.032,-9.793],[-37.029,-9.788],[-37.022,-9.787],[-37.017,-9.775],[-37.011,-9.769],[-36.998,-9.763],[-36.999,-9.74],[-37.002,-9.733],[-36.993,-9.72],[-36.985,-9.715],[-36.985,-9.704],[-36.979,-9.701],[-36.976,-9.693],[-36.969,-9.694],[-36.9,-9.74],[-36.902,-9.772],[-36.902,-9.793]]]}},{"type":"Feature","properties":{"id":"2709301","nome":"Uni\u00e3o dos Palmares"},"geometry":{"type":"Polygon","coordinates":[[[-35.954,-9.031],[-35.945,-9.036],[-35.926,-9.032],[-35.919,-9.042],[-35.911,-9.042],[-35.903,-9.048],[-35.902,-9.059],[-35.889,-9.067],[-35.884,-9.067],[-35.879,-9.054],[-35.869,-9.055],[-35.86,-9.053],[-35.865,-9.069],[-35.883,-9.122],[-35.888,-9.138],[-35.942,-9.164],[-35.999,-9.189],[-36.031,-9.203],[-36.032,-9.203],[-36.058,-9.215],[-36.068,-9.205],[-36.08,-9.205],[-36.086,-9.201],[-36.093,-9.203],[-36.101,-9.207],[-36.108,-9.209],[-36.116,-9.207],[-36.127,-9.201],[-36.151,-9.207],[-36.165,-9.212],[-36.169,-9.21],[-36.18,-9.213],[-36.18,-9.212],[-36.172,-9.203],[-36.133,-9.158],[-36.129,-9.153],[-36.125,-9.125],[-36.124,-9.119],[-36.12,-9.093],[-36.119,-9.083],[-36.114,-9.056],[-36.09,-9.061],[-36.095,-9.067],[-36.093,-9.073],[-36.088,-9.067],[-36.074,-9.068],[-36.072,-9.061],[-36.059,-9.058],[-36.051,-9.058],[-36.049,-9.065],[-36.031,-9.056],[-36.024,-9.054],[-36.03,-9.048],[-36.027,-9.042],[-36.028,-9.038],[-36.03,-9.041],[-36.029,-9.037],[-36.024,-9.038],[-36.017,-9.046],[-36.004,-9.04],[-35.954,-9.031]]]}},{"type":"Feature","properties":{"id":"2709400","nome":"Vi\u00e7osa"},"geometry":{"type":"Polygon","coordinates":[[[-36.18,-9.213],[-36.182,-9.309],[-36.179,-9.344],[-36.179,-9.359],[-36.184,-9.376],[-36.201,-9.426],[-36.211,-9.453],[-36.266,-9.438],[-36.269,-9.437],[-36.302,-9.426],[-36.304,-9.43],[-36.31,-9.428],[-36.316,-9.432],[-36.321,-9.432],[-36.324,-9.441],[-36.329,-9.443],[-36.35,-9.448],[-36.348,-9.452],[-36.339,-9.464],[-36.389,-9.425],[-36.387,-9.417],[-36.374,-9.375],[-36.366,-9.384],[-36.362,-9.382],[-36.366,-9.378],[-36.366,-9.361],[-36.34,-9.286],[-36.332,-9.283],[-36.326,-9.284],[-36.322,-9.289],[-36.326,-9.295],[-36.316,-9.297],[-36.313,-9.302],[-36.301,-9.302],[-36.301,-9.308],[-36.297,-9.311],[-36.277,-9.305],[-36.258,-9.298],[-36.235,-9.289],[-36.18,-9.213]]]}}]}