{"type":"FeatureCollection","features":[{"type":"Feature","properties":{"id":"1600055","nome":"Serra do Navio"},"geometry":{"type":"Polygon","coordinates":[[[-52.044,2.438],[-52.021,2.435],[-52.015,2.437],[-52.019,2.427],[-52.027,2.428],[-52.042,2.422],[-52.045,2.405],[-52.04,2.398],[-52.038,2.39],[-52.042,2.386],[-52.039,2.378],[-52.038,2.342],[-52.044,2.334],[-52.043,2.324],[-52.053,2.303],[-52.059,2.298],[-52.065,2.285],[-52.065,2.266],[-52.045,2.251],[-52.036,2.233],[-52.04,2.213],[-52.044,2.211],[-52.04,2.192],[-52.038,2.155],[-52.034,2.156],[-52.034,2.148],[-52.03,2.144],[-52.029,2.121],[-52.009,2.09],[-52.012,2.08],[-52.01,2.067],[-52.002,2.06],[-52.005,2.049],[-51.997,2.039],[-52.006,2.02],[-52.004,2.012],[-52.01,2.007],[-52.009,2.001],[-52.021,1.985],[-52.015,1.982],[-52.023,1.968],[-52.019,1.919],[-52.03,1.91],[-52.035,1.888],[-52.044,1.884],[-52.046,1.878],[-52.055,1.873],[-52.065,1.859],[-52.06,1.859],[-52.056,1.851],[-52.054,1.824],[-52.057,1.819],[-52.054,1.811],[-52.06,1.796],[-52.057,1.793],[-52.054,1.795],[-52.056,1.784],[-52.051,1.775],[-52.058,1.756],[-52.054,1.75],[-52.057,1.743],[-52.051,1.727],[-52.052,1.715],[-52.057,1.704],[-52.054,1.684],[-52.047,1.679],[-52.05,1.668],[-52.048,1.661],[-52.037,1.656],[-52.034,1.641],[-52.027,1.642],[-52.023,1.631],[-52.026,1.613],[-52.034,1.589],[-52.043,1.583],[-52.041,1.575],[-52.044,1.568],[-52.039,1.555],[-52.041,1.547],[-52.04,1.518],[-52.031,1.515],[-52.031,1.507],[-52.022,1.5],[-52.029,1.486],[-52.04,1.484],[-52.041,1.478],[-52.032,1.476],[-52.027,1.471],[-52.028,1.466],[-52.034,1.465],[-52.035,1.46],[-52.043,1.458],[-52.041,1.453],[-52.046,1.447],[-52.043,1.429],[-52.037,1.422],[-52.044,1.412],[-52.04,1.41],[-52.032,1.393],[-52.006,1.375],[-52.01,1.363],[-52.009,1.346],[-52.014,1.335],[-52.012,1.329],[-52.0,1.328],[-51.989,1.323],[-51.986,1.323],[-51.981,1.317],[-51.986,1.293],[-52.001,1.286],[-52.0,1.281],[-52.004,1.277],[-51.997,1.261],[-51.999,1.235],[-51.99,1.232],[-51.988,1.235],[-51.983,1.23],[-52.004,1.214],[-52.009,1.19],[-52.003,1.183],[-51.988,1.18],[-51.987,1.176],[-51.995,1.169],[-51.994,1.163],[-51.98,1.159],[-51.995,1.15],[-51.993,1.139],[-51.981,1.134],[-51.986,1.122],[-51.981,1.111],[-51.981,1.093],[-51.987,1.078],[-51.98,1.07],[-51.99,1.059],[-51.986,1.053],[-51.955,1.059],[-51.953,1.052],[-51.94,1.04],[-51.931,1.049],[-51.925,1.048],[-51.922,1.055],[-51.927,1.057],[-51.929,1.063],[-51.922,1.071],[-51.911,1.066],[-51.914,1.058],[-51.906,1.046],[-51.898,1.043],[-51.889,1.056],[-51.883,1.053],[-51.887,1.04],[-51.874,1.035],[-51.868,1.039],[-51.86,1.035],[-51.858,1.026],[-51.844,1.04],[-51.837,1.034],[-51.838,1.023],[-51.83,1.011],[-51.818,1.005],[-51.815,0.983],[-51.817,0.976],[-51.826,0.977],[-51.84,0.97],[-51.845,0.957],[-51.915,0.936],[-51.926,0.916],[-51.925,0.905],[-51.935,0.894],[-51.933,0.883],[-51.944,0.854],[-51.955,0.851],[-51.967,0.842],[-51.977,0.851],[-51.995,0.857],[-52.007,0.869],[-52.014,0.857],[-52.026,0.854],[-52.05,0.866],[-52.058,0.878],[-52.048,0.891],[-52.039,0.895],[-52.048,0.906],[-52.049,0.918],[-52.045,0.931],[-52.047,0.939],[-52.04,0.952],[-52.033,0.956],[-52.031,0.975],[-52.027,0.985],[-52.031,0.997],[-52.034,1.0],[-52.042,0.997],[-52.084,1.005],[-52.1,1.0],[-52.109,0.987],[-52.114,0.986],[-52.128,0.998],[-52.145,1.005],[-52.165,0.996],[-52.163,1.011],[-52.175,1.012],[-52.195,1.005],[-52.198,1.012],[-52.199,1.024],[-52.207,1.024],[-52.21,1.033],[-52.201,1.04],[-52.204,1.05],[-52.197,1.058],[-52.199,1.063],[-52.21,1.069],[-52.225,1.056],[-52.247,1.055],[-52.26,1.064],[-52.276,1.065],[-52.284,1.075],[-52.284,1.081],[-52.297,1.106],[-52.309,1.116],[-52.311,1.133],[-52.324,1.138],[-52.329,1.135],[-52.336,1.144],[-52.345,1.143],[-52.352,1.139],[-52.358,1.141],[-52.364,1.158],[-52.359,1.162],[-52.359,1.167],[-52.368,1.171],[-52.369,1.18],[-52.36,1.197],[-52.369,1.201],[-52.376,1.198],[-52.388,1.206],[-52.384,1.212],[-52.383,1.222],[-52.387,1.222],[-52.39,1.216],[-52.397,1.223],[-52.407,1.224],[-52.413,1.231],[-52.408,1.233],[-52.411,1.238],[-52.418,1.241],[-52.447,1.264],[-52.454,1.264],[-52.448,1.271],[-52.448,1.28],[-52.453,1.284],[-52.463,1.279],[-52.495,1.285],[-52.488,1.299],[-52.481,1.304],[-52.478,1.316],[-52.479,1.327],[-52.465,1.334],[-52.465,1.343],[-52.451,1.369],[-52.471,1.392],[-52.476,1.388],[-52.478,1.39],[-52.472,1.406],[-52.469,1.402],[-52.466,1.403],[-52.471,1.418],[-52.459,1.435],[-52.461,1.439],[-52.471,1.44],[-52.469,1.446],[-52.473,1.457],[-52.48,1.459],[-52.483,1.454],[-52.486,1.459],[-52.48,1.469],[-52.479,1.48],[-52.486,1.482],[-52.488,1.5],[-52.494,1.507],[-52.494,1.517],[-52.498,1.523],[-52.493,1.529],[-52.482,1.533],[-52.496,1.542],[-52.494,1.546],[-52.505,1.557],[-52.506,1.563],[-52.498,1.567],[-52.495,1.574],[-52.483,1.577],[-52.493,1.592],[-52.491,1.605],[-52.498,1.603],[-52.502,1.606],[-52.504,1.622],[-52.519,1.621],[-52.522,1.623],[-52.523,1.633],[-52.516,1.641],[-52.521,1.65],[-52.526,1.648],[-52.53,1.654],[-52.539,1.659],[-52.55,1.675],[-52.549,1.683],[-52.559,1.684],[-52.56,1.693],[-52.553,1.699],[-52.562,1.702],[-52.556,1.714],[-52.559,1.721],[-52.572,1.73],[-52.574,1.738],[-52.578,1.738],[-52.578,1.732],[-52.59,1.732],[-52.596,1.743],[-52.616,1.768],[-52.623,1.771],[-52.628,1.778],[-52.635,1.78],[-52.64,1.788],[-52.642,1.783],[-52.651,1.785],[-52.66,1.802],[-52.668,1.803],[-52.662,1.808],[-52.667,1.82],[-52.678,1.825],[-52.678,1.828],[-52.685,1.829],[-52.685,1.835],[-52.693,1.839],[-52.7,1.832],[-52.711,1.839],[-52.722,1.851],[-52.726,1.851],[-52.73,1.863],[-52.736,1.869],[-52.74,1.868],[-52.74,1.861],[-52.756,1.867],[-52.771,1.888],[-52.787,1.926],[-52.781,1.934],[-52.784,1.943],[-52.781,1.951],[-52.793,1.968],[-52.795,1.977],[-52.811,1.981],[-52.837,2.004],[-52.854,2.013],[-52.867,2.025],[-52.859,2.04],[-52.854,2.041],[-52.845,2.035],[-52.837,2.037],[-52.828,2.052],[-52.831,2.058],[-52.828,2.067],[-52.837,2.066],[-52.838,2.069],[-52.836,2.079],[-52.829,2.084],[-52.81,2.084],[-52.796,2.072],[-52.785,2.076],[-52.774,2.073],[-52.768,2.078],[-52.76,2.078],[-52.757,2.068],[-52.729,2.073],[-52.715,2.063],[-52.698,2.067],[-52.691,2.063],[-52.681,2.07],[-52.678,2.065],[-52.682,2.054],[-52.668,2.057],[-52.656,2.045],[-52.65,2.052],[-52.645,2.051],[-52.634,2.033],[-52.616,2.025],[-52.61,2.01],[-52.599,2.009],[-52.591,2.004],[-52.588,2.006],[-52.591,2.015],[-52.574,2.019],[-52.565,2.017],[-52.558,2.022],[-52.552,2.01],[-52.545,2.015],[-52.534,2.015],[-52.53,2.022],[-52.522,2.027],[-52.511,2.029],[-52.499,2.041],[-52.485,2.038],[-52.471,2.04],[-52.464,2.036],[-52.458,2.037],[-52.457,2.042],[-52.439,2.045],[-52.425,2.035],[-52.418,2.038],[-52.412,2.03],[-52.407,2.036],[-52.412,2.057],[-52.41,2.076],[-52.416,2.08],[-52.414,2.088],[-52.41,2.093],[-52.399,2.1],[-52.392,2.1],[-52.375,2.115],[-52.371,2.119],[-52.363,2.121],[-52.355,2.142],[-52.347,2.14],[-52.34,2.153],[-52.334,2.156],[-52.319,2.159],[-52.303,2.155],[-52.291,2.159],[-52.275,2.158],[-52.252,2.169],[-52.244,2.192],[-52.236,2.192],[-52.223,2.185],[-52.22,2.186],[-52.222,2.192],[-52.231,2.202],[-52.243,2.201],[-52.247,2.209],[-52.243,2.227],[-52.248,2.242],[-52.237,2.251],[-52.231,2.264],[-52.224,2.265],[-52.215,2.26],[-52.205,2.266],[-52.195,2.26],[-52.189,2.28],[-52.181,2.276],[-52.18,2.279],[-52.184,2.291],[-52.175,2.303],[-52.16,2.298],[-52.151,2.303],[-52.151,2.32],[-52.133,2.33],[-52.124,2.351],[-52.119,2.355],[-52.124,2.375],[-52.119,2.383],[-52.111,2.385],[-52.119,2.394],[-52.113,2.401],[-52.095,2.399],[-52.091,2.41],[-52.072,2.395],[-52.059,2.392],[-52.051,2.402],[-52.044,2.438]]]}},{"type":"Feature","properties":{"id":"1600105","nome":"Amap\u00e1"},"geometry":{"type":"Polygon","coordinates":[[[-50.522,2.209],[-50.484,2.203],[-50.456,2.204],[-50.446,2.2],[-50.443,2.19],[-50.438,2.194],[-50.432,2.189],[-50.422,2.18],[-50.412,2.16],[-50.385,2.125],[-50.386,2.119],[-50.378,2.116],[-50.372,2.101],[-50.366,2.102],[-50.352,2.087],[-50.35,2.078],[-50.355,2.066],[-50.349,2.063],[-50.345,2.054],[-50.347,2.051],[-50.337,2.036],[-50.333,2.02],[-50.317,2.008],[-50.312,1.978],[-50.306,1.972],[-50.3,1.959],[-50.273,1.888],[-50.238,1.804],[-50.169,1.815],[-50.105,1.792],[-50.091,1.792],[-50.056,1.775],[-50.033,1.771],[-50.003,1.754],[-49.921,1.704],[-49.915,1.696],[-49.913,1.688],[-49.917,1.677],[-49.922,1.675],[-49.908,1.67],[-49.897,1.632],[-49.889,1.541],[-49.876,1.481],[-49.878,1.464],[-49.876,1.451],[-49.884,1.402],[-49.881,1.39],[-49.896,1.332],[-49.91,1.297],[-49.906,1.274],[-49.955,1.237],[-49.983,1.224],[-50.068,1.209],[-50.105,1.208],[-50.127,1.214],[-50.134,1.222],[-50.137,1.233],[-50.128,1.306],[-50.131,1.323],[-50.137,1.331],[-50.145,1.335],[-50.167,1.328],[-50.212,1.334],[-50.25,1.326],[-50.274,1.315],[-50.288,1.298],[-50.296,1.266],[-50.293,1.254],[-50.278,1.229],[-50.275,1.209],[-50.281,1.194],[-50.3,1.173],[-50.329,1.16],[-50.344,1.158],[-50.365,1.161],[-50.386,1.184],[-50.415,1.179],[-50.424,1.189],[-50.416,1.198],[-50.419,1.224],[-50.434,1.238],[-50.553,1.461],[-50.56,1.473],[-50.557,1.482],[-50.536,1.491],[-50.535,1.498],[-50.542,1.502],[-50.542,1.506],[-50.528,1.514],[-50.538,1.524],[-50.54,1.53],[-50.536,1.548],[-50.543,1.569],[-50.539,1.591],[-50.549,1.607],[-50.547,1.619],[-50.553,1.627],[-50.55,1.648],[-50.552,1.65],[-50.56,1.65],[-50.567,1.653],[-50.579,1.678],[-50.58,1.687],[-50.573,1.694],[-50.567,1.711],[-50.584,1.733],[-50.598,1.733],[-50.599,1.741],[-50.609,1.736],[-50.615,1.742],[-50.614,1.763],[-50.632,1.795],[-50.635,1.812],[-50.642,1.823],[-50.64,1.83],[-50.692,1.83],[-50.702,1.827],[-50.711,1.816],[-50.72,1.815],[-50.727,1.816],[-50.744,1.83],[-50.752,1.828],[-50.759,1.826],[-50.763,1.835],[-50.771,1.839],[-50.775,1.829],[-50.767,1.823],[-50.769,1.818],[-50.779,1.815],[-50.781,1.805],[-50.778,1.792],[-50.788,1.797],[-50.794,1.789],[-50.8,1.789],[-50.806,1.781],[-50.811,1.782],[-50.81,1.789],[-50.8,1.791],[-50.798,1.797],[-50.812,1.812],[-50.819,1.809],[-50.833,1.817],[-50.838,1.817],[-50.845,1.826],[-50.853,1.827],[-50.855,1.83],[-50.859,1.828],[-50.868,1.83],[-50.875,1.823],[-50.88,1.827],[-50.882,1.829],[-50.91,1.823],[-50.925,1.83],[-50.935,1.831],[-50.944,1.828],[-50.96,1.834],[-50.966,1.839],[-50.981,1.84],[-50.991,1.839],[-51.003,1.851],[-51.011,1.851],[-51.034,1.869],[-51.042,1.864],[-51.055,1.867],[-51.063,1.858],[-51.072,1.856],[-51.079,1.859],[-51.097,1.853],[-51.1,1.848],[-51.108,1.85],[-51.114,1.845],[-51.117,1.854],[-51.135,1.865],[-51.138,1.873],[-51.15,1.876],[-51.152,1.885],[-51.167,1.892],[-51.182,1.892],[-51.196,1.883],[-51.21,1.889],[-51.235,1.874],[-51.246,1.884],[-51.262,1.894],[-51.271,1.897],[-51.285,1.895],[-51.302,1.872],[-51.297,1.865],[-51.317,1.866],[-51.332,1.854],[-51.337,1.857],[-51.343,1.856],[-51.361,1.848],[-51.366,1.851],[-51.372,1.85],[-51.373,1.845],[-51.367,1.842],[-51.366,1.825],[-51.368,1.817],[-51.381,1.806],[-51.382,1.795],[-51.404,1.784],[-51.421,1.766],[-51.428,1.768],[-51.436,1.764],[-51.441,1.756],[-51.446,1.756],[-51.448,1.774],[-51.467,1.791],[-51.482,1.811],[-51.507,1.831],[-51.521,1.838],[-51.532,1.851],[-51.562,1.856],[-51.573,1.867],[-51.58,1.867],[-51.586,1.88],[-51.593,1.885],[-51.606,1.882],[-51.627,1.884],[-51.647,1.877],[-51.648,1.889],[-51.642,1.919],[-51.657,1.94],[-51.66,1.949],[-51.645,1.967],[-51.643,1.981],[-51.644,1.993],[-51.63,1.995],[-51.611,2.011],[-51.589,2.02],[-51.601,2.049],[-51.597,2.065],[-51.583,2.08],[-51.581,2.09],[-51.583,2.096],[-51.577,2.109],[-51.57,2.115],[-51.525,2.04],[-51.504,2.027],[-51.494,2.024],[-51.475,2.031],[-51.467,2.041],[-51.469,2.048],[-51.465,2.054],[-51.446,2.065],[-51.433,2.056],[-51.427,2.055],[-51.421,2.048],[-51.41,2.044],[-51.394,2.022],[-51.374,2.019],[-51.353,2.03],[-51.343,2.031],[-51.34,2.04],[-51.318,2.055],[-51.314,2.063],[-51.3,2.066],[-51.288,2.077],[-51.247,2.097],[-51.246,2.1],[-51.249,2.104],[-51.246,2.107],[-51.239,2.106],[-51.236,2.118],[-51.228,2.125],[-51.219,2.119],[-51.203,2.12],[-51.2,2.126],[-51.185,2.137],[-51.175,2.138],[-51.163,2.151],[-51.134,2.15],[-51.121,2.163],[-51.094,2.164],[-51.092,2.174],[-51.078,2.179],[-51.068,2.173],[-51.062,2.176],[-51.056,2.169],[-51.045,2.171],[-51.037,2.162],[-51.026,2.165],[-51.005,2.154],[-51.001,2.156],[-51.0,2.148],[-50.988,2.144],[-50.985,2.148],[-50.985,2.159],[-50.976,2.169],[-50.973,2.166],[-50.964,2.172],[-50.962,2.171],[-50.965,2.163],[-50.95,2.17],[-50.949,2.163],[-50.939,2.157],[-50.93,2.16],[-50.929,2.165],[-50.924,2.168],[-50.925,2.16],[-50.916,2.149],[-50.899,2.153],[-50.89,2.16],[-50.883,2.16],[-50.88,2.168],[-50.873,2.165],[-50.864,2.166],[-50.871,2.158],[-50.869,2.149],[-50.853,2.157],[-50.861,2.141],[-50.844,2.139],[-50.837,2.154],[-50.828,2.155],[-50.831,2.167],[-50.814,2.171],[-50.818,2.175],[-50.815,2.177],[-50.8,2.176],[-50.795,2.169],[-50.788,2.17],[-50.788,2.159],[-50.779,2.157],[-50.778,2.148],[-50.751,2.12],[-50.746,2.119],[-50.741,2.124],[-50.738,2.146],[-50.729,2.145],[-50.716,2.134],[-50.702,2.139],[-50.665,2.151],[-50.601,2.18],[-50.579,2.189],[-50.522,2.209]]]}},{"type":"Feature","properties":{"id":"1600154","nome":"Pedra Branca do Amapari"},"geometry":{"type":"Polygon","coordinates":[[[-52.784,1.943],[-52.781,1.934],[-52.787,1.926],[-52.771,1.888],[-52.756,1.867],[-52.74,1.861],[-52.74,1.868],[-52.736,1.869],[-52.73,1.863],[-52.726,1.851],[-52.722,1.851],[-52.711,1.839],[-52.7,1.832],[-52.693,1.839],[-52.685,1.835],[-52.685,1.829],[-52.678,1.828],[-52.678,1.825],[-52.667,1.82],[-52.662,1.808],[-52.668,1.803],[-52.66,1.802],[-52.651,1.785],[-52.642,1.783],[-52.64,1.788],[-52.635,1.78],[-52.628,1.778],[-52.623,1.771],[-52.616,1.768],[-52.596,1.743],[-52.59,1.732],[-52.578,1.732],[-52.578,1.738],[-52.574,1.738],[-52.572,1.73],[-52.559,1.721],[-52.556,1.714],[-52.562,1.702],[-52.553,1.699],[-52.56,1.693],[-52.559,1.684],[-52.549,1.683],[-52.55,1.675],[-52.539,1.659],[-52.53,1.654],[-52.526,1.648],[-52.521,1.65],[-52.516,1.641],[-52.523,1.633],[-52.522,1.623],[-52.519,1.621],[-52.504,1.622],[-52.502,1.606],[-52.498,1.603],[-52.491,1.605],[-52.493,1.592],[-52.483,1.577],[-52.495,1.574],[-52.498,1.567],[-52.506,1.563],[-52.505,1.557],[-52.494,1.546],[-52.496,1.542],[-52.482,1.533],[-52.493,1.529],[-52.498,1.523],[-52.494,1.517],[-52.494,1.507],[-52.488,1.5],[-52.486,1.482],[-52.479,1.48],[-52.48,1.469],[-52.486,1.459],[-52.483,1.454],[-52.48,1.459],[-52.473,1.457],[-52.469,1.446],[-52.471,1.44],[-52.461,1.439],[-52.459,1.435],[-52.471,1.418],[-52.466,1.403],[-52.469,1.402],[-52.472,1.406],[-52.478,1.39],[-52.476,1.388],[-52.471,1.392],[-52.451,1.369],[-52.465,1.343],[-52.465,1.334],[-52.479,1.327],[-52.478,1.316],[-52.481,1.304],[-52.488,1.299],[-52.495,1.285],[-52.463,1.279],[-52.453,1.284],[-52.448,1.28],[-52.448,1.271],[-52.454,1.264],[-52.447,1.264],[-52.418,1.241],[-52.411,1.238],[-52.408,1.233],[-52.413,1.231],[-52.407,1.224],[-52.397,1.223],[-52.39,1.216],[-52.387,1.222],[-52.383,1.222],[-52.384,1.212],[-52.388,1.206],[-52.376,1.198],[-52.369,1.201],[-52.36,1.197],[-52.369,1.18],[-52.368,1.171],[-52.359,1.167],[-52.359,1.162],[-52.364,1.158],[-52.358,1.141],[-52.352,1.139],[-52.345,1.143],[-52.336,1.144],[-52.329,1.135],[-52.324,1.138],[-52.311,1.133],[-52.309,1.116],[-52.297,1.106],[-52.284,1.081],[-52.284,1.075],[-52.276,1.065],[-52.26,1.064],[-52.247,1.055],[-52.225,1.056],[-52.21,1.069],[-52.199,1.063],[-52.197,1.058],[-52.204,1.05],[-52.201,1.04],[-52.21,1.033],[-52.207,1.024],[-52.199,1.024],[-52.198,1.012],[-52.195,1.005],[-52.175,1.012],[-52.163,1.011],[-52.165,0.996],[-52.145,1.005],[-52.128,0.998],[-52.114,0.986],[-52.109,0.987],[-52.1,1.0],[-52.084,1.005],[-52.042,0.997],[-52.034,1.0],[-52.031,0.997],[-52.027,0.985],[-52.031,0.975],[-52.033,0.956],[-52.04,0.952],[-52.047,0.939],[-52.045,0.931],[-52.049,0.918],[-52.048,0.906],[-52.039,0.895],[-52.048,0.891],[-52.058,0.878],[-52.05,0.866],[-52.026,0.854],[-52.014,0.857],[-52.007,0.869],[-51.995,0.857],[-51.977,0.851],[-51.967,0.842],[-51.955,0.851],[-51.944,0.854],[-51.933,0.883],[-51.935,0.894],[-51.925,0.905],[-51.926,0.916],[-51.915,0.936],[-51.845,0.957],[-51.84,0.97],[-51.826,0.977],[-51.817,0.976],[-51.813,0.972],[-51.802,0.974],[-51.797,0.996],[-51.786,0.994],[-51.787,0.986],[-51.78,0.983],[-51.778,0.969],[-51.788,0.965],[-51.801,0.965],[-51.799,0.957],[-51.809,0.952],[-51.807,0.946],[-51.81,0.942],[-51.827,0.93],[-51.837,0.932],[-51.84,0.922],[-51.832,0.916],[-51.839,0.904],[-51.836,0.9],[-51.822,0.894],[-51.821,0.886],[-51.81,0.885],[-51.803,0.874],[-51.794,0.874],[-51.793,0.858],[-51.772,0.832],[-51.769,0.824],[-51.771,0.813],[-51.753,0.8],[-51.75,0.782],[-51.747,0.777],[-51.751,0.77],[-51.735,0.765],[-51.725,0.75],[-51.72,0.735],[-51.712,0.727],[-51.705,0.705],[-51.706,0.696],[-51.721,0.686],[-51.724,0.674],[-51.73,0.667],[-51.723,0.652],[-51.737,0.625],[-51.756,0.618],[-51.759,0.625],[-51.753,0.654],[-51.754,0.66],[-51.766,0.664],[-51.783,0.649],[-51.788,0.649],[-51.8,0.664],[-51.797,0.681],[-51.803,0.695],[-51.815,0.692],[-51.826,0.683],[-51.843,0.681],[-51.853,0.673],[-51.878,0.708],[-51.885,0.701],[-51.897,0.699],[-51.922,0.701],[-51.93,0.696],[-51.952,0.699],[-51.963,0.693],[-51.982,0.697],[-52.019,0.693],[-52.019,0.689],[-52.033,0.683],[-52.049,0.67],[-52.07,0.663],[-52.089,0.662],[-52.09,0.674],[-52.102,0.674],[-52.108,0.661],[-52.104,0.649],[-52.114,0.641],[-52.115,0.634],[-52.12,0.633],[-52.129,0.64],[-52.134,0.64],[-52.14,0.636],[-52.146,0.641],[-52.164,0.645],[-52.165,0.641],[-52.17,0.638],[-52.179,0.641],[-52.177,0.636],[-52.184,0.629],[-52.184,0.618],[-52.198,0.6],[-52.21,0.596],[-52.226,0.602],[-52.235,0.596],[-52.244,0.579],[-52.255,0.566],[-52.257,0.548],[-52.27,0.528],[-52.27,0.522],[-52.291,0.504],[-52.309,0.5],[-52.314,0.477],[-52.32,0.47],[-52.321,0.465],[-52.329,0.452],[-52.349,0.442],[-52.348,0.433],[-52.365,0.449],[-52.376,0.452],[-52.386,0.468],[-52.384,0.485],[-52.393,0.485],[-52.397,0.492],[-52.395,0.499],[-52.411,0.504],[-52.416,0.511],[-52.417,0.526],[-52.414,0.549],[-52.438,0.57],[-52.461,0.574],[-52.466,0.583],[-52.467,0.593],[-52.47,0.604],[-52.48,0.617],[-52.481,0.632],[-52.49,0.639],[-52.503,0.643],[-52.506,0.648],[-52.498,0.66],[-52.501,0.673],[-52.505,0.678],[-52.519,0.684],[-52.524,0.693],[-52.533,0.698],[-52.546,0.721],[-52.568,0.725],[-52.577,0.739],[-52.583,0.742],[-52.61,0.739],[-52.614,0.741],[-52.62,0.762],[-52.632,0.775],[-52.644,0.777],[-52.654,0.786],[-52.661,0.792],[-52.665,0.806],[-52.66,0.83],[-52.663,0.834],[-52.675,0.827],[-52.679,0.829],[-52.698,0.825],[-52.722,0.827],[-52.726,0.821],[-52.737,0.816],[-52.747,0.817],[-52.755,0.826],[-52.756,0.833],[-52.748,0.856],[-52.761,0.861],[-52.772,0.876],[-52.782,0.879],[-52.789,0.886],[-52.797,0.88],[-52.807,0.88],[-52.816,0.874],[-52.823,0.876],[-52.824,0.885],[-52.836,0.898],[-52.837,0.905],[-52.824,0.931],[-52.824,0.957],[-52.83,0.96],[-52.838,0.951],[-52.846,0.952],[-52.866,0.967],[-52.877,0.996],[-52.871,1.012],[-52.879,1.041],[-52.891,1.052],[-52.891,1.081],[-52.894,1.089],[-52.912,1.097],[-52.937,1.12],[-52.955,1.125],[-52.961,1.129],[-52.972,1.206],[-52.957,1.262],[-52.953,1.266],[-52.932,1.265],[-52.928,1.271],[-52.927,1.283],[-52.93,1.299],[-52.928,1.318],[-52.917,1.337],[-52.914,1.358],[-52.89,1.389],[-52.877,1.428],[-52.869,1.442],[-52.871,1.465],[-52.865,1.5],[-52.863,1.514],[-52.867,1.534],[-52.879,1.548],[-52.888,1.553],[-52.915,1.56],[-52.929,1.559],[-52.936,1.555],[-52.952,1.555],[-52.967,1.561],[-52.977,1.574],[-52.981,1.592],[-52.99,1.608],[-52.994,1.627],[-52.989,1.668],[-52.98,1.692],[-52.971,1.701],[-52.971,1.711],[-52.988,1.754],[-53.004,1.763],[-53.012,1.784],[-53.008,1.801],[-52.999,1.808],[-52.995,1.82],[-53.012,1.84],[-53.024,1.849],[-53.027,1.875],[-53.041,1.898],[-53.042,1.908],[-53.052,1.914],[-53.059,1.934],[-53.058,1.947],[-53.047,1.972],[-53.041,1.977],[-53.025,1.981],[-53.008,1.979],[-52.999,1.955],[-52.994,1.952],[-52.961,1.951],[-52.946,1.945],[-52.929,1.95],[-52.921,1.942],[-52.919,1.948],[-52.914,1.949],[-52.911,1.956],[-52.9,1.963],[-52.907,1.992],[-52.903,2.0],[-52.908,2.009],[-52.904,2.009],[-52.903,2.017],[-52.889,2.032],[-52.867,2.025],[-52.854,2.013],[-52.837,2.004],[-52.811,1.981],[-52.795,1.977],[-52.793,1.968],[-52.781,1.951],[-52.784,1.943]]]}},{"type":"Feature","properties":{"id":"1600204","nome":"Cal\u00e7oene"},"geometry":{"type":"Polygon","coordinates":[[[-51.071,3.492],[-51.079,3.46],[-51.083,3.46],[-51.089,3.454],[-51.09,3.447],[-51.087,3.392],[-51.08,3.37],[-51.022,3.208],[-51.026,3.185],[-51.034,3.175],[-51.031,3.156],[-51.035,3.137],[-51.027,3.117],[-51.007,3.094],[-51.006,3.08],[-51.012,3.066],[-51.014,3.046],[-51.0,3.018],[-50.988,3.004],[-50.984,2.975],[-50.988,2.961],[-50.981,2.937],[-50.971,2.926],[-50.962,2.906],[-50.944,2.885],[-50.942,2.855],[-50.947,2.836],[-50.941,2.815],[-50.942,2.804],[-50.927,2.809],[-50.908,2.801],[-50.902,2.795],[-50.9,2.786],[-50.905,2.774],[-50.903,2.757],[-50.891,2.752],[-50.881,2.742],[-50.882,2.686],[-50.868,2.68],[-50.853,2.66],[-50.85,2.644],[-50.841,2.639],[-50.841,2.602],[-50.846,2.594],[-50.843,2.594],[-50.842,2.586],[-50.835,2.575],[-50.831,2.534],[-50.837,2.509],[-50.852,2.504],[-50.854,2.491],[-50.852,2.486],[-50.851,2.495],[-50.844,2.498],[-50.836,2.493],[-50.815,2.509],[-50.806,2.51],[-50.791,2.501],[-50.784,2.488],[-50.783,2.477],[-50.775,2.468],[-50.764,2.448],[-50.764,2.426],[-50.77,2.412],[-50.761,2.398],[-50.756,2.381],[-50.76,2.366],[-50.75,2.36],[-50.743,2.342],[-50.742,2.312],[-50.734,2.303],[-50.722,2.277],[-50.724,2.257],[-50.722,2.238],[-50.715,2.238],[-50.708,2.231],[-50.693,2.209],[-50.686,2.189],[-50.682,2.173],[-50.683,2.155],[-50.688,2.148],[-50.702,2.144],[-50.702,2.139],[-50.716,2.134],[-50.729,2.145],[-50.738,2.146],[-50.741,2.124],[-50.746,2.119],[-50.751,2.12],[-50.778,2.148],[-50.779,2.157],[-50.788,2.159],[-50.788,2.17],[-50.795,2.169],[-50.8,2.176],[-50.815,2.177],[-50.818,2.175],[-50.814,2.171],[-50.831,2.167],[-50.828,2.155],[-50.837,2.154],[-50.844,2.139],[-50.861,2.141],[-50.853,2.157],[-50.869,2.149],[-50.871,2.158],[-50.864,2.166],[-50.873,2.165],[-50.88,2.168],[-50.883,2.16],[-50.89,2.16],[-50.899,2.153],[-50.916,2.149],[-50.925,2.16],[-50.924,2.168],[-50.929,2.165],[-50.93,2.16],[-50.939,2.157],[-50.949,2.163],[-50.95,2.17],[-50.965,2.163],[-50.962,2.171],[-50.964,2.172],[-50.973,2.166],[-50.976,2.169],[-50.985,2.159],[-50.985,2.148],[-50.988,2.144],[-51.0,2.148],[-51.001,2.156],[-51.005,2.154],[-51.026,2.165],[-51.037,2.162],[-51.045,2.171],[-51.056,2.169],[-51.062,2.176],[-51.068,2.173],[-51.078,2.179],[-51.092,2.174],[-51.094,2.164],[-51.121,2.163],[-51.134,2.15],[-51.163,2.151],[-51.175,2.138],[-51.185,2.137],[-51.2,2.126],[-51.203,2.12],[-51.219,2.119],[-51.228,2.125],[-51.236,2.118],[-51.239,2.106],[-51.246,2.107],[-51.249,2.104],[-51.246,2.1],[-51.247,2.097],[-51.288,2.077],[-51.3,2.066],[-51.314,2.063],[-51.318,2.055],[-51.34,2.04],[-51.343,2.031],[-51.353,2.03],[-51.374,2.019],[-51.394,2.022],[-51.41,2.044],[-51.421,2.048],[-51.427,2.055],[-51.433,2.056],[-51.446,2.065],[-51.465,2.054],[-51.469,2.048],[-51.467,2.041],[-51.475,2.031],[-51.494,2.024],[-51.504,2.027],[-51.525,2.04],[-51.57,2.115],[-51.577,2.109],[-51.583,2.096],[-51.581,2.09],[-51.583,2.08],[-51.597,2.065],[-51.601,2.049],[-51.589,2.02],[-51.611,2.011],[-51.63,1.995],[-51.644,1.993],[-51.643,1.981],[-51.645,1.967],[-51.66,1.949],[-51.657,1.94],[-51.642,1.919],[-51.648,1.889],[-51.647,1.877],[-51.654,1.861],[-51.661,1.828],[-51.681,1.804],[-51.687,1.786],[-51.693,1.749],[-51.704,1.732],[-51.705,1.715],[-51.7,1.705],[-51.707,1.687],[-51.705,1.674],[-51.711,1.672],[-51.712,1.647],[-51.72,1.637],[-51.719,1.62],[-51.733,1.599],[-51.732,1.596],[-51.739,1.589],[-51.75,1.589],[-51.762,1.58],[-51.764,1.574],[-51.77,1.576],[-51.78,1.573],[-51.792,1.546],[-51.8,1.537],[-51.82,1.525],[-51.839,1.5],[-51.852,1.492],[-51.858,1.473],[-51.866,1.468],[-51.868,1.443],[-51.874,1.442],[-51.879,1.432],[-51.886,1.43],[-51.887,1.424],[-51.897,1.42],[-51.892,1.417],[-51.907,1.409],[-51.91,1.411],[-51.912,1.4],[-51.926,1.391],[-51.952,1.4],[-51.957,1.389],[-51.965,1.386],[-51.963,1.382],[-51.967,1.38],[-51.971,1.369],[-51.968,1.364],[-51.972,1.337],[-51.989,1.323],[-52.0,1.328],[-52.012,1.329],[-52.014,1.335],[-52.009,1.346],[-52.01,1.363],[-52.006,1.375],[-52.032,1.393],[-52.04,1.41],[-52.044,1.412],[-52.037,1.422],[-52.043,1.429],[-52.046,1.447],[-52.041,1.453],[-52.043,1.458],[-52.035,1.46],[-52.034,1.465],[-52.028,1.466],[-52.027,1.471],[-52.032,1.476],[-52.041,1.478],[-52.04,1.484],[-52.029,1.486],[-52.022,1.5],[-52.031,1.507],[-52.031,1.515],[-52.04,1.518],[-52.041,1.547],[-52.039,1.555],[-52.044,1.568],[-52.041,1.575],[-52.043,1.583],[-52.034,1.589],[-52.026,1.613],[-52.023,1.631],[-52.027,1.642],[-52.034,1.641],[-52.037,1.656],[-52.048,1.661],[-52.05,1.668],[-52.047,1.679],[-52.054,1.684],[-52.057,1.704],[-52.052,1.715],[-52.051,1.727],[-52.057,1.743],[-52.054,1.75],[-52.058,1.756],[-52.051,1.775],[-52.056,1.784],[-52.054,1.795],[-52.057,1.793],[-52.06,1.796],[-52.054,1.811],[-52.057,1.819],[-52.054,1.824],[-52.056,1.851],[-52.06,1.859],[-52.065,1.859],[-52.055,1.873],[-52.046,1.878],[-52.044,1.884],[-52.035,1.888],[-52.03,1.91],[-52.019,1.919],[-52.023,1.968],[-52.015,1.982],[-52.021,1.985],[-52.009,2.001],[-52.01,2.007],[-52.004,2.012],[-52.006,2.02],[-51.997,2.039],[-52.005,2.049],[-52.002,2.06],[-52.01,2.067],[-52.012,2.08],[-52.009,2.09],[-52.029,2.121],[-52.03,2.144],[-52.034,2.148],[-52.034,2.156],[-52.038,2.155],[-52.04,2.192],[-52.044,2.211],[-52.04,2.213],[-52.036,2.233],[-52.045,2.251],[-52.065,2.266],[-52.065,2.285],[-52.059,2.298],[-52.053,2.303],[-52.043,2.324],[-52.044,2.334],[-52.038,2.342],[-52.039,2.378],[-52.042,2.386],[-52.038,2.39],[-52.04,2.398],[-52.045,2.405],[-52.042,2.422],[-52.027,2.428],[-52.019,2.427],[-52.015,2.437],[-52.01,2.44],[-52.004,2.434],[-51.995,2.431],[-51.994,2.425],[-51.998,2.422],[-51.999,2.425],[-52.003,2.421],[-51.995,2.406],[-51.984,2.416],[-51.957,2.409],[-51.95,2.379],[-51.94,2.379],[-51.938,2.372],[-51.934,2.37],[-51.927,2.376],[-51.924,2.368],[-51.915,2.356],[-51.896,2.357],[-51.893,2.345],[-51.889,2.341],[-51.869,2.347],[-51.864,2.354],[-51.862,2.359],[-51.851,2.366],[-51.855,2.382],[-51.863,2.387],[-51.863,2.394],[-51.852,2.396],[-51.846,2.396],[-51.821,2.372],[-51.806,2.376],[-51.801,2.387],[-51.797,2.389],[-51.782,2.379],[-51.772,2.379],[-51.761,2.39],[-51.752,2.403],[-51.753,2.411],[-51.747,2.417],[-51.748,2.424],[-51.73,2.433],[-51.721,2.451],[-51.716,2.452],[-51.703,2.466],[-51.69,2.488],[-51.685,2.5],[-51.691,2.501],[-51.689,2.516],[-51.683,2.526],[-51.68,2.53],[-51.673,2.529],[-51.67,2.534],[-51.657,2.535],[-51.648,2.547],[-51.647,2.561],[-51.643,2.562],[-51.642,2.57],[-51.647,2.58],[-51.651,2.582],[-51.637,2.602],[-51.635,2.619],[-51.626,2.62],[-51.623,2.632],[-51.614,2.637],[-51.605,2.65],[-51.598,2.654],[-51.598,2.662],[-51.592,2.675],[-51.581,2.677],[-51.578,2.687],[-51.57,2.696],[-51.565,2.694],[-51.563,2.699],[-51.557,2.704],[-51.554,2.72],[-51.548,2.725],[-51.547,2.736],[-51.54,2.748],[-51.529,2.759],[-51.528,2.767],[-51.522,2.772],[-51.525,2.777],[-51.514,2.78],[-51.518,2.788],[-51.512,2.796],[-51.513,2.804],[-51.52,2.824],[-51.514,2.823],[-51.512,2.827],[-51.479,2.839],[-51.476,2.847],[-51.472,2.848],[-51.473,2.854],[-51.456,2.86],[-51.468,2.865],[-51.462,2.873],[-51.452,2.87],[-51.442,2.875],[-51.444,2.88],[-51.434,2.886],[-51.438,2.896],[-51.436,2.906],[-51.431,2.906],[-51.422,2.915],[-51.429,2.924],[-51.427,2.929],[-51.436,2.931],[-51.438,2.937],[-51.423,2.946],[-51.42,2.956],[-51.399,2.983],[-51.402,2.991],[-51.387,3.007],[-51.388,3.015],[-51.393,3.013],[-51.397,3.017],[-51.396,3.023],[-51.39,3.023],[-51.385,3.028],[-51.364,3.021],[-51.366,3.028],[-51.376,3.032],[-51.357,3.053],[-51.336,3.057],[-51.321,3.067],[-51.322,3.073],[-51.317,3.079],[-51.304,3.071],[-51.303,3.077],[-51.292,3.083],[-51.284,3.097],[-51.288,3.124],[-51.268,3.119],[-51.255,3.122],[-51.241,3.137],[-51.237,3.147],[-51.228,3.153],[-51.225,3.161],[-51.24,3.153],[-51.246,3.161],[-51.242,3.168],[-51.25,3.176],[-51.243,3.182],[-51.251,3.192],[-51.241,3.203],[-51.237,3.209],[-51.24,3.216],[-51.238,3.218],[-51.23,3.21],[-51.229,3.198],[-51.22,3.203],[-51.217,3.211],[-51.223,3.217],[-51.206,3.226],[-51.192,3.23],[-51.186,3.236],[-51.181,3.273],[-51.172,3.294],[-51.171,3.306],[-51.171,3.34],[-51.177,3.353],[-51.177,3.37],[-51.184,3.401],[-51.193,3.406],[-51.194,3.437],[-51.186,3.47],[-51.183,3.539],[-51.188,3.628],[-51.197,3.667],[-51.189,3.724],[-51.177,3.772],[-51.166,3.936],[-51.123,3.911],[-51.094,3.91],[-51.081,3.9],[-51.083,3.898],[-51.081,3.893],[-51.075,3.891],[-51.074,3.851],[-51.079,3.832],[-51.08,3.784],[-51.084,3.773],[-51.082,3.762],[-51.085,3.75],[-51.084,3.732],[-51.089,3.723],[-51.09,3.706],[-51.09,3.68],[-51.082,3.633],[-51.071,3.492]]]}},{"type":"Feature","properties":{"id":"1600212","nome":"Cutias"},"geometry":{"type":"Polygon","coordinates":[[[-50.137,1.331],[-50.131,1.323],[-50.128,1.306],[-50.137,1.233],[-50.134,1.222],[-50.127,1.214],[-50.105,1.208],[-50.068,1.209],[-50.071,1.19],[-50.08,1.186],[-50.083,1.181],[-50.08,1.172],[-50.085,1.159],[-50.095,1.153],[-50.105,1.14],[-50.116,1.14],[-50.13,1.132],[-50.134,1.128],[-50.138,1.109],[-50.143,1.102],[-50.17,1.099],[-50.188,1.066],[-50.185,1.051],[-50.233,1.01],[-50.308,0.944],[-50.314,0.944],[-50.322,0.942],[-50.336,0.923],[-50.354,0.933],[-50.357,0.939],[-50.365,0.936],[-50.363,0.93],[-50.373,0.924],[-50.383,0.922],[-50.384,0.931],[-50.404,0.923],[-50.415,0.937],[-50.414,0.945],[-50.423,0.953],[-50.431,0.947],[-50.438,0.926],[-50.444,0.928],[-50.463,0.917],[-50.477,0.924],[-50.496,0.923],[-50.502,0.918],[-50.496,0.911],[-50.501,0.903],[-50.513,0.892],[-50.515,0.885],[-50.522,0.876],[-50.529,0.874],[-50.532,0.866],[-50.545,0.87],[-50.55,0.87],[-50.552,0.865],[-50.555,0.865],[-50.567,0.873],[-50.566,0.88],[-50.575,0.882],[-50.573,0.872],[-50.578,0.862],[-50.585,0.857],[-50.59,0.858],[-50.594,0.862],[-50.592,0.866],[-50.596,0.882],[-50.604,0.891],[-50.609,0.889],[-50.606,0.883],[-50.608,0.863],[-50.612,0.864],[-50.613,0.868],[-50.624,0.87],[-50.63,0.863],[-50.636,0.864],[-50.636,0.879],[-50.637,0.872],[-50.645,0.877],[-50.646,0.873],[-50.651,0.872],[-50.654,0.871],[-50.66,0.85],[-50.66,0.842],[-50.672,0.836],[-50.692,0.821],[-50.707,0.815],[-50.733,0.817],[-50.744,0.824],[-50.753,0.822],[-50.758,0.82],[-50.773,0.826],[-50.784,0.84],[-50.797,0.848],[-50.829,0.824],[-50.848,0.819],[-50.871,0.804],[-50.886,0.798],[-50.916,0.804],[-50.951,0.829],[-50.951,0.859],[-50.947,0.873],[-50.934,0.89],[-50.924,0.895],[-50.92,0.893],[-50.912,0.906],[-50.909,0.926],[-50.918,0.941],[-50.913,0.959],[-50.91,0.965],[-50.898,0.971],[-50.886,0.993],[-50.876,0.986],[-50.868,0.961],[-50.856,0.954],[-50.821,0.958],[-50.811,0.964],[-50.802,0.975],[-50.807,0.997],[-50.802,1.01],[-50.796,1.019],[-50.786,1.025],[-50.753,1.03],[-50.74,1.035],[-50.716,1.032],[-50.683,1.05],[-50.674,1.046],[-50.664,1.036],[-50.656,1.021],[-50.648,1.016],[-50.632,1.016],[-50.623,1.019],[-50.619,1.03],[-50.63,1.05],[-50.633,1.064],[-50.622,1.078],[-50.596,1.085],[-50.585,1.081],[-50.574,1.064],[-50.561,1.069],[-50.553,1.08],[-50.546,1.082],[-50.528,1.061],[-50.526,1.036],[-50.521,1.032],[-50.513,1.032],[-50.476,1.057],[-50.454,1.085],[-50.451,1.102],[-50.456,1.124],[-50.455,1.138],[-50.451,1.145],[-50.437,1.16],[-50.415,1.179],[-50.386,1.184],[-50.365,1.161],[-50.344,1.158],[-50.329,1.16],[-50.3,1.173],[-50.281,1.194],[-50.275,1.209],[-50.278,1.229],[-50.293,1.254],[-50.296,1.266],[-50.288,1.298],[-50.274,1.315],[-50.25,1.326],[-50.212,1.334],[-50.167,1.328],[-50.145,1.335],[-50.137,1.331]]]}},{"type":"Feature","properties":{"id":"1600238","nome":"Ferreira Gomes"},"geometry":{"type":"Polygon","coordinates":[[[-51.392,1.275],[-51.398,1.27],[-51.404,1.271],[-51.42,1.267],[-51.424,1.258],[-51.431,1.257],[-51.431,1.252],[-51.442,1.247],[-51.435,1.241],[-51.434,1.214],[-51.428,1.207],[-51.429,1.194],[-51.439,1.188],[-51.439,1.164],[-51.443,1.152],[-51.441,1.144],[-51.449,1.132],[-51.446,1.127],[-51.451,1.111],[-51.456,1.112],[-51.466,1.107],[-51.478,1.088],[-51.46,1.069],[-51.425,1.063],[-51.407,1.057],[-51.404,1.051],[-51.416,1.011],[-51.416,0.994],[-51.406,0.987],[-51.399,0.976],[-51.385,0.966],[-51.378,0.953],[-51.37,0.946],[-51.365,0.948],[-51.36,0.958],[-51.35,0.964],[-51.343,0.98],[-51.331,0.978],[-51.308,0.983],[-51.29,0.974],[-51.28,0.977],[-51.272,0.974],[-51.257,0.973],[-51.248,0.977],[-51.245,0.964],[-51.239,0.953],[-51.236,0.953],[-51.229,0.959],[-51.228,0.971],[-51.217,0.987],[-51.203,0.995],[-51.196,1.011],[-51.186,1.028],[-51.181,1.031],[-51.181,1.035],[-51.174,1.037],[-51.155,1.031],[-51.146,1.031],[-51.124,1.011],[-51.119,1.011],[-51.097,1.021],[-51.076,1.025],[-51.062,1.02],[-51.052,1.02],[-51.045,1.011],[-51.029,1.006],[-51.031,0.991],[-51.013,0.988],[-51.021,0.978],[-51.011,0.966],[-51.014,0.961],[-51.007,0.96],[-51.007,0.955],[-51.01,0.954],[-51.007,0.946],[-51.003,0.945],[-51.003,0.947],[-50.996,0.943],[-50.997,0.935],[-50.994,0.934],[-50.99,0.945],[-50.982,0.954],[-50.983,0.97],[-50.976,0.978],[-50.957,0.979],[-50.939,0.992],[-50.926,0.988],[-50.886,0.993],[-50.898,0.971],[-50.91,0.965],[-50.913,0.959],[-50.918,0.941],[-50.909,0.926],[-50.912,0.906],[-50.92,0.893],[-50.924,0.895],[-50.934,0.89],[-50.947,0.873],[-50.951,0.859],[-50.951,0.829],[-50.916,0.804],[-50.886,0.798],[-50.886,0.769],[-50.901,0.778],[-50.911,0.763],[-50.912,0.756],[-50.9,0.734],[-50.909,0.722],[-50.977,0.694],[-50.983,0.686],[-50.984,0.677],[-50.991,0.67],[-50.997,0.644],[-50.993,0.639],[-50.987,0.615],[-50.988,0.603],[-50.997,0.593],[-50.997,0.582],[-50.989,0.573],[-50.984,0.557],[-50.977,0.558],[-50.97,0.548],[-50.965,0.549],[-50.966,0.545],[-50.961,0.538],[-50.954,0.539],[-50.953,0.532],[-50.928,0.519],[-50.927,0.51],[-50.938,0.501],[-50.965,0.504],[-50.98,0.501],[-50.998,0.503],[-51.009,0.487],[-51.012,0.465],[-51.029,0.465],[-51.027,0.436],[-51.036,0.438],[-51.044,0.433],[-51.04,0.443],[-51.057,0.457],[-51.074,0.462],[-51.08,0.477],[-51.093,0.477],[-51.102,0.484],[-51.131,0.524],[-51.125,0.541],[-51.143,0.55],[-51.153,0.576],[-51.17,0.578],[-51.199,0.595],[-51.202,0.601],[-51.257,0.611],[-51.267,0.621],[-51.28,0.628],[-51.318,0.637],[-51.358,0.651],[-51.37,0.683],[-51.377,0.687],[-51.368,0.697],[-51.364,0.717],[-51.343,0.733],[-51.361,0.777],[-51.37,0.777],[-51.376,0.77],[-51.377,0.763],[-51.371,0.755],[-51.375,0.744],[-51.386,0.736],[-51.393,0.737],[-51.4,0.732],[-51.431,0.745],[-51.442,0.76],[-51.46,0.763],[-51.476,0.787],[-51.487,0.793],[-51.496,0.813],[-51.497,0.833],[-51.506,0.861],[-51.503,0.874],[-51.512,0.882],[-51.524,0.878],[-51.537,0.878],[-51.537,0.874],[-51.541,0.874],[-51.549,0.866],[-51.585,0.847],[-51.602,0.847],[-51.609,0.841],[-51.611,0.834],[-51.616,0.835],[-51.626,0.864],[-51.625,0.873],[-51.62,0.878],[-51.609,0.88],[-51.603,0.885],[-51.601,0.907],[-51.592,0.913],[-51.593,0.919],[-51.612,0.93],[-51.618,0.94],[-51.635,0.951],[-51.643,0.951],[-51.65,0.957],[-51.659,0.956],[-51.669,0.979],[-51.663,0.984],[-51.674,1.01],[-51.684,1.011],[-51.688,1.005],[-51.691,0.98],[-51.699,0.974],[-51.703,0.977],[-51.704,0.987],[-51.714,0.993],[-51.756,0.97],[-51.758,0.974],[-51.754,0.981],[-51.755,0.988],[-51.766,0.987],[-51.779,0.997],[-51.786,0.994],[-51.797,0.996],[-51.802,0.974],[-51.813,0.972],[-51.817,0.976],[-51.815,0.983],[-51.818,1.005],[-51.83,1.011],[-51.838,1.023],[-51.837,1.034],[-51.844,1.04],[-51.858,1.026],[-51.86,1.035],[-51.868,1.039],[-51.874,1.035],[-51.887,1.04],[-51.883,1.053],[-51.889,1.056],[-51.898,1.043],[-51.906,1.046],[-51.914,1.058],[-51.911,1.066],[-51.922,1.071],[-51.929,1.063],[-51.927,1.057],[-51.922,1.055],[-51.925,1.048],[-51.931,1.049],[-51.94,1.04],[-51.953,1.052],[-51.955,1.059],[-51.986,1.053],[-51.99,1.059],[-51.98,1.07],[-51.987,1.078],[-51.981,1.093],[-51.981,1.111],[-51.986,1.122],[-51.981,1.134],[-51.993,1.139],[-51.995,1.15],[-51.98,1.159],[-51.994,1.163],[-51.995,1.169],[-51.987,1.176],[-51.988,1.18],[-52.003,1.183],[-52.009,1.19],[-52.004,1.214],[-51.983,1.23],[-51.988,1.235],[-51.99,1.232],[-51.999,1.235],[-51.997,1.261],[-52.004,1.277],[-52.0,1.281],[-52.001,1.286],[-51.986,1.293],[-51.981,1.317],[-51.986,1.323],[-51.382,1.323],[-51.389,1.297],[-51.396,1.285],[-51.391,1.279],[-51.392,1.275]]]}},{"type":"Feature","properties":{"id":"1600253","nome":"Itaubal"},"geometry":{"type":"Polygon","coordinates":[[[-50.571,0.765],[-50.557,0.761],[-50.545,0.761],[-50.532,0.756],[-50.528,0.749],[-50.526,0.752],[-50.519,0.749],[-50.517,0.754],[-50.514,0.748],[-50.508,0.75],[-50.495,0.746],[-50.495,0.741],[-50.504,0.735],[-50.485,0.726],[-50.48,0.727],[-50.48,0.72],[-50.456,0.722],[-50.457,0.711],[-50.436,0.688],[-50.438,0.67],[-50.443,0.658],[-50.409,0.624],[-50.436,0.6],[-50.452,0.571],[-50.467,0.531],[-50.476,0.482],[-50.486,0.459],[-50.504,0.435],[-50.523,0.373],[-50.556,0.307],[-50.599,0.25],[-50.623,0.232],[-50.644,0.209],[-50.709,0.277],[-50.709,0.282],[-50.716,0.279],[-50.719,0.286],[-50.723,0.299],[-50.727,0.301],[-50.73,0.296],[-50.731,0.306],[-50.723,0.309],[-50.722,0.318],[-50.717,0.323],[-50.711,0.318],[-50.705,0.323],[-50.7,0.32],[-50.692,0.336],[-50.698,0.343],[-50.695,0.353],[-50.691,0.353],[-50.698,0.364],[-50.703,0.363],[-50.709,0.368],[-50.721,0.37],[-50.723,0.365],[-50.729,0.368],[-50.722,0.377],[-50.711,0.383],[-50.703,0.383],[-50.694,0.397],[-50.703,0.395],[-50.704,0.4],[-50.697,0.402],[-50.704,0.407],[-50.706,0.401],[-50.721,0.406],[-50.712,0.419],[-50.719,0.417],[-50.71,0.423],[-50.716,0.426],[-50.719,0.422],[-50.723,0.423],[-50.723,0.437],[-50.733,0.432],[-50.736,0.438],[-50.732,0.445],[-50.736,0.444],[-50.736,0.447],[-50.744,0.453],[-50.743,0.464],[-50.749,0.468],[-50.753,0.468],[-50.753,0.464],[-50.759,0.464],[-50.766,0.478],[-50.766,0.49],[-50.761,0.494],[-50.761,0.498],[-50.771,0.497],[-50.771,0.505],[-50.775,0.511],[-50.774,0.522],[-50.778,0.525],[-50.78,0.532],[-50.789,0.532],[-50.793,0.531],[-50.801,0.522],[-50.804,0.524],[-50.809,0.521],[-50.826,0.52],[-50.828,0.529],[-50.839,0.541],[-50.863,0.542],[-50.863,0.548],[-50.859,0.556],[-50.881,0.569],[-50.897,0.569],[-50.908,0.563],[-50.914,0.554],[-50.923,0.555],[-50.932,0.567],[-50.926,0.573],[-50.928,0.592],[-50.936,0.612],[-50.936,0.627],[-50.939,0.632],[-50.944,0.634],[-50.948,0.644],[-50.956,0.647],[-50.963,0.662],[-50.97,0.667],[-50.948,0.667],[-50.938,0.682],[-50.913,0.674],[-50.895,0.708],[-50.871,0.75],[-50.854,0.747],[-50.84,0.742],[-50.83,0.731],[-50.825,0.72],[-50.818,0.717],[-50.813,0.707],[-50.805,0.705],[-50.792,0.691],[-50.786,0.678],[-50.778,0.675],[-50.777,0.667],[-50.782,0.665],[-50.778,0.663],[-50.772,0.659],[-50.774,0.656],[-50.765,0.653],[-50.762,0.646],[-50.758,0.645],[-50.753,0.636],[-50.737,0.632],[-50.732,0.637],[-50.721,0.633],[-50.707,0.598],[-50.701,0.606],[-50.691,0.605],[-50.686,0.611],[-50.688,0.619],[-50.682,0.62],[-50.676,0.619],[-50.676,0.606],[-50.673,0.601],[-50.666,0.599],[-50.667,0.59],[-50.662,0.582],[-50.651,0.589],[-50.651,0.593],[-50.656,0.596],[-50.648,0.605],[-50.647,0.613],[-50.637,0.617],[-50.63,0.625],[-50.631,0.643],[-50.627,0.663],[-50.63,0.68],[-50.626,0.684],[-50.62,0.685],[-50.618,0.692],[-50.618,0.697],[-50.625,0.698],[-50.62,0.741],[-50.617,0.746],[-50.607,0.747],[-50.596,0.74],[-50.582,0.736],[-50.583,0.728],[-50.58,0.727],[-50.568,0.741],[-50.569,0.747],[-50.573,0.745],[-50.574,0.751],[-50.568,0.76],[-50.572,0.761],[-50.571,0.765]]]}},{"type":"Feature","properties":{"id":"1600279","nome":"Laranjal do Jari"},"geometry":{"type":"Polygon","coordinates":[[[-54.692,2.362],[-54.662,2.327],[-54.601,2.337],[-54.436,2.21],[-54.189,2.179],[-54.138,2.193],[-53.999,2.232],[-53.99,2.238],[-53.974,2.233],[-53.967,2.243],[-53.952,2.246],[-53.945,2.241],[-53.942,2.243],[-53.942,2.253],[-53.935,2.26],[-53.942,2.278],[-53.936,2.287],[-53.94,2.291],[-53.936,2.297],[-53.929,2.291],[-53.916,2.291],[-53.916,2.278],[-53.907,2.274],[-53.898,2.288],[-53.892,2.284],[-53.889,2.287],[-53.892,2.291],[-53.887,2.299],[-53.889,2.307],[-53.883,2.317],[-53.871,2.317],[-53.865,2.312],[-53.859,2.32],[-53.852,2.311],[-53.842,2.308],[-53.824,2.318],[-53.814,2.317],[-53.82,2.33],[-53.831,2.328],[-53.837,2.334],[-53.835,2.34],[-53.814,2.343],[-53.811,2.357],[-53.805,2.358],[-53.799,2.365],[-53.79,2.365],[-53.784,2.373],[-53.773,2.374],[-53.772,2.377],[-53.767,2.379],[-53.758,2.375],[-53.741,2.375],[-53.739,2.373],[-53.743,2.367],[-53.753,2.364],[-53.744,2.359],[-53.738,2.363],[-53.728,2.351],[-53.723,2.354],[-53.73,2.341],[-53.739,2.336],[-53.736,2.324],[-53.74,2.325],[-53.75,2.32],[-53.748,2.313],[-53.732,2.309],[-53.727,2.315],[-53.707,2.309],[-53.695,2.313],[-53.686,2.295],[-53.68,2.297],[-53.682,2.302],[-53.663,2.306],[-53.661,2.3],[-53.653,2.303],[-53.656,2.285],[-53.635,2.282],[-53.626,2.285],[-53.615,2.279],[-53.612,2.287],[-53.601,2.286],[-53.584,2.269],[-53.578,2.273],[-53.567,2.272],[-53.549,2.259],[-53.531,2.258],[-53.52,2.267],[-53.509,2.262],[-53.495,2.261],[-53.485,2.265],[-53.473,2.257],[-53.455,2.265],[-53.455,2.274],[-53.465,2.277],[-53.469,2.289],[-53.461,2.291],[-53.44,2.281],[-53.433,2.288],[-53.421,2.29],[-53.415,2.297],[-53.405,2.298],[-53.398,2.309],[-53.385,2.309],[-53.377,2.318],[-53.367,2.321],[-53.36,2.334],[-53.36,2.35],[-53.348,2.355],[-53.338,2.354],[-53.333,2.345],[-53.323,2.347],[-53.317,2.34],[-53.315,2.327],[-53.306,2.316],[-53.294,2.309],[-53.282,2.31],[-53.277,2.299],[-53.262,2.291],[-53.262,2.277],[-53.245,2.273],[-53.234,2.276],[-53.229,2.263],[-53.253,2.247],[-53.259,2.253],[-53.263,2.229],[-53.267,2.224],[-53.279,2.224],[-53.277,2.222],[-53.28,2.205],[-53.287,2.197],[-53.285,2.193],[-53.279,2.186],[-53.269,2.171],[-53.234,2.144],[-53.217,2.136],[-53.202,2.134],[-53.192,2.126],[-53.176,2.121],[-53.166,2.112],[-53.139,2.101],[-53.135,2.092],[-53.138,2.067],[-53.133,2.019],[-53.116,2.007],[-53.11,1.981],[-53.09,1.976],[-53.073,1.945],[-53.067,1.943],[-53.058,1.947],[-53.059,1.934],[-53.052,1.914],[-53.042,1.908],[-53.041,1.898],[-53.027,1.875],[-53.024,1.849],[-53.012,1.84],[-52.995,1.82],[-52.999,1.808],[-53.008,1.801],[-53.012,1.784],[-53.004,1.763],[-52.988,1.754],[-52.971,1.711],[-52.971,1.701],[-52.98,1.692],[-52.989,1.668],[-52.994,1.627],[-52.99,1.608],[-52.981,1.592],[-52.977,1.574],[-52.967,1.561],[-52.952,1.555],[-52.936,1.555],[-52.929,1.559],[-52.915,1.56],[-52.888,1.553],[-52.879,1.548],[-52.867,1.534],[-52.863,1.514],[-52.865,1.5],[-52.871,1.465],[-52.869,1.442],[-52.877,1.428],[-52.89,1.389],[-52.914,1.358],[-52.917,1.337],[-52.928,1.318],[-52.93,1.299],[-52.927,1.283],[-52.928,1.271],[-52.932,1.265],[-52.953,1.266],[-52.957,1.262],[-52.972,1.206],[-52.961,1.129],[-52.955,1.125],[-52.937,1.12],[-52.912,1.097],[-52.894,1.089],[-52.891,1.081],[-52.891,1.052],[-52.879,1.041],[-52.871,1.012],[-52.877,0.996],[-52.866,0.967],[-52.846,0.952],[-52.838,0.951],[-52.83,0.96],[-52.824,0.957],[-52.824,0.931],[-52.837,0.905],[-52.836,0.898],[-52.824,0.885],[-52.823,0.876],[-52.816,0.874],[-52.807,0.88],[-52.797,0.88],[-52.789,0.886],[-52.782,0.879],[-52.772,0.876],[-52.761,0.861],[-52.748,0.856],[-52.756,0.833],[-52.755,0.826],[-52.747,0.817],[-52.737,0.816],[-52.726,0.808],[-52.7,0.802],[-52.669,0.787],[-52.663,0.757],[-52.655,0.744],[-52.659,0.737],[-52.658,0.711],[-52.663,0.7],[-52.667,0.668],[-52.665,0.626],[-52.661,0.617],[-52.665,0.601],[-52.658,0.594],[-52.658,0.588],[-52.656,0.588],[-52.647,0.564],[-52.632,0.54],[-52.622,0.532],[-52.61,0.527],[-52.595,0.502],[-52.589,0.499],[-52.588,0.485],[-52.577,0.468],[-52.572,0.467],[-52.571,0.452],[-52.584,0.44],[-52.583,0.437],[-52.576,0.438],[-52.571,0.418],[-52.569,0.418],[-52.566,0.409],[-52.571,0.391],[-52.57,0.383],[-52.564,0.377],[-52.556,0.378],[-52.56,0.369],[-52.558,0.364],[-52.551,0.364],[-52.539,0.356],[-52.535,0.344],[-52.533,0.346],[-52.513,0.318],[-52.509,0.317],[-52.496,0.298],[-52.494,0.281],[-52.486,0.277],[-52.484,0.271],[-52.49,0.269],[-52.487,0.26],[-52.489,0.255],[-52.494,0.258],[-52.497,0.254],[-52.495,0.245],[-52.499,0.237],[-52.486,0.227],[-52.486,0.218],[-52.498,0.22],[-52.486,0.194],[-52.488,0.182],[-52.492,0.18],[-52.495,0.172],[-52.492,0.158],[-52.494,0.145],[-52.504,0.138],[-52.5,0.135],[-52.498,0.12],[-52.502,0.115],[-52.502,0.105],[-52.506,0.1],[-52.499,0.088],[-52.502,0.081],[-52.512,0.073],[-52.508,0.069],[-52.512,0.062],[-52.501,0.053],[-52.508,0.051],[-52.514,0.043],[-52.504,0.038],[-52.503,0.034],[-52.511,0.018],[-52.503,0.008],[-52.506,0.004],[-52.503,-0.007],[-52.508,-0.019],[-52.523,-0.019],[-52.528,-0.027],[-52.527,-0.041],[-52.53,-0.043],[-52.535,-0.067],[-52.531,-0.07],[-52.532,-0.081],[-52.546,-0.097],[-52.554,-0.092],[-52.559,-0.096],[-52.559,-0.099],[-52.548,-0.11],[-52.551,-0.11],[-52.558,-0.117],[-52.555,-0.136],[-52.557,-0.143],[-52.549,-0.14],[-52.547,-0.144],[-52.535,-0.145],[-52.535,-0.149],[-52.532,-0.15],[-52.528,-0.143],[-52.521,-0.14],[-52.498,-0.114],[-52.462,-0.106],[-52.436,-0.107],[-52.413,-0.116],[-52.408,-0.121],[-52.388,-0.126],[-52.376,-0.134],[-52.359,-0.142],[-52.332,-0.146],[-52.321,-0.154],[-52.311,-0.169],[-52.297,-0.202],[-52.285,-0.216],[-52.284,-0.219],[-52.274,-0.228],[-52.272,-0.234],[-52.242,-0.259],[-52.197,-0.256],[-52.184,-0.262],[-52.176,-0.27],[-52.128,-0.287],[-52.108,-0.312],[-52.09,-0.326],[-52.082,-0.338],[-52.084,-0.401],[-52.082,-0.408],[-52.083,-0.432],[-52.08,-0.437],[-52.082,-0.447],[-52.075,-0.462],[-52.067,-0.465],[-52.063,-0.482],[-52.075,-0.507],[-52.082,-0.513],[-52.075,-0.52],[-52.077,-0.527],[-52.072,-0.529],[-52.076,-0.541],[-52.074,-0.55],[-52.082,-0.556],[-52.084,-0.564],[-52.061,-0.569],[-52.061,-0.598],[-52.056,-0.606],[-52.057,-0.615],[-52.054,-0.622],[-52.055,-0.642],[-52.045,-0.646],[-52.039,-0.658],[-52.033,-0.661],[-52.017,-0.687],[-52.006,-0.683],[-51.985,-0.69],[-51.98,-0.703],[-51.98,-0.725],[-51.972,-0.735],[-51.969,-0.748],[-51.96,-0.747],[-51.951,-0.755],[-51.948,-0.752],[-51.942,-0.761],[-51.938,-0.771],[-51.943,-0.774],[-51.947,-0.801],[-51.941,-0.799],[-51.94,-0.81],[-51.95,-0.834],[-51.956,-0.837],[-51.958,-0.847],[-51.954,-0.859],[-51.945,-0.861],[-51.94,-0.872],[-51.945,-0.873],[-51.964,-0.865],[-51.966,-0.869],[-51.971,-0.867],[-51.984,-0.872],[-51.982,-0.875],[-51.986,-0.879],[-51.994,-0.88],[-51.995,-0.884],[-52.002,-0.888],[-52.018,-0.894],[-52.026,-0.891],[-52.037,-0.902],[-52.051,-0.904],[-52.062,-0.913],[-52.074,-0.913],[-52.08,-0.916],[-52.088,-0.909],[-52.103,-0.914],[-52.119,-0.916],[-52.129,-0.913],[-52.139,-0.916],[-52.145,-0.915],[-52.171,-0.889],[-52.171,-0.881],[-52.178,-0.875],[-52.179,-0.868],[-52.191,-0.855],[-52.191,-0.845],[-52.199,-0.838],[-52.222,-0.835],[-52.244,-0.815],[-52.251,-0.815],[-52.265,-0.806],[-52.275,-0.804],[-52.279,-0.803],[-52.326,-0.797],[-52.343,-0.798],[-52.351,-0.802],[-52.368,-0.797],[-52.376,-0.802],[-52.383,-0.81],[-52.397,-0.806],[-52.455,-0.83],[-52.468,-0.841],[-52.496,-0.849],[-52.516,-0.858],[-52.528,-0.859],[-52.538,-0.854],[-52.535,-0.842],[-52.517,-0.821],[-52.509,-0.813],[-52.521,-0.801],[-52.522,-0.791],[-52.521,-0.785],[-52.501,-0.746],[-52.497,-0.73],[-52.497,-0.711],[-52.501,-0.692],[-52.51,-0.679],[-52.512,-0.665],[-52.515,-0.663],[-52.511,-0.657],[-52.511,-0.64],[-52.513,-0.619],[-52.523,-0.589],[-52.535,-0.574],[-52.569,-0.576],[-52.593,-0.581],[-52.613,-0.595],[-52.629,-0.593],[-52.64,-0.585],[-52.667,-0.544],[-52.669,-0.538],[-52.667,-0.525],[-52.673,-0.519],[-52.681,-0.516],[-52.695,-0.496],[-52.691,-0.477],[-52.702,-0.459],[-52.693,-0.442],[-52.684,-0.434],[-52.679,-0.423],[-52.681,-0.415],[-52.698,-0.387],[-52.695,-0.372],[-52.681,-0.34],[-52.684,-0.314],[-52.688,-0.304],[-52.7,-0.292],[-52.716,-0.292],[-52.74,-0.276],[-52.754,-0.262],[-52.758,-0.239],[-52.836,-0.186],[-52.844,-0.159],[-52.855,-0.148],[-52.876,-0.142],[-52.897,-0.154],[-52.904,-0.155],[-52.932,-0.142],[-52.96,-0.063],[-52.971,-0.043],[-52.976,-0.007],[-52.977,0.024],[-52.985,0.036],[-53.003,0.044],[-53.015,0.06],[-53.011,0.095],[-53.029,0.105],[-53.036,0.12],[-53.039,0.136],[-53.052,0.158],[-53.07,0.17],[-53.083,0.189],[-53.094,0.196],[-53.106,0.232],[-53.094,0.263],[-53.111,0.287],[-53.134,0.301],[-53.138,0.331],[-53.151,0.352],[-53.16,0.357],[-53.174,0.375],[-53.175,0.382],[-53.159,0.403],[-53.159,0.421],[-53.167,0.446],[-53.155,0.481],[-53.159,0.489],[-53.169,0.494],[-53.159,0.514],[-53.162,0.523],[-53.152,0.532],[-53.148,0.542],[-53.148,0.552],[-53.154,0.564],[-53.147,0.601],[-53.122,0.63],[-53.115,0.649],[-53.115,0.657],[-53.105,0.68],[-53.106,0.684],[-53.116,0.692],[-53.124,0.698],[-53.139,0.693],[-53.146,0.7],[-53.151,0.72],[-53.157,0.729],[-53.184,0.748],[-53.19,0.769],[-53.202,0.776],[-53.207,0.774],[-53.214,0.786],[-53.255,0.81],[-53.274,0.825],[-53.287,0.846],[-53.302,0.859],[-53.354,0.889],[-53.361,0.896],[-53.411,0.93],[-53.413,0.948],[-53.41,0.957],[-53.41,0.982],[-53.417,0.99],[-53.426,0.993],[-53.428,1.012],[-53.429,1.02],[-53.421,1.029],[-53.422,1.034],[-53.427,1.044],[-53.434,1.048],[-53.435,1.06],[-53.452,1.072],[-53.455,1.078],[-53.459,1.134],[-53.453,1.144],[-53.439,1.154],[-53.421,1.148],[-53.404,1.152],[-53.399,1.159],[-53.396,1.18],[-53.403,1.194],[-53.417,1.203],[-53.425,1.222],[-53.426,1.243],[-53.43,1.244],[-53.433,1.235],[-53.438,1.232],[-53.473,1.24],[-53.493,1.227],[-53.533,1.211],[-53.539,1.213],[-53.546,1.229],[-53.53,1.246],[-53.523,1.262],[-53.53,1.274],[-53.552,1.281],[-53.556,1.285],[-53.562,1.307],[-53.561,1.311],[-53.54,1.317],[-53.533,1.323],[-53.542,1.345],[-53.548,1.349],[-53.563,1.35],[-53.565,1.34],[-53.57,1.338],[-53.595,1.358],[-53.633,1.348],[-53.641,1.335],[-53.65,1.337],[-53.663,1.35],[-53.649,1.357],[-53.643,1.364],[-53.645,1.381],[-53.64,1.389],[-53.641,1.399],[-53.646,1.408],[-53.655,1.407],[-53.66,1.4],[-53.664,1.376],[-53.67,1.372],[-53.68,1.373],[-53.683,1.385],[-53.687,1.386],[-53.701,1.378],[-53.711,1.384],[-53.713,1.397],[-53.695,1.418],[-53.696,1.423],[-53.717,1.432],[-53.724,1.429],[-53.716,1.418],[-53.715,1.406],[-53.731,1.396],[-53.732,1.387],[-53.755,1.395],[-53.762,1.409],[-53.768,1.396],[-53.774,1.397],[-53.783,1.403],[-53.791,1.417],[-53.804,1.424],[-53.82,1.42],[-53.822,1.414],[-53.807,1.402],[-53.805,1.398],[-53.807,1.392],[-53.823,1.39],[-53.83,1.394],[-53.85,1.392],[-53.852,1.394],[-53.851,1.399],[-53.841,1.402],[-53.844,1.407],[-53.855,1.402],[-53.876,1.408],[-53.882,1.401],[-53.887,1.408],[-53.876,1.436],[-53.88,1.441],[-53.893,1.444],[-53.896,1.455],[-53.917,1.457],[-53.922,1.443],[-53.938,1.436],[-53.94,1.444],[-53.93,1.45],[-53.93,1.458],[-53.925,1.466],[-53.928,1.47],[-53.935,1.467],[-53.943,1.472],[-53.954,1.468],[-53.955,1.48],[-53.967,1.485],[-53.976,1.473],[-53.986,1.479],[-53.997,1.476],[-54.003,1.49],[-53.999,1.505],[-54.009,1.52],[-54.02,1.516],[-54.027,1.517],[-54.021,1.507],[-54.024,1.5],[-54.04,1.506],[-54.055,1.494],[-54.062,1.495],[-54.069,1.501],[-54.079,1.495],[-54.077,1.486],[-54.086,1.489],[-54.088,1.492],[-54.085,1.506],[-54.089,1.514],[-54.084,1.527],[-54.098,1.551],[-54.114,1.552],[-54.117,1.559],[-54.11,1.575],[-54.101,1.585],[-54.102,1.591],[-54.118,1.582],[-54.122,1.591],[-54.128,1.592],[-54.131,1.597],[-54.122,1.602],[-54.123,1.608],[-54.133,1.617],[-54.129,1.624],[-54.142,1.629],[-54.143,1.641],[-54.146,1.644],[-54.152,1.64],[-54.168,1.644],[-54.176,1.648],[-54.178,1.658],[-54.182,1.658],[-54.186,1.645],[-54.187,1.628],[-54.191,1.625],[-54.197,1.632],[-54.202,1.649],[-54.228,1.666],[-54.23,1.676],[-54.244,1.676],[-54.249,1.684],[-54.263,1.68],[-54.262,1.689],[-54.269,1.695],[-54.265,1.696],[-54.269,1.705],[-54.266,1.708],[-54.274,1.711],[-54.28,1.708],[-54.292,1.709],[-54.282,1.717],[-54.281,1.724],[-54.289,1.721],[-54.293,1.726],[-54.3,1.724],[-54.305,1.73],[-54.309,1.73],[-54.313,1.734],[-54.305,1.737],[-54.309,1.741],[-54.316,1.737],[-54.323,1.738],[-54.329,1.744],[-54.344,1.741],[-54.344,1.747],[-54.35,1.748],[-54.351,1.754],[-54.377,1.764],[-54.387,1.745],[-54.403,1.76],[-54.417,1.757],[-54.424,1.761],[-54.434,1.754],[-54.464,1.76],[-54.47,1.756],[-54.471,1.752],[-54.484,1.756],[-54.485,1.752],[-54.495,1.747],[-54.501,1.751],[-54.508,1.749],[-54.512,1.754],[-54.523,1.756],[-54.528,1.765],[-54.537,1.771],[-54.571,1.778],[-54.57,1.785],[-54.581,1.778],[-54.601,1.785],[-54.611,1.78],[-54.625,1.781],[-54.643,1.769],[-54.651,1.772],[-54.671,1.766],[-54.679,1.769],[-54.692,1.768],[-54.7,1.776],[-54.702,1.773],[-54.718,1.771],[-54.744,1.776],[-54.746,1.787],[-54.752,1.791],[-54.754,1.798],[-54.746,1.806],[-54.75,1.815],[-54.734,1.832],[-54.74,1.832],[-54.739,1.84],[-54.748,1.843],[-54.749,1.846],[-54.753,1.851],[-54.753,1.876],[-54.759,1.89],[-54.763,1.893],[-54.761,1.906],[-54.765,1.908],[-54.771,1.941],[-54.765,1.944],[-54.758,1.957],[-54.76,1.961],[-54.755,1.961],[-54.754,1.971],[-54.764,1.979],[-54.772,1.979],[-54.769,1.997],[-54.78,2.0],[-54.79,2.008],[-54.795,2.017],[-54.803,2.026],[-54.807,2.038],[-54.811,2.04],[-54.805,2.054],[-54.812,2.063],[-54.812,2.071],[-54.806,2.077],[-54.813,2.101],[-54.804,2.108],[-54.809,2.123],[-54.803,2.133],[-54.806,2.139],[-54.8,2.143],[-54.798,2.15],[-54.789,2.157],[-54.791,2.162],[-54.781,2.167],[-54.783,2.175],[-54.767,2.181],[-54.769,2.188],[-54.762,2.193],[-54.763,2.203],[-54.77,2.209],[-54.775,2.221],[-54.781,2.224],[-54.798,2.246],[-54.811,2.267],[-54.809,2.287],[-54.802,2.29],[-54.807,2.298],[-54.802,2.308],[-54.794,2.313],[-54.805,2.33],[-54.807,2.342],[-54.866,2.403],[-54.867,2.409],[-54.874,2.416],[-54.876,2.427],[-54.872,2.434],[-54.797,2.439],[-54.783,2.448],[-54.744,2.472],[-54.684,2.447],[-54.692,2.362]]]}},{"type":"Feature","properties":{"id":"1600303","nome":"Macap\u00e1"},"geometry":{"type":"Polygon","coordinates":[[[-49.976,0.959],[-49.995,0.928],[-50.002,0.909],[-50.024,0.869],[-50.042,0.857],[-50.043,0.851],[-50.051,0.851],[-50.054,0.855],[-50.053,0.847],[-50.058,0.84],[-50.053,0.836],[-50.061,0.826],[-50.054,0.822],[-50.053,0.807],[-50.057,0.803],[-50.065,0.809],[-50.07,0.8],[-50.068,0.793],[-50.081,0.791],[-50.086,0.784],[-50.093,0.783],[-50.093,0.702],[-50.157,0.706],[-50.198,0.701],[-50.247,0.692],[-50.314,0.678],[-50.347,0.667],[-50.409,0.624],[-50.443,0.658],[-50.438,0.67],[-50.436,0.688],[-50.457,0.711],[-50.456,0.722],[-50.48,0.72],[-50.48,0.727],[-50.485,0.726],[-50.504,0.735],[-50.495,0.741],[-50.495,0.746],[-50.508,0.75],[-50.514,0.748],[-50.517,0.754],[-50.519,0.749],[-50.526,0.752],[-50.528,0.749],[-50.532,0.756],[-50.545,0.761],[-50.557,0.761],[-50.571,0.765],[-50.572,0.761],[-50.568,0.76],[-50.574,0.751],[-50.573,0.745],[-50.569,0.747],[-50.568,0.741],[-50.58,0.727],[-50.583,0.728],[-50.582,0.736],[-50.596,0.74],[-50.607,0.747],[-50.617,0.746],[-50.62,0.741],[-50.625,0.698],[-50.618,0.697],[-50.618,0.692],[-50.62,0.685],[-50.626,0.684],[-50.63,0.68],[-50.627,0.663],[-50.631,0.643],[-50.63,0.625],[-50.637,0.617],[-50.647,0.613],[-50.648,0.605],[-50.656,0.596],[-50.651,0.593],[-50.651,0.589],[-50.662,0.582],[-50.667,0.59],[-50.666,0.599],[-50.673,0.601],[-50.676,0.606],[-50.676,0.619],[-50.682,0.62],[-50.688,0.619],[-50.686,0.611],[-50.691,0.605],[-50.701,0.606],[-50.707,0.598],[-50.721,0.633],[-50.732,0.637],[-50.737,0.632],[-50.753,0.636],[-50.758,0.645],[-50.762,0.646],[-50.765,0.653],[-50.774,0.656],[-50.772,0.659],[-50.778,0.663],[-50.782,0.665],[-50.777,0.667],[-50.778,0.675],[-50.786,0.678],[-50.792,0.691],[-50.805,0.705],[-50.813,0.707],[-50.818,0.717],[-50.825,0.72],[-50.83,0.731],[-50.84,0.742],[-50.854,0.747],[-50.871,0.75],[-50.895,0.708],[-50.913,0.674],[-50.938,0.682],[-50.948,0.667],[-50.97,0.667],[-50.963,0.662],[-50.956,0.647],[-50.948,0.644],[-50.944,0.634],[-50.939,0.632],[-50.936,0.627],[-50.936,0.612],[-50.928,0.592],[-50.926,0.573],[-50.932,0.567],[-50.923,0.555],[-50.914,0.554],[-50.908,0.563],[-50.897,0.569],[-50.881,0.569],[-50.859,0.556],[-50.863,0.548],[-50.863,0.542],[-50.839,0.541],[-50.828,0.529],[-50.826,0.52],[-50.809,0.521],[-50.804,0.524],[-50.801,0.522],[-50.793,0.531],[-50.789,0.532],[-50.78,0.532],[-50.778,0.525],[-50.774,0.522],[-50.775,0.511],[-50.771,0.505],[-50.771,0.497],[-50.761,0.498],[-50.761,0.494],[-50.766,0.49],[-50.766,0.478],[-50.759,0.464],[-50.753,0.464],[-50.753,0.468],[-50.749,0.468],[-50.743,0.464],[-50.744,0.453],[-50.736,0.447],[-50.736,0.444],[-50.732,0.445],[-50.736,0.438],[-50.733,0.432],[-50.723,0.437],[-50.723,0.423],[-50.719,0.422],[-50.716,0.426],[-50.71,0.423],[-50.719,0.417],[-50.712,0.419],[-50.721,0.406],[-50.706,0.401],[-50.704,0.407],[-50.697,0.402],[-50.704,0.4],[-50.703,0.395],[-50.694,0.397],[-50.703,0.383],[-50.711,0.383],[-50.722,0.377],[-50.729,0.368],[-50.723,0.365],[-50.721,0.37],[-50.709,0.368],[-50.703,0.363],[-50.698,0.364],[-50.691,0.353],[-50.695,0.353],[-50.698,0.343],[-50.692,0.336],[-50.7,0.32],[-50.705,0.323],[-50.711,0.318],[-50.717,0.323],[-50.722,0.318],[-50.723,0.309],[-50.731,0.306],[-50.73,0.296],[-50.727,0.301],[-50.723,0.299],[-50.719,0.286],[-50.716,0.279],[-50.709,0.282],[-50.709,0.277],[-50.644,0.209],[-50.675,0.18],[-50.707,0.156],[-50.752,0.126],[-50.803,0.107],[-50.908,0.08],[-50.911,0.079],[-50.934,0.07],[-50.974,0.042],[-50.985,0.03],[-50.996,0.004],[-51.0,0.0],[-51.007,0.0],[-51.029,-0.028],[-51.065,-0.076],[-51.084,-0.087],[-51.097,-0.088],[-51.118,-0.097],[-51.141,-0.055],[-51.143,-0.051],[-51.142,-0.049],[-51.141,-0.046],[-51.14,-0.041],[-51.146,-0.034],[-51.134,-0.019],[-51.115,-0.013],[-51.108,-0.009],[-51.11,-0.006],[-51.122,0.002],[-51.206,0.002],[-51.205,0.009],[-51.209,0.012],[-51.221,0.017],[-51.232,0.016],[-51.236,0.018],[-51.237,0.024],[-51.231,0.035],[-51.248,0.033],[-51.25,0.038],[-51.24,0.058],[-51.232,0.062],[-51.216,0.064],[-51.217,0.076],[-51.214,0.08],[-51.209,0.077],[-51.204,0.081],[-51.206,0.09],[-51.199,0.09],[-51.192,0.1],[-51.199,0.108],[-51.198,0.11],[-51.191,0.107],[-51.188,0.119],[-51.189,0.155],[-51.198,0.158],[-51.204,0.165],[-51.22,0.169],[-51.229,0.176],[-51.253,0.176],[-51.263,0.167],[-51.274,0.168],[-51.274,0.18],[-51.281,0.19],[-51.294,0.199],[-51.291,0.207],[-51.31,0.215],[-51.319,0.222],[-51.322,0.229],[-51.337,0.243],[-51.34,0.242],[-51.346,0.266],[-51.365,0.297],[-51.364,0.302],[-51.383,0.314],[-51.387,0.336],[-51.393,0.346],[-51.413,0.368],[-51.436,0.366],[-51.445,0.371],[-51.456,0.39],[-51.465,0.429],[-51.488,0.431],[-51.491,0.435],[-51.49,0.443],[-51.486,0.447],[-51.489,0.464],[-51.501,0.474],[-51.495,0.483],[-51.482,0.482],[-51.477,0.487],[-51.468,0.489],[-51.469,0.5],[-51.453,0.503],[-51.448,0.513],[-51.444,0.514],[-51.426,0.506],[-51.41,0.486],[-51.383,0.492],[-51.362,0.488],[-51.356,0.482],[-51.33,0.468],[-51.32,0.476],[-51.309,0.476],[-51.3,0.465],[-51.287,0.463],[-51.273,0.452],[-51.259,0.454],[-51.257,0.451],[-51.257,0.446],[-51.26,0.445],[-51.253,0.44],[-51.252,0.433],[-51.245,0.432],[-51.246,0.425],[-51.242,0.416],[-51.237,0.414],[-51.237,0.408],[-51.217,0.403],[-51.207,0.389],[-51.208,0.377],[-51.205,0.369],[-51.212,0.35],[-51.207,0.342],[-51.209,0.336],[-51.206,0.323],[-51.187,0.322],[-51.184,0.317],[-51.175,0.313],[-51.16,0.322],[-51.141,0.317],[-51.137,0.314],[-51.128,0.321],[-51.13,0.333],[-51.135,0.341],[-51.124,0.357],[-51.124,0.368],[-51.115,0.382],[-51.112,0.391],[-51.115,0.402],[-51.095,0.431],[-51.079,0.444],[-51.058,0.449],[-51.05,0.44],[-51.051,0.429],[-51.045,0.432],[-51.044,0.433],[-51.036,0.438],[-51.027,0.436],[-51.029,0.465],[-51.012,0.465],[-51.009,0.487],[-50.998,0.503],[-50.98,0.501],[-50.965,0.504],[-50.938,0.501],[-50.927,0.51],[-50.928,0.519],[-50.953,0.532],[-50.954,0.539],[-50.961,0.538],[-50.966,0.545],[-50.965,0.549],[-50.97,0.548],[-50.977,0.558],[-50.984,0.557],[-50.989,0.573],[-50.997,0.582],[-50.997,0.593],[-50.988,0.603],[-50.987,0.615],[-50.993,0.639],[-50.997,0.644],[-50.991,0.67],[-50.984,0.677],[-50.983,0.686],[-50.977,0.694],[-50.909,0.722],[-50.9,0.734],[-50.912,0.756],[-50.911,0.763],[-50.901,0.778],[-50.886,0.769],[-50.886,0.798],[-50.871,0.804],[-50.848,0.819],[-50.829,0.824],[-50.797,0.848],[-50.784,0.84],[-50.773,0.826],[-50.758,0.82],[-50.753,0.822],[-50.744,0.824],[-50.733,0.817],[-50.707,0.815],[-50.692,0.821],[-50.672,0.836],[-50.66,0.842],[-50.66,0.85],[-50.654,0.871],[-50.651,0.872],[-50.646,0.873],[-50.645,0.877],[-50.637,0.872],[-50.636,0.879],[-50.636,0.864],[-50.63,0.863],[-50.624,0.87],[-50.613,0.868],[-50.612,0.864],[-50.608,0.863],[-50.606,0.883],[-50.609,0.889],[-50.604,0.891],[-50.596,0.882],[-50.592,0.866],[-50.594,0.862],[-50.59,0.858],[-50.585,0.857],[-50.578,0.862],[-50.573,0.872],[-50.575,0.882],[-50.566,0.88],[-50.567,0.873],[-50.555,0.865],[-50.552,0.865],[-50.55,0.87],[-50.545,0.87],[-50.532,0.866],[-50.529,0.874],[-50.522,0.876],[-50.515,0.885],[-50.513,0.892],[-50.501,0.903],[-50.496,0.911],[-50.502,0.918],[-50.496,0.923],[-50.477,0.924],[-50.463,0.917],[-50.444,0.928],[-50.438,0.926],[-50.431,0.947],[-50.423,0.953],[-50.414,0.945],[-50.415,0.937],[-50.404,0.923],[-50.384,0.931],[-50.383,0.922],[-50.373,0.924],[-50.363,0.93],[-50.365,0.936],[-50.357,0.939],[-50.354,0.933],[-50.336,0.923],[-50.322,0.942],[-50.314,0.944],[-50.308,0.944],[-50.233,1.01],[-50.185,1.051],[-50.188,1.066],[-50.17,1.099],[-50.143,1.102],[-50.138,1.109],[-50.134,1.128],[-50.13,1.132],[-50.116,1.14],[-50.105,1.14],[-50.095,1.153],[-50.085,1.159],[-50.08,1.172],[-50.083,1.181],[-50.08,1.186],[-50.071,1.19],[-50.068,1.209],[-49.983,1.224],[-49.955,1.237],[-49.906,1.274],[-49.899,1.233],[-49.892,1.215],[-49.893,1.193],[-49.912,1.156],[-49.918,1.137],[-49.936,1.114],[-49.942,1.113],[-49.945,1.109],[-49.942,1.103],[-49.945,1.071],[-49.949,1.04],[-49.943,1.033],[-49.94,1.009],[-49.94,0.994],[-49.946,0.983],[-49.97,0.959],[-49.976,0.959]]]}},{"type":"Feature","properties":{"id":"1600402","nome":"Mazag\u00e3o"},"geometry":{"type":"Polygon","coordinates":[[[-52.66,0.83],[-52.665,0.806],[-52.661,0.792],[-52.654,0.786],[-52.644,0.777],[-52.632,0.775],[-52.62,0.762],[-52.614,0.741],[-52.61,0.739],[-52.583,0.742],[-52.577,0.739],[-52.568,0.725],[-52.546,0.721],[-52.533,0.698],[-52.524,0.693],[-52.519,0.684],[-52.505,0.678],[-52.501,0.673],[-52.498,0.66],[-52.506,0.648],[-52.503,0.643],[-52.49,0.639],[-52.481,0.632],[-52.48,0.617],[-52.47,0.604],[-52.467,0.593],[-52.466,0.583],[-52.461,0.574],[-52.438,0.57],[-52.414,0.549],[-52.417,0.526],[-52.416,0.511],[-52.411,0.504],[-52.395,0.499],[-52.397,0.492],[-52.393,0.485],[-52.384,0.485],[-52.386,0.468],[-52.376,0.452],[-52.365,0.449],[-52.348,0.433],[-52.337,0.44],[-52.338,0.423],[-52.345,0.417],[-52.347,0.41],[-52.338,0.402],[-52.337,0.384],[-52.329,0.382],[-52.324,0.386],[-52.319,0.38],[-52.315,0.379],[-52.3,0.389],[-52.296,0.397],[-52.28,0.368],[-52.273,0.371],[-52.24,0.364],[-52.234,0.369],[-52.234,0.383],[-52.238,0.392],[-52.234,0.403],[-52.201,0.443],[-52.2,0.458],[-52.191,0.464],[-52.164,0.469],[-52.153,0.476],[-52.143,0.489],[-52.109,0.499],[-52.105,0.507],[-52.098,0.511],[-52.08,0.511],[-52.061,0.499],[-52.051,0.485],[-52.038,0.48],[-52.029,0.472],[-52.017,0.481],[-51.996,0.477],[-51.969,0.466],[-51.957,0.464],[-51.957,0.455],[-51.952,0.453],[-51.948,0.453],[-51.946,0.458],[-51.935,0.453],[-51.92,0.454],[-51.913,0.452],[-51.91,0.456],[-51.897,0.45],[-51.889,0.458],[-51.887,0.454],[-51.877,0.453],[-51.874,0.447],[-51.858,0.443],[-51.857,0.448],[-51.841,0.446],[-51.836,0.45],[-51.837,0.455],[-51.831,0.452],[-51.813,0.459],[-51.805,0.458],[-51.801,0.454],[-51.794,0.455],[-51.791,0.442],[-51.786,0.439],[-51.782,0.429],[-51.777,0.429],[-51.767,0.422],[-51.768,0.418],[-51.764,0.413],[-51.747,0.413],[-51.74,0.406],[-51.735,0.407],[-51.731,0.413],[-51.721,0.414],[-51.713,0.404],[-51.701,0.401],[-51.694,0.39],[-51.698,0.386],[-51.69,0.362],[-51.681,0.356],[-51.692,0.344],[-51.697,0.345],[-51.696,0.34],[-51.692,0.339],[-51.696,0.33],[-51.691,0.322],[-51.683,0.318],[-51.674,0.301],[-51.647,0.289],[-51.631,0.27],[-51.626,0.275],[-51.619,0.263],[-51.61,0.255],[-51.612,0.251],[-51.608,0.245],[-51.595,0.24],[-51.593,0.242],[-51.581,0.23],[-51.577,0.23],[-51.578,0.216],[-51.573,0.217],[-51.569,0.2],[-51.574,0.201],[-51.577,0.194],[-51.573,0.181],[-51.573,0.164],[-51.577,0.161],[-51.58,0.157],[-51.579,0.152],[-51.578,0.148],[-51.575,0.14],[-51.569,0.146],[-51.566,0.139],[-51.568,0.131],[-51.56,0.116],[-51.564,0.112],[-51.563,0.109],[-51.55,0.101],[-51.543,0.088],[-51.535,0.081],[-51.533,0.052],[-51.525,0.046],[-51.49,0.037],[-51.491,0.031],[-51.488,0.025],[-51.464,0.013],[-51.456,0.013],[-51.445,-0.011],[-51.439,-0.035],[-51.42,-0.051],[-51.409,-0.055],[-51.402,-0.071],[-51.392,-0.074],[-51.366,-0.073],[-51.348,-0.081],[-51.328,-0.083],[-51.316,-0.08],[-51.286,-0.088],[-51.273,-0.099],[-51.256,-0.088],[-51.239,-0.088],[-51.223,-0.092],[-51.216,-0.118],[-51.265,-0.195],[-51.289,-0.228],[-51.302,-0.251],[-51.328,-0.269],[-51.346,-0.296],[-51.354,-0.321],[-51.361,-0.358],[-51.362,-0.368],[-51.407,-0.417],[-51.42,-0.429],[-51.432,-0.473],[-51.457,-0.513],[-51.486,-0.545],[-51.503,-0.556],[-51.512,-0.564],[-51.595,-0.65],[-51.665,-0.762],[-51.683,-0.797],[-51.713,-0.804],[-51.728,-0.821],[-51.739,-0.828],[-51.72,-0.834],[-51.735,-0.838],[-51.737,-0.842],[-51.736,-0.845],[-51.73,-0.845],[-51.726,-0.858],[-51.741,-0.858],[-51.74,-0.867],[-51.751,-0.864],[-51.771,-0.87],[-51.78,-0.865],[-51.784,-0.857],[-51.793,-0.869],[-51.8,-0.864],[-51.808,-0.865],[-51.806,-0.873],[-51.809,-0.874],[-51.823,-0.862],[-51.825,-0.881],[-51.816,-0.888],[-51.824,-0.912],[-51.834,-0.909],[-51.835,-0.921],[-51.841,-0.916],[-51.847,-0.905],[-51.86,-0.904],[-51.864,-0.893],[-51.874,-0.889],[-51.88,-0.883],[-51.883,-0.884],[-51.883,-0.891],[-51.887,-0.892],[-51.893,-0.889],[-51.897,-0.882],[-51.899,-0.887],[-51.903,-0.887],[-51.904,-0.876],[-51.91,-0.874],[-51.913,-0.884],[-51.918,-0.881],[-51.918,-0.874],[-51.924,-0.873],[-51.924,-0.882],[-51.93,-0.882],[-51.94,-0.872],[-51.945,-0.861],[-51.954,-0.859],[-51.958,-0.847],[-51.956,-0.837],[-51.95,-0.834],[-51.94,-0.81],[-51.941,-0.799],[-51.947,-0.801],[-51.943,-0.774],[-51.938,-0.771],[-51.942,-0.761],[-51.948,-0.752],[-51.951,-0.755],[-51.96,-0.747],[-51.969,-0.748],[-51.972,-0.735],[-51.98,-0.725],[-51.98,-0.703],[-51.985,-0.69],[-52.006,-0.683],[-52.017,-0.687],[-52.033,-0.661],[-52.039,-0.658],[-52.045,-0.646],[-52.055,-0.642],[-52.054,-0.622],[-52.057,-0.615],[-52.056,-0.606],[-52.061,-0.598],[-52.061,-0.569],[-52.084,-0.564],[-52.082,-0.556],[-52.074,-0.55],[-52.076,-0.541],[-52.072,-0.529],[-52.077,-0.527],[-52.075,-0.52],[-52.082,-0.513],[-52.075,-0.507],[-52.063,-0.482],[-52.067,-0.465],[-52.075,-0.462],[-52.082,-0.447],[-52.08,-0.437],[-52.083,-0.432],[-52.082,-0.408],[-52.084,-0.401],[-52.082,-0.338],[-52.09,-0.326],[-52.108,-0.312],[-52.128,-0.287],[-52.176,-0.27],[-52.184,-0.262],[-52.197,-0.256],[-52.242,-0.259],[-52.272,-0.234],[-52.274,-0.228],[-52.284,-0.219],[-52.285,-0.216],[-52.297,-0.202],[-52.311,-0.169],[-52.321,-0.154],[-52.332,-0.146],[-52.359,-0.142],[-52.376,-0.134],[-52.388,-0.126],[-52.408,-0.121],[-52.413,-0.116],[-52.436,-0.107],[-52.462,-0.106],[-52.498,-0.114],[-52.521,-0.14],[-52.528,-0.143],[-52.532,-0.15],[-52.535,-0.149],[-52.535,-0.145],[-52.547,-0.144],[-52.549,-0.14],[-52.557,-0.143],[-52.555,-0.136],[-52.558,-0.117],[-52.551,-0.11],[-52.548,-0.11],[-52.559,-0.099],[-52.559,-0.096],[-52.554,-0.092],[-52.546,-0.097],[-52.532,-0.081],[-52.531,-0.07],[-52.535,-0.067],[-52.53,-0.043],[-52.527,-0.041],[-52.528,-0.027],[-52.523,-0.019],[-52.508,-0.019],[-52.503,-0.007],[-52.506,0.004],[-52.503,0.008],[-52.511,0.018],[-52.503,0.034],[-52.504,0.038],[-52.514,0.043],[-52.508,0.051],[-52.501,0.053],[-52.512,0.062],[-52.508,0.069],[-52.512,0.073],[-52.502,0.081],[-52.499,0.088],[-52.506,0.1],[-52.502,0.105],[-52.502,0.115],[-52.498,0.12],[-52.5,0.135],[-52.504,0.138],[-52.494,0.145],[-52.492,0.158],[-52.495,0.172],[-52.492,0.18],[-52.488,0.182],[-52.486,0.194],[-52.498,0.22],[-52.486,0.218],[-52.486,0.227],[-52.499,0.237],[-52.495,0.245],[-52.497,0.254],[-52.494,0.258],[-52.489,0.255],[-52.487,0.26],[-52.49,0.269],[-52.484,0.271],[-52.486,0.277],[-52.494,0.281],[-52.496,0.298],[-52.509,0.317],[-52.513,0.318],[-52.533,0.346],[-52.535,0.344],[-52.539,0.356],[-52.551,0.364],[-52.558,0.364],[-52.56,0.369],[-52.556,0.378],[-52.564,0.377],[-52.57,0.383],[-52.571,0.391],[-52.566,0.409],[-52.569,0.418],[-52.571,0.418],[-52.576,0.438],[-52.583,0.437],[-52.584,0.44],[-52.571,0.452],[-52.572,0.467],[-52.577,0.468],[-52.588,0.485],[-52.589,0.499],[-52.595,0.502],[-52.61,0.527],[-52.622,0.532],[-52.632,0.54],[-52.647,0.564],[-52.656,0.588],[-52.658,0.588],[-52.658,0.594],[-52.665,0.601],[-52.661,0.617],[-52.665,0.626],[-52.667,0.668],[-52.663,0.7],[-52.658,0.711],[-52.659,0.737],[-52.655,0.744],[-52.663,0.757],[-52.669,0.787],[-52.7,0.802],[-52.726,0.808],[-52.737,0.816],[-52.726,0.821],[-52.722,0.827],[-52.698,0.825],[-52.679,0.829],[-52.675,0.827],[-52.663,0.834],[-52.66,0.83]]]}},{"type":"Feature","properties":{"id":"1600501","nome":"Oiapoque"},"geometry":{"type":"Polygon","coordinates":[[[-51.177,3.772],[-51.189,3.724],[-51.197,3.667],[-51.188,3.628],[-51.183,3.539],[-51.186,3.47],[-51.194,3.437],[-51.193,3.406],[-51.184,3.401],[-51.177,3.37],[-51.177,3.353],[-51.171,3.34],[-51.171,3.306],[-51.172,3.294],[-51.181,3.273],[-51.186,3.236],[-51.192,3.23],[-51.206,3.226],[-51.223,3.217],[-51.217,3.211],[-51.22,3.203],[-51.229,3.198],[-51.23,3.21],[-51.238,3.218],[-51.24,3.216],[-51.237,3.209],[-51.241,3.203],[-51.251,3.192],[-51.243,3.182],[-51.25,3.176],[-51.242,3.168],[-51.246,3.161],[-51.24,3.153],[-51.225,3.161],[-51.228,3.153],[-51.237,3.147],[-51.241,3.137],[-51.255,3.122],[-51.268,3.119],[-51.288,3.124],[-51.284,3.097],[-51.292,3.083],[-51.303,3.077],[-51.304,3.071],[-51.317,3.079],[-51.322,3.073],[-51.321,3.067],[-51.336,3.057],[-51.357,3.053],[-51.376,3.032],[-51.366,3.028],[-51.364,3.021],[-51.385,3.028],[-51.39,3.023],[-51.396,3.023],[-51.397,3.017],[-51.393,3.013],[-51.388,3.015],[-51.387,3.007],[-51.402,2.991],[-51.399,2.983],[-51.42,2.956],[-51.423,2.946],[-51.438,2.937],[-51.436,2.931],[-51.427,2.929],[-51.429,2.924],[-51.422,2.915],[-51.431,2.906],[-51.436,2.906],[-51.438,2.896],[-51.434,2.886],[-51.444,2.88],[-51.442,2.875],[-51.452,2.87],[-51.462,2.873],[-51.468,2.865],[-51.456,2.86],[-51.473,2.854],[-51.472,2.848],[-51.476,2.847],[-51.479,2.839],[-51.512,2.827],[-51.514,2.823],[-51.52,2.824],[-51.513,2.804],[-51.512,2.796],[-51.518,2.788],[-51.514,2.78],[-51.525,2.777],[-51.522,2.772],[-51.528,2.767],[-51.529,2.759],[-51.54,2.748],[-51.547,2.736],[-51.548,2.725],[-51.554,2.72],[-51.557,2.704],[-51.563,2.699],[-51.565,2.694],[-51.57,2.696],[-51.578,2.687],[-51.581,2.677],[-51.592,2.675],[-51.598,2.662],[-51.598,2.654],[-51.605,2.65],[-51.614,2.637],[-51.623,2.632],[-51.626,2.62],[-51.635,2.619],[-51.637,2.602],[-51.651,2.582],[-51.647,2.58],[-51.642,2.57],[-51.643,2.562],[-51.647,2.561],[-51.648,2.547],[-51.657,2.535],[-51.67,2.534],[-51.673,2.529],[-51.68,2.53],[-51.683,2.526],[-51.689,2.516],[-51.691,2.501],[-51.685,2.5],[-51.69,2.488],[-51.703,2.466],[-51.716,2.452],[-51.721,2.451],[-51.73,2.433],[-51.748,2.424],[-51.747,2.417],[-51.753,2.411],[-51.752,2.403],[-51.761,2.39],[-51.772,2.379],[-51.782,2.379],[-51.797,2.389],[-51.801,2.387],[-51.806,2.376],[-51.821,2.372],[-51.846,2.396],[-51.852,2.396],[-51.863,2.394],[-51.863,2.387],[-51.855,2.382],[-51.851,2.366],[-51.862,2.359],[-51.864,2.354],[-51.869,2.347],[-51.889,2.341],[-51.893,2.345],[-51.896,2.357],[-51.915,2.356],[-51.924,2.368],[-51.927,2.376],[-51.934,2.37],[-51.938,2.372],[-51.94,2.379],[-51.95,2.379],[-51.957,2.409],[-51.984,2.416],[-51.995,2.406],[-52.003,2.421],[-51.999,2.425],[-51.998,2.422],[-51.994,2.425],[-51.995,2.431],[-52.004,2.434],[-52.01,2.44],[-52.015,2.437],[-52.021,2.435],[-52.044,2.438],[-52.051,2.402],[-52.059,2.392],[-52.072,2.395],[-52.091,2.41],[-52.095,2.399],[-52.113,2.401],[-52.119,2.394],[-52.111,2.385],[-52.119,2.383],[-52.124,2.375],[-52.119,2.355],[-52.124,2.351],[-52.133,2.33],[-52.151,2.32],[-52.151,2.303],[-52.16,2.298],[-52.175,2.303],[-52.184,2.291],[-52.18,2.279],[-52.181,2.276],[-52.189,2.28],[-52.195,2.26],[-52.205,2.266],[-52.215,2.26],[-52.224,2.265],[-52.231,2.264],[-52.237,2.251],[-52.248,2.242],[-52.243,2.227],[-52.247,2.209],[-52.243,2.201],[-52.231,2.202],[-52.222,2.192],[-52.22,2.186],[-52.223,2.185],[-52.236,2.192],[-52.244,2.192],[-52.252,2.169],[-52.275,2.158],[-52.291,2.159],[-52.303,2.155],[-52.319,2.159],[-52.334,2.156],[-52.34,2.153],[-52.347,2.14],[-52.355,2.142],[-52.363,2.121],[-52.371,2.119],[-52.375,2.115],[-52.392,2.1],[-52.399,2.1],[-52.41,2.093],[-52.414,2.088],[-52.416,2.08],[-52.41,2.076],[-52.412,2.057],[-52.407,2.036],[-52.412,2.03],[-52.418,2.038],[-52.425,2.035],[-52.439,2.045],[-52.457,2.042],[-52.458,2.037],[-52.464,2.036],[-52.471,2.04],[-52.485,2.038],[-52.499,2.041],[-52.511,2.029],[-52.522,2.027],[-52.53,2.022],[-52.534,2.015],[-52.545,2.015],[-52.552,2.01],[-52.558,2.022],[-52.565,2.017],[-52.574,2.019],[-52.591,2.015],[-52.588,2.006],[-52.591,2.004],[-52.599,2.009],[-52.61,2.01],[-52.616,2.025],[-52.634,2.033],[-52.645,2.051],[-52.65,2.052],[-52.656,2.045],[-52.668,2.057],[-52.682,2.054],[-52.678,2.065],[-52.681,2.07],[-52.691,2.063],[-52.698,2.067],[-52.715,2.063],[-52.729,2.073],[-52.757,2.068],[-52.76,2.078],[-52.768,2.078],[-52.774,2.073],[-52.785,2.076],[-52.796,2.072],[-52.81,2.084],[-52.829,2.084],[-52.836,2.079],[-52.838,2.069],[-52.837,2.066],[-52.828,2.067],[-52.831,2.058],[-52.828,2.052],[-52.837,2.037],[-52.845,2.035],[-52.854,2.041],[-52.859,2.04],[-52.867,2.025],[-52.889,2.032],[-52.903,2.017],[-52.904,2.009],[-52.908,2.009],[-52.903,2.0],[-52.907,1.992],[-52.9,1.963],[-52.911,1.956],[-52.914,1.949],[-52.919,1.948],[-52.921,1.942],[-52.929,1.95],[-52.946,1.945],[-52.961,1.951],[-52.994,1.952],[-52.999,1.955],[-53.008,1.979],[-53.025,1.981],[-53.041,1.977],[-53.047,1.972],[-53.058,1.947],[-53.067,1.943],[-53.073,1.945],[-53.09,1.976],[-53.11,1.981],[-53.116,2.007],[-53.133,2.019],[-53.138,2.067],[-53.135,2.092],[-53.139,2.101],[-53.166,2.112],[-53.176,2.121],[-53.192,2.126],[-53.202,2.134],[-53.217,2.136],[-53.234,2.144],[-53.269,2.171],[-53.279,2.186],[-53.276,2.188],[-53.277,2.193],[-53.265,2.189],[-53.257,2.193],[-53.255,2.198],[-53.246,2.199],[-53.242,2.208],[-53.233,2.206],[-53.228,2.198],[-53.22,2.194],[-53.217,2.196],[-53.215,2.194],[-53.208,2.2],[-53.185,2.2],[-53.175,2.205],[-53.138,2.212],[-53.099,2.215],[-53.079,2.211],[-53.066,2.201],[-53.06,2.193],[-53.052,2.182],[-53.04,2.174],[-53.007,2.17],[-52.984,2.158],[-52.944,2.169],[-52.937,2.184],[-52.939,2.19],[-52.936,2.193],[-52.929,2.189],[-52.923,2.192],[-52.906,2.186],[-52.903,2.193],[-52.892,2.209],[-52.891,2.215],[-52.885,2.219],[-52.887,2.235],[-52.875,2.238],[-52.871,2.257],[-52.854,2.26],[-52.851,2.267],[-52.857,2.278],[-52.841,2.277],[-52.837,2.279],[-52.84,2.287],[-52.835,2.286],[-52.799,2.299],[-52.786,2.308],[-52.781,2.308],[-52.777,2.315],[-52.773,2.311],[-52.767,2.318],[-52.765,2.316],[-52.743,2.326],[-52.737,2.332],[-52.732,2.33],[-52.716,2.336],[-52.717,2.344],[-52.661,2.382],[-52.663,2.385],[-52.657,2.395],[-52.66,2.405],[-52.642,2.422],[-52.642,2.436],[-52.628,2.449],[-52.626,2.446],[-52.613,2.446],[-52.605,2.453],[-52.615,2.464],[-52.61,2.475],[-52.587,2.474],[-52.585,2.495],[-52.565,2.513],[-52.554,2.515],[-52.552,2.528],[-52.557,2.527],[-52.563,2.545],[-52.55,2.558],[-52.539,2.555],[-52.536,2.571],[-52.527,2.577],[-52.535,2.596],[-52.552,2.607],[-52.545,2.619],[-52.558,2.634],[-52.55,2.648],[-52.542,2.65],[-52.533,2.647],[-52.523,2.679],[-52.512,2.694],[-52.502,2.721],[-52.496,2.727],[-52.485,2.75],[-52.489,2.755],[-52.481,2.763],[-52.483,2.777],[-52.478,2.791],[-52.458,2.823],[-52.451,2.842],[-52.427,2.887],[-52.411,2.895],[-52.403,2.892],[-52.396,2.893],[-52.381,2.914],[-52.385,2.917],[-52.393,2.914],[-52.395,2.921],[-52.401,2.925],[-52.395,2.936],[-52.398,2.941],[-52.391,2.945],[-52.385,2.954],[-52.374,2.984],[-52.373,2.997],[-52.368,3.003],[-52.365,3.022],[-52.356,3.028],[-52.343,3.057],[-52.329,3.08],[-52.347,3.101],[-52.346,3.111],[-52.34,3.121],[-52.341,3.124],[-52.353,3.126],[-52.354,3.131],[-52.35,3.138],[-52.344,3.136],[-52.339,3.14],[-52.341,3.149],[-52.334,3.159],[-52.333,3.173],[-52.306,3.177],[-52.31,3.205],[-52.298,3.219],[-52.295,3.231],[-52.269,3.245],[-52.266,3.253],[-52.262,3.257],[-52.254,3.254],[-52.246,3.242],[-52.233,3.247],[-52.202,3.295],[-52.192,3.302],[-52.193,3.314],[-52.162,3.354],[-52.155,3.372],[-52.114,3.453],[-52.099,3.466],[-52.094,3.49],[-52.08,3.5],[-52.075,3.509],[-52.076,3.519],[-52.061,3.523],[-52.025,3.592],[-52.004,3.612],[-51.996,3.627],[-51.989,3.675],[-51.98,3.685],[-51.972,3.719],[-51.957,3.732],[-51.933,3.727],[-51.928,3.729],[-51.921,3.747],[-51.929,3.773],[-51.924,3.784],[-51.906,3.791],[-51.901,3.799],[-51.89,3.799],[-51.876,3.808],[-51.864,3.824],[-51.86,3.83],[-51.853,3.839],[-51.846,3.847],[-51.828,3.855],[-51.823,3.864],[-51.82,3.87],[-51.802,3.882],[-51.79,3.902],[-51.78,3.925],[-51.779,3.946],[-51.777,3.957],[-51.771,3.967],[-51.755,3.988],[-51.746,3.995],[-51.709,4.001],[-51.698,4.009],[-51.685,4.026],[-51.666,4.029],[-51.646,4.045],[-51.642,4.063],[-51.644,4.074],[-51.636,4.087],[-51.619,4.142],[-51.605,4.168],[-51.595,4.192],[-51.597,4.23],[-51.592,4.236],[-51.586,4.263],[-51.573,4.345],[-51.554,4.415],[-51.549,4.425],[-51.54,4.43],[-51.514,4.437],[-51.5,4.427],[-51.49,4.423],[-51.452,4.39],[-51.427,4.374],[-51.346,4.296],[-51.252,4.192],[-51.251,4.186],[-51.23,4.159],[-51.226,4.144],[-51.21,4.123],[-51.189,4.064],[-51.19,4.056],[-51.184,4.051],[-51.182,4.009],[-51.176,3.987],[-51.176,3.961],[-51.179,3.945],[-51.166,3.936],[-51.177,3.772]]]}},{"type":"Feature","properties":{"id":"1600535","nome":"Porto Grande"},"geometry":{"type":"Polygon","coordinates":[[[-51.669,0.979],[-51.659,0.956],[-51.65,0.957],[-51.643,0.951],[-51.635,0.951],[-51.618,0.94],[-51.612,0.93],[-51.593,0.919],[-51.592,0.913],[-51.601,0.907],[-51.603,0.885],[-51.609,0.88],[-51.62,0.878],[-51.625,0.873],[-51.626,0.864],[-51.616,0.835],[-51.611,0.834],[-51.609,0.841],[-51.602,0.847],[-51.585,0.847],[-51.549,0.866],[-51.541,0.874],[-51.537,0.874],[-51.537,0.878],[-51.524,0.878],[-51.512,0.882],[-51.503,0.874],[-51.506,0.861],[-51.497,0.833],[-51.496,0.813],[-51.487,0.793],[-51.476,0.787],[-51.46,0.763],[-51.442,0.76],[-51.431,0.745],[-51.4,0.732],[-51.393,0.737],[-51.386,0.736],[-51.375,0.744],[-51.371,0.755],[-51.377,0.763],[-51.376,0.77],[-51.37,0.777],[-51.361,0.777],[-51.343,0.733],[-51.364,0.717],[-51.368,0.697],[-51.377,0.687],[-51.37,0.683],[-51.358,0.651],[-51.318,0.637],[-51.28,0.628],[-51.267,0.621],[-51.257,0.611],[-51.202,0.601],[-51.199,0.595],[-51.17,0.578],[-51.153,0.576],[-51.143,0.55],[-51.125,0.541],[-51.131,0.524],[-51.102,0.484],[-51.093,0.477],[-51.08,0.477],[-51.074,0.462],[-51.057,0.457],[-51.04,0.443],[-51.044,0.433],[-51.045,0.432],[-51.051,0.429],[-51.05,0.44],[-51.058,0.449],[-51.079,0.444],[-51.095,0.431],[-51.115,0.402],[-51.112,0.391],[-51.115,0.382],[-51.124,0.368],[-51.124,0.357],[-51.135,0.341],[-51.13,0.333],[-51.128,0.321],[-51.137,0.314],[-51.141,0.317],[-51.16,0.322],[-51.175,0.313],[-51.184,0.317],[-51.187,0.322],[-51.206,0.323],[-51.209,0.336],[-51.207,0.342],[-51.212,0.35],[-51.205,0.369],[-51.208,0.377],[-51.207,0.389],[-51.217,0.403],[-51.237,0.408],[-51.237,0.414],[-51.242,0.416],[-51.246,0.425],[-51.245,0.432],[-51.252,0.433],[-51.253,0.44],[-51.26,0.445],[-51.257,0.446],[-51.257,0.451],[-51.259,0.454],[-51.273,0.452],[-51.287,0.463],[-51.3,0.465],[-51.309,0.476],[-51.32,0.476],[-51.33,0.468],[-51.356,0.482],[-51.362,0.488],[-51.383,0.492],[-51.41,0.486],[-51.426,0.506],[-51.444,0.514],[-51.448,0.513],[-51.453,0.503],[-51.469,0.5],[-51.468,0.489],[-51.477,0.487],[-51.482,0.482],[-51.495,0.483],[-51.501,0.474],[-51.516,0.466],[-51.513,0.454],[-51.516,0.437],[-51.518,0.431],[-51.528,0.428],[-51.534,0.419],[-51.539,0.419],[-51.537,0.406],[-51.528,0.4],[-51.53,0.391],[-51.534,0.389],[-51.534,0.366],[-51.539,0.356],[-51.535,0.35],[-51.537,0.341],[-51.533,0.334],[-51.542,0.321],[-51.538,0.314],[-51.533,0.313],[-51.532,0.297],[-51.539,0.28],[-51.537,0.272],[-51.551,0.261],[-51.547,0.249],[-51.551,0.234],[-51.565,0.219],[-51.573,0.217],[-51.578,0.216],[-51.577,0.23],[-51.581,0.23],[-51.593,0.242],[-51.595,0.24],[-51.608,0.245],[-51.612,0.251],[-51.61,0.255],[-51.619,0.263],[-51.626,0.275],[-51.631,0.27],[-51.647,0.289],[-51.674,0.301],[-51.683,0.318],[-51.691,0.322],[-51.696,0.33],[-51.692,0.339],[-51.696,0.34],[-51.697,0.345],[-51.692,0.344],[-51.681,0.356],[-51.69,0.362],[-51.698,0.386],[-51.694,0.39],[-51.701,0.401],[-51.713,0.404],[-51.721,0.414],[-51.731,0.413],[-51.735,0.407],[-51.74,0.406],[-51.747,0.413],[-51.764,0.413],[-51.768,0.418],[-51.767,0.422],[-51.777,0.429],[-51.782,0.429],[-51.786,0.439],[-51.791,0.442],[-51.794,0.455],[-51.801,0.454],[-51.805,0.458],[-51.813,0.459],[-51.831,0.452],[-51.837,0.455],[-51.836,0.45],[-51.841,0.446],[-51.857,0.448],[-51.858,0.443],[-51.874,0.447],[-51.877,0.453],[-51.887,0.454],[-51.889,0.458],[-51.897,0.45],[-51.91,0.456],[-51.913,0.452],[-51.92,0.454],[-51.935,0.453],[-51.946,0.458],[-51.948,0.453],[-51.952,0.453],[-51.957,0.455],[-51.957,0.464],[-51.969,0.466],[-51.996,0.477],[-52.017,0.481],[-52.029,0.472],[-52.038,0.48],[-52.051,0.485],[-52.061,0.499],[-52.08,0.511],[-52.098,0.511],[-52.105,0.507],[-52.109,0.499],[-52.143,0.489],[-52.153,0.476],[-52.164,0.469],[-52.191,0.464],[-52.2,0.458],[-52.201,0.443],[-52.234,0.403],[-52.238,0.392],[-52.234,0.383],[-52.234,0.369],[-52.24,0.364],[-52.273,0.371],[-52.28,0.368],[-52.296,0.397],[-52.3,0.389],[-52.315,0.379],[-52.319,0.38],[-52.324,0.386],[-52.329,0.382],[-52.337,0.384],[-52.338,0.402],[-52.347,0.41],[-52.345,0.417],[-52.338,0.423],[-52.337,0.44],[-52.348,0.433],[-52.349,0.442],[-52.329,0.452],[-52.321,0.465],[-52.32,0.47],[-52.314,0.477],[-52.309,0.5],[-52.291,0.504],[-52.27,0.522],[-52.27,0.528],[-52.257,0.548],[-52.255,0.566],[-52.244,0.579],[-52.235,0.596],[-52.226,0.602],[-52.21,0.596],[-52.198,0.6],[-52.184,0.618],[-52.184,0.629],[-52.177,0.636],[-52.179,0.641],[-52.17,0.638],[-52.165,0.641],[-52.164,0.645],[-52.146,0.641],[-52.14,0.636],[-52.134,0.64],[-52.129,0.64],[-52.12,0.633],[-52.115,0.634],[-52.114,0.641],[-52.104,0.649],[-52.108,0.661],[-52.102,0.674],[-52.09,0.674],[-52.089,0.662],[-52.07,0.663],[-52.049,0.67],[-52.033,0.683],[-52.019,0.689],[-52.019,0.693],[-51.982,0.697],[-51.963,0.693],[-51.952,0.699],[-51.93,0.696],[-51.922,0.701],[-51.897,0.699],[-51.885,0.701],[-51.878,0.708],[-51.853,0.673],[-51.843,0.681],[-51.826,0.683],[-51.815,0.692],[-51.803,0.695],[-51.797,0.681],[-51.8,0.664],[-51.788,0.649],[-51.783,0.649],[-51.766,0.664],[-51.754,0.66],[-51.753,0.654],[-51.759,0.625],[-51.756,0.618],[-51.737,0.625],[-51.723,0.652],[-51.73,0.667],[-51.724,0.674],[-51.721,0.686],[-51.706,0.696],[-51.705,0.705],[-51.712,0.727],[-51.72,0.735],[-51.725,0.75],[-51.735,0.765],[-51.751,0.77],[-51.747,0.777],[-51.75,0.782],[-51.753,0.8],[-51.771,0.813],[-51.769,0.824],[-51.772,0.832],[-51.793,0.858],[-51.794,0.874],[-51.803,0.874],[-51.81,0.885],[-51.821,0.886],[-51.822,0.894],[-51.836,0.9],[-51.839,0.904],[-51.832,0.916],[-51.84,0.922],[-51.837,0.932],[-51.827,0.93],[-51.81,0.942],[-51.807,0.946],[-51.809,0.952],[-51.799,0.957],[-51.801,0.965],[-51.788,0.965],[-51.778,0.969],[-51.78,0.983],[-51.787,0.986],[-51.786,0.994],[-51.779,0.997],[-51.766,0.987],[-51.755,0.988],[-51.754,0.981],[-51.758,0.974],[-51.756,0.97],[-51.714,0.993],[-51.704,0.987],[-51.703,0.977],[-51.699,0.974],[-51.691,0.98],[-51.688,1.005],[-51.684,1.011],[-51.674,1.01],[-51.663,0.984],[-51.669,0.979]]]}},{"type":"Feature","properties":{"id":"1600550","nome":"Pracu\u00faba"},"geometry":{"type":"Polygon","coordinates":[[[-51.246,1.884],[-51.235,1.874],[-51.21,1.889],[-51.196,1.883],[-51.182,1.892],[-51.167,1.892],[-51.152,1.885],[-51.15,1.876],[-51.138,1.873],[-51.135,1.865],[-51.117,1.854],[-51.114,1.845],[-51.108,1.85],[-51.1,1.848],[-51.097,1.853],[-51.079,1.859],[-51.072,1.856],[-51.063,1.858],[-51.055,1.867],[-51.042,1.864],[-51.034,1.869],[-51.011,1.851],[-51.003,1.851],[-50.991,1.839],[-50.981,1.84],[-50.966,1.839],[-50.96,1.834],[-50.944,1.828],[-50.935,1.831],[-50.925,1.83],[-50.91,1.823],[-50.882,1.829],[-50.88,1.827],[-50.875,1.823],[-50.868,1.83],[-50.859,1.828],[-50.855,1.83],[-50.853,1.827],[-50.845,1.826],[-50.838,1.817],[-50.833,1.817],[-50.819,1.809],[-50.812,1.812],[-50.798,1.797],[-50.8,1.791],[-50.81,1.789],[-50.811,1.782],[-50.806,1.781],[-50.8,1.789],[-50.794,1.789],[-50.788,1.797],[-50.778,1.792],[-50.781,1.805],[-50.779,1.815],[-50.769,1.818],[-50.767,1.823],[-50.775,1.829],[-50.771,1.839],[-50.763,1.835],[-50.759,1.826],[-50.752,1.828],[-50.744,1.83],[-50.727,1.816],[-50.72,1.815],[-50.711,1.816],[-50.702,1.827],[-50.692,1.83],[-50.64,1.83],[-50.642,1.823],[-50.635,1.812],[-50.632,1.795],[-50.614,1.763],[-50.615,1.742],[-50.609,1.736],[-50.599,1.741],[-50.598,1.733],[-50.584,1.733],[-50.567,1.711],[-50.573,1.694],[-50.58,1.687],[-50.579,1.678],[-50.567,1.653],[-50.56,1.65],[-50.552,1.65],[-50.55,1.648],[-50.553,1.627],[-50.547,1.619],[-50.549,1.607],[-50.539,1.591],[-50.543,1.569],[-50.536,1.548],[-50.54,1.53],[-50.538,1.524],[-50.528,1.514],[-50.542,1.506],[-50.542,1.502],[-50.535,1.498],[-50.536,1.491],[-50.557,1.482],[-50.56,1.473],[-50.752,1.549],[-50.863,1.593],[-50.891,1.582],[-50.901,1.582],[-50.91,1.585],[-50.923,1.604],[-50.926,1.612],[-50.936,1.616],[-50.958,1.6],[-50.983,1.597],[-50.991,1.609],[-50.997,1.602],[-51.005,1.602],[-51.008,1.609],[-51.017,1.609],[-51.014,1.62],[-51.017,1.626],[-51.012,1.633],[-51.017,1.642],[-51.025,1.648],[-51.042,1.634],[-51.054,1.617],[-51.067,1.607],[-51.076,1.609],[-51.089,1.599],[-51.104,1.601],[-51.114,1.605],[-51.122,1.602],[-51.133,1.604],[-51.138,1.61],[-51.151,1.604],[-51.162,1.611],[-51.164,1.626],[-51.169,1.634],[-51.186,1.639],[-51.192,1.632],[-51.199,1.632],[-51.205,1.639],[-51.207,1.65],[-51.216,1.649],[-51.234,1.653],[-51.256,1.68],[-51.303,1.687],[-51.314,1.693],[-51.369,1.67],[-51.407,1.645],[-51.423,1.641],[-51.426,1.61],[-51.45,1.59],[-51.444,1.586],[-51.437,1.574],[-51.438,1.564],[-51.433,1.549],[-51.438,1.537],[-51.435,1.534],[-51.435,1.523],[-51.412,1.518],[-51.407,1.507],[-51.411,1.504],[-51.405,1.497],[-51.398,1.495],[-51.392,1.486],[-51.394,1.471],[-51.387,1.465],[-51.386,1.458],[-51.38,1.453],[-51.368,1.456],[-51.369,1.451],[-51.363,1.439],[-51.365,1.427],[-51.361,1.428],[-51.356,1.426],[-51.356,1.411],[-51.362,1.407],[-51.372,1.405],[-51.375,1.393],[-51.37,1.384],[-51.371,1.378],[-51.383,1.375],[-51.382,1.37],[-51.378,1.368],[-51.383,1.344],[-51.382,1.323],[-51.986,1.323],[-51.989,1.323],[-51.972,1.337],[-51.968,1.364],[-51.971,1.369],[-51.967,1.38],[-51.963,1.382],[-51.965,1.386],[-51.957,1.389],[-51.952,1.4],[-51.926,1.391],[-51.912,1.4],[-51.91,1.411],[-51.907,1.409],[-51.892,1.417],[-51.897,1.42],[-51.887,1.424],[-51.886,1.43],[-51.879,1.432],[-51.874,1.442],[-51.868,1.443],[-51.866,1.468],[-51.858,1.473],[-51.852,1.492],[-51.839,1.5],[-51.82,1.525],[-51.8,1.537],[-51.792,1.546],[-51.78,1.573],[-51.77,1.576],[-51.764,1.574],[-51.762,1.58],[-51.75,1.589],[-51.739,1.589],[-51.732,1.596],[-51.733,1.599],[-51.719,1.62],[-51.72,1.637],[-51.712,1.647],[-51.711,1.672],[-51.705,1.674],[-51.707,1.687],[-51.7,1.705],[-51.705,1.715],[-51.704,1.732],[-51.693,1.749],[-51.687,1.786],[-51.681,1.804],[-51.661,1.828],[-51.654,1.861],[-51.647,1.877],[-51.627,1.884],[-51.606,1.882],[-51.593,1.885],[-51.586,1.88],[-51.58,1.867],[-51.573,1.867],[-51.562,1.856],[-51.532,1.851],[-51.521,1.838],[-51.507,1.831],[-51.482,1.811],[-51.467,1.791],[-51.448,1.774],[-51.446,1.756],[-51.441,1.756],[-51.436,1.764],[-51.428,1.768],[-51.421,1.766],[-51.404,1.784],[-51.382,1.795],[-51.381,1.806],[-51.368,1.817],[-51.366,1.825],[-51.367,1.842],[-51.373,1.845],[-51.372,1.85],[-51.366,1.851],[-51.361,1.848],[-51.343,1.856],[-51.337,1.857],[-51.332,1.854],[-51.317,1.866],[-51.297,1.865],[-51.302,1.872],[-51.285,1.895],[-51.271,1.897],[-51.262,1.894],[-51.246,1.884]]]}},{"type":"Feature","properties":{"id":"1600600","nome":"Santana"},"geometry":{"type":"Polygon","coordinates":[[[-51.445,0.371],[-51.436,0.366],[-51.413,0.368],[-51.393,0.346],[-51.387,0.336],[-51.383,0.314],[-51.364,0.302],[-51.365,0.297],[-51.346,0.266],[-51.34,0.242],[-51.337,0.243],[-51.322,0.229],[-51.319,0.222],[-51.31,0.215],[-51.291,0.207],[-51.294,0.199],[-51.281,0.19],[-51.274,0.18],[-51.274,0.168],[-51.263,0.167],[-51.253,0.176],[-51.229,0.176],[-51.22,0.169],[-51.204,0.165],[-51.198,0.158],[-51.189,0.155],[-51.188,0.119],[-51.191,0.107],[-51.198,0.11],[-51.199,0.108],[-51.192,0.1],[-51.199,0.09],[-51.206,0.09],[-51.204,0.081],[-51.209,0.077],[-51.214,0.08],[-51.217,0.076],[-51.216,0.064],[-51.232,0.062],[-51.24,0.058],[-51.25,0.038],[-51.248,0.033],[-51.231,0.035],[-51.237,0.024],[-51.236,0.018],[-51.232,0.016],[-51.221,0.017],[-51.209,0.012],[-51.205,0.009],[-51.206,0.002],[-51.122,0.002],[-51.11,-0.006],[-51.108,-0.009],[-51.115,-0.013],[-51.134,-0.019],[-51.146,-0.034],[-51.14,-0.041],[-51.141,-0.046],[-51.142,-0.049],[-51.143,-0.051],[-51.141,-0.055],[-51.118,-0.097],[-51.143,-0.101],[-51.174,-0.104],[-51.216,-0.118],[-51.223,-0.092],[-51.239,-0.088],[-51.256,-0.088],[-51.273,-0.099],[-51.286,-0.088],[-51.316,-0.08],[-51.328,-0.083],[-51.348,-0.081],[-51.366,-0.073],[-51.392,-0.074],[-51.402,-0.071],[-51.409,-0.055],[-51.42,-0.051],[-51.439,-0.035],[-51.445,-0.011],[-51.456,0.013],[-51.464,0.013],[-51.488,0.025],[-51.491,0.031],[-51.49,0.037],[-51.525,0.046],[-51.533,0.052],[-51.535,0.081],[-51.543,0.088],[-51.55,0.101],[-51.563,0.109],[-51.564,0.112],[-51.56,0.116],[-51.568,0.131],[-51.566,0.139],[-51.569,0.146],[-51.575,0.14],[-51.578,0.148],[-51.579,0.152],[-51.58,0.157],[-51.577,0.161],[-51.573,0.164],[-51.573,0.181],[-51.577,0.194],[-51.574,0.201],[-51.569,0.2],[-51.573,0.217],[-51.565,0.219],[-51.551,0.234],[-51.547,0.249],[-51.551,0.261],[-51.537,0.272],[-51.539,0.28],[-51.532,0.297],[-51.533,0.313],[-51.538,0.314],[-51.542,0.321],[-51.533,0.334],[-51.537,0.341],[-51.535,0.35],[-51.539,0.356],[-51.534,0.366],[-51.534,0.389],[-51.53,0.391],[-51.528,0.4],[-51.537,0.406],[-51.539,0.419],[-51.534,0.419],[-51.528,0.428],[-51.518,0.431],[-51.516,0.437],[-51.513,0.454],[-51.516,0.466],[-51.501,0.474],[-51.489,0.464],[-51.486,0.447],[-51.49,0.443],[-51.491,0.435],[-51.488,0.431],[-51.465,0.429],[-51.456,0.39],[-51.445,0.371]]]}},{"type":"Feature","properties":{"id":"1600709","nome":"Tartarugalzinho"},"geometry":{"type":"Polygon","coordinates":[[[-51.234,1.653],[-51.216,1.649],[-51.207,1.65],[-51.205,1.639],[-51.199,1.632],[-51.192,1.632],[-51.186,1.639],[-51.169,1.634],[-51.164,1.626],[-51.162,1.611],[-51.151,1.604],[-51.138,1.61],[-51.133,1.604],[-51.122,1.602],[-51.114,1.605],[-51.104,1.601],[-51.089,1.599],[-51.076,1.609],[-51.067,1.607],[-51.054,1.617],[-51.042,1.634],[-51.025,1.648],[-51.017,1.642],[-51.012,1.633],[-51.017,1.626],[-51.014,1.62],[-51.017,1.609],[-51.008,1.609],[-51.005,1.602],[-50.997,1.602],[-50.991,1.609],[-50.983,1.597],[-50.958,1.6],[-50.936,1.616],[-50.926,1.612],[-50.923,1.604],[-50.91,1.585],[-50.901,1.582],[-50.891,1.582],[-50.863,1.593],[-50.752,1.549],[-50.56,1.473],[-50.553,1.461],[-50.434,1.238],[-50.419,1.224],[-50.416,1.198],[-50.424,1.189],[-50.415,1.179],[-50.437,1.16],[-50.451,1.145],[-50.455,1.138],[-50.456,1.124],[-50.451,1.102],[-50.454,1.085],[-50.476,1.057],[-50.513,1.032],[-50.521,1.032],[-50.526,1.036],[-50.528,1.061],[-50.546,1.082],[-50.553,1.08],[-50.561,1.069],[-50.574,1.064],[-50.585,1.081],[-50.596,1.085],[-50.622,1.078],[-50.633,1.064],[-50.63,1.05],[-50.619,1.03],[-50.623,1.019],[-50.632,1.016],[-50.648,1.016],[-50.656,1.021],[-50.664,1.036],[-50.674,1.046],[-50.683,1.05],[-50.716,1.032],[-50.74,1.035],[-50.753,1.03],[-50.786,1.025],[-50.796,1.019],[-50.802,1.01],[-50.807,0.997],[-50.802,0.975],[-50.811,0.964],[-50.821,0.958],[-50.856,0.954],[-50.868,0.961],[-50.876,0.986],[-50.886,0.993],[-50.926,0.988],[-50.939,0.992],[-50.957,0.979],[-50.976,0.978],[-50.983,0.97],[-50.982,0.954],[-50.99,0.945],[-50.994,0.934],[-50.997,0.935],[-50.996,0.943],[-51.003,0.947],[-51.003,0.945],[-51.007,0.946],[-51.01,0.954],[-51.007,0.955],[-51.007,0.96],[-51.014,0.961],[-51.011,0.966],[-51.021,0.978],[-51.013,0.988],[-51.031,0.991],[-51.029,1.006],[-51.045,1.011],[-51.052,1.02],[-51.062,1.02],[-51.076,1.025],[-51.097,1.021],[-51.119,1.011],[-51.124,1.011],[-51.146,1.031],[-51.155,1.031],[-51.174,1.037],[-51.181,1.035],[-51.181,1.031],[-51.186,1.028],[-51.196,1.011],[-51.203,0.995],[-51.217,0.987],[-51.228,0.971],[-51.229,0.959],[-51.236,0.953],[-51.239,0.953],[-51.245,0.964],[-51.248,0.977],[-51.257,0.973],[-51.272,0.974],[-51.28,0.977],[-51.29,0.974],[-51.308,0.983],[-51.331,0.978],[-51.343,0.98],[-51.35,0.964],[-51.36,0.958],[-51.365,0.948],[-51.37,0.946],[-51.378,0.953],[-51.385,0.966],[-51.399,0.976],[-51.406,0.987],[-51.416,0.994],[-51.416,1.011],[-51.404,1.051],[-51.407,1.057],[-51.425,1.063],[-51.46,1.069],[-51.478,1.088],[-51.466,1.107],[-51.456,1.112],[-51.451,1.111],[-51.446,1.127],[-51.449,1.132],[-51.441,1.144],[-51.443,1.152],[-51.439,1.164],[-51.439,1.188],[-51.429,1.194],[-51.428,1.207],[-51.434,1.214],[-51.435,1.241],[-51.442,1.247],[-51.431,1.252],[-51.431,1.257],[-51.424,1.258],[-51.42,1.267],[-51.404,1.271],[-51.398,1.27],[-51.392,1.275],[-51.391,1.279],[-51.396,1.285],[-51.389,1.297],[-51.382,1.323],[-51.383,1.344],[-51.378,1.368],[-51.382,1.37],[-51.383,1.375],[-51.371,1.378],[-51.37,1.384],[-51.375,1.393],[-51.372,1.405],[-51.362,1.407],[-51.356,1.411],[-51.356,1.426],[-51.361,1.428],[-51.365,1.427],[-51.363,1.439],[-51.369,1.451],[-51.368,1.456],[-51.38,1.453],[-51.386,1.458],[-51.387,1.465],[-51.394,1.471],[-51.392,1.486],[-51.398,1.495],[-51.405,1.497],[-51.411,1.504],[-51.407,1.507],[-51.412,1.518],[-51.435,1.523],[-51.435,1.534],[-51.438,1.537],[-51.433,1.549],[-51.438,1.564],[-51.437,1.574],[-51.444,1.586],[-51.45,1.59],[-51.426,1.61],[-51.423,1.641],[-51.407,1.645],[-51.369,1.67],[-51.314,1.693],[-51.303,1.687],[-51.256,1.68],[-51.234,1.653]]]}},{"type":"Feature","properties":{"id":"1600808","nome":"Vit\u00f3ria do Jari"},"geometry":{"type":"Polygon","coordinates":[[[-52.326,-0.797],[-52.279,-0.803],[-52.275,-0.804],[-52.265,-0.806],[-52.251,-0.815],[-52.244,-0.815],[-52.222,-0.835],[-52.199,-0.838],[-52.191,-0.845],[-52.191,-0.855],[-52.179,-0.868],[-52.178,-0.875],[-52.171,-0.881],[-52.171,-0.889],[-52.145,-0.915],[-52.139,-0.916],[-52.129,-0.913],[-52.119,-0.916],[-52.103,-0.914],[-52.088,-0.909],[-52.08,-0.916],[-52.074,-0.913],[-52.062,-0.913],[-52.051,-0.904],[-52.037,-0.902],[-52.026,-0.891],[-52.018,-0.894],[-52.002,-0.888],[-51.995,-0.884],[-51.994,-0.88],[-51.986,-0.879],[-51.982,-0.875],[-51.984,-0.872],[-51.971,-0.867],[-51.966,-0.869],[-51.964,-0.865],[-51.945,-0.873],[-51.94,-0.872],[-51.93,-0.882],[-51.924,-0.882],[-51.924,-0.873],[-51.918,-0.874],[-51.918,-0.881],[-51.913,-0.884],[-51.91,-0.874],[-51.904,-0.876],[-51.903,-0.887],[-51.899,-0.887],[-51.897,-0.882],[-51.893,-0.889],[-51.887,-0.892],[-51.883,-0.891],[-51.883,-0.884],[-51.88,-0.883],[-51.874,-0.889],[-51.864,-0.893],[-51.86,-0.904],[-51.847,-0.905],[-51.841,-0.916],[-51.835,-0.921],[-51.834,-0.909],[-51.824,-0.912],[-51.816,-0.888],[-51.825,-0.881],[-51.823,-0.862],[-51.809,-0.874],[-51.806,-0.873],[-51.808,-0.865],[-51.8,-0.864],[-51.793,-0.869],[-51.784,-0.857],[-51.78,-0.865],[-51.771,-0.87],[-51.751,-0.864],[-51.74,-0.867],[-51.741,-0.858],[-51.726,-0.858],[-51.73,-0.845],[-51.736,-0.845],[-51.737,-0.842],[-51.735,-0.838],[-51.72,-0.834],[-51.739,-0.828],[-51.728,-0.821],[-51.713,-0.804],[-51.683,-0.797],[-51.688,-0.823],[-51.692,-0.9],[-51.695,-0.924],[-51.689,-0.997],[-51.685,-1.013],[-51.687,-1.036],[-51.7,-1.063],[-51.747,-1.107],[-51.779,-1.137],[-51.778,-1.14],[-51.809,-1.157],[-51.882,-1.166],[-51.897,-1.162],[-51.926,-1.132],[-51.933,-1.137],[-51.946,-1.166],[-51.955,-1.169],[-51.961,-1.167],[-51.965,-1.159],[-51.962,-1.134],[-51.965,-1.125],[-51.975,-1.12],[-51.986,-1.122],[-51.993,-1.132],[-51.987,-1.156],[-51.991,-1.171],[-52.011,-1.167],[-52.04,-1.17],[-52.055,-1.177],[-52.064,-1.186],[-52.063,-1.193],[-52.047,-1.214],[-52.047,-1.219],[-52.054,-1.234],[-52.07,-1.236],[-52.102,-1.226],[-52.109,-1.218],[-52.11,-1.204],[-52.106,-1.183],[-52.116,-1.15],[-52.12,-1.146],[-52.146,-1.148],[-52.162,-1.134],[-52.173,-1.13],[-52.222,-1.134],[-52.238,-1.126],[-52.273,-1.128],[-52.301,-1.116],[-52.333,-1.116],[-52.352,-1.069],[-52.358,-1.062],[-52.383,-1.054],[-52.4,-1.043],[-52.42,-1.052],[-52.427,-1.05],[-52.429,-1.042],[-52.416,-1.025],[-52.414,-1.009],[-52.418,-0.999],[-52.419,-0.966],[-52.436,-0.948],[-52.439,-0.935],[-52.429,-0.92],[-52.413,-0.919],[-52.41,-0.917],[-52.404,-0.913],[-52.401,-0.887],[-52.403,-0.877],[-52.419,-0.854],[-52.444,-0.834],[-52.455,-0.83],[-52.397,-0.806],[-52.383,-0.81],[-52.376,-0.802],[-52.368,-0.797],[-52.351,-0.802],[-52.343,-0.798],[-52.326,-0.797]]]}}]}